{
"type": "FeatureCollection",
"name": "geo_33_中等教育学校",
"crs": { "type": "name", "properties": { "name": "urn:ogc:def:crs:EPSG::6668" } },
"features": [
{ "type": "Feature", "properties": { "P29_001": "33101", "P29_002": "D233210000015", "P29_003": "16003", "P29_004": "岡山県立岡山大安寺中等教育学校", "P29_005": "岡山県岡山市北区北長瀬本町19-34", "P29_006": "2", "P29_007": "0", "P29_008": "00", "P29_009": null }, "geometry": { "type": "Point", "coordinates": [ 133.883212334088483, 34.655930233453127 ] } },
{ "type": "Feature", "properties": { "P29_001": "33101", "P29_002": "D233310000013", "P29_003": "16003", "P29_004": "朝日塾中等教育学校", "P29_005": "岡山県岡山市北区御津紙工2590", "P29_006": "4", "P29_007": "0", "P29_008": "00", "P29_009": null }, "geometry": { "type": "Point", "coordinates": [ 133.859107059486178, 34.82214353392245 ] } }
]
}
