{
"type": "FeatureCollection",
"name": "geo_33_看護小規模多機能型居宅介護（複合型サービス）",
"crs": { "type": "name", "properties": { "name": "urn:ogc:def:crs:OGC:1.3:CRS84" } },
"features": [
{ "type": "Feature", "properties": { "内容": "看多機かえりえ万成西町【看護小規模多機能型居宅介護（複合型サービス）】岡山県岡山市北区万成西町3-3", "url": "https://www.kaigokensaku.mhlw.go.jp/33/index.php?action_kouhyou_detail_004_kani=true&JigyosyoCd=3390103343-00&ServiceCd=&Type=search", "url2": "https://search.yasashiite.com/detail/kantaki_mannarinishimachi/" }, "geometry": { "type": "Point", "coordinates": [ 133.891564215344204, 34.678649906353485 ] } },
{ "type": "Feature", "properties": { "内容": "看護小規模多機能型居宅介護事業所　福寿草【看護小規模多機能型居宅介護（複合型サービス）】岡山市北区平野858-2", "url": "https://www.kaigokensaku.mhlw.go.jp/33/index.php?action_kouhyou_detail_004_kani=true&JigyosyoCd=3390101818-00&ServiceCd=&Type=search", "url2": "https://www.fukujukai-gp.com" }, "geometry": { "type": "Point", "coordinates": [ 133.85772, 34.6445359 ] } },
{ "type": "Feature", "properties": { "内容": "創心会ナーシングベイ大安寺【看護小規模多機能型居宅介護（複合型サービス）】岡山県岡山市北区日吉町14－3創心会リハケアベース大安寺", "url": "https://www.kaigokensaku.mhlw.go.jp/33/index.php?action_kouhyou_detail_004_kani=true&JigyosyoCd=3390102972-00&ServiceCd=&Type=search", "url2": "https://www.soushinkai.com/" }, "geometry": { "type": "Point", "coordinates": [ 133.879186255958587, 34.656015178739644 ] } },
{ "type": "Feature", "properties": { "内容": "看護小規模多機能　エルム撫川くるみ庵【看護小規模多機能型居宅介護（複合型サービス）】岡山県岡山市北区撫川830番エルム撫川くるみ庵", "url": "https://www.kaigokensaku.mhlw.go.jp/33/index.php?action_kouhyou_detail_004_kani=true&JigyosyoCd=3390102949-00&ServiceCd=&Type=search", "url2": "http://www.life-create.org" }, "geometry": { "type": "Point", "coordinates": [ 133.842127495056587, 34.637914402826262 ] } },
{ "type": "Feature", "properties": { "内容": "看護小規模多機能型居宅介護のぞみ【看護小規模多機能型居宅介護（複合型サービス）】岡山県岡山市中区御幸町4番1号在宅サポートセンターミッションハウス", "url": "https://www.kaigokensaku.mhlw.go.jp/33/index.php?action_kouhyou_detail_004_kani=true&JigyosyoCd=3390102774-00&ServiceCd=&Type=search", "url2": "https://www.okayama-hakuaikai.or.jp/" }, "geometry": { "type": "Point", "coordinates": [ 133.934755, 34.653657199999984 ] } },
{ "type": "Feature", "properties": { "内容": "かんごしょうきぼたきのうがたきょたくかいご　なかしまやすらぎ【看護小規模多機能型居宅介護（複合型サービス）】岡山県岡山市中区中島75-1", "url": "https://www.kaigokensaku.mhlw.go.jp/33/index.php?action_kouhyou_detail_004_kani=true&JigyosyoCd=3390103459-00&ServiceCd=&Type=search", "url2": "http://www.takufukai-group.or.jp/" }, "geometry": { "type": "Point", "coordinates": [ 133.9450353, 34.6858629 ] } },
{ "type": "Feature", "properties": { "内容": "看護小規模多機能型居宅介護　たんぽぽ【看護小規模多機能型居宅介護（複合型サービス）】岡山県岡山市南区豊浜町1-20", "url": "https://www.kaigokensaku.mhlw.go.jp/33/index.php?action_kouhyou_detail_004_kani=true&JigyosyoCd=3390102253-00&ServiceCd=&Type=search", "url2": "htt㎰://isshinkai.jp" }, "geometry": { "type": "Point", "coordinates": [ 133.931481599999984, 34.634254 ] } },
{ "type": "Feature", "properties": { "内容": "看護小規模多機能ホーム　桃の風花【看護小規模多機能型居宅介護（複合型サービス）】玉島道口97－1", "url": "https://www.kaigokensaku.mhlw.go.jp/33/index.php?action_kouhyou_detail_004_kani=true&JigyosyoCd=3390201113-00&ServiceCd=&Type=search", "url2": "www.tomicare.com" }, "geometry": { "type": "Point", "coordinates": [ 133.653146200000037, 34.5585408 ] } },
{ "type": "Feature", "properties": { "内容": "看護小規模多機能ホームみどりのけあ笹沖【看護小規模多機能型居宅介護（複合型サービス）】笹沖547-1", "url": "https://www.kaigokensaku.mhlw.go.jp/33/index.php?action_kouhyou_detail_004_kani=true&JigyosyoCd=3390201717-00&ServiceCd=&Type=search", "url2": "http://kunpoo.jp" }, "geometry": { "type": "Point", "coordinates": [ 133.7664824, 34.5715266 ] } },
{ "type": "Feature", "properties": { "内容": "看護小規模多機能ホームさんらいふ三田さてらいと【看護小規模多機能型居宅介護（複合型サービス）】岡山県倉敷市三田91番地2", "url": "https://www.kaigokensaku.mhlw.go.jp/33/index.php?action_kouhyou_detail_004_kani=true&JigyosyoCd=3390201808-00&ServiceCd=&Type=search", "url2": "https://suiseikai-group.jp/heiseikai/" }, "geometry": { "type": "Point", "coordinates": [ 133.7992341, 34.6295875 ] } },
{ "type": "Feature", "properties": { "内容": "看護小規模多機能ホーム　さんらいふ　生坂【看護小規模多機能型居宅介護（複合型サービス）】岡山県倉敷市生坂492番地6", "url": "https://www.kaigokensaku.mhlw.go.jp/33/index.php?action_kouhyou_detail_004_kani=true&JigyosyoCd=3390201659-00&ServiceCd=&Type=search", "url2": "https://suiseikai-group.jp/heiseikai/" }, "geometry": { "type": "Point", "coordinates": [ 133.7854388, 34.6278427 ] } },
{ "type": "Feature", "properties": { "内容": "看多機　ふなお【看護小規模多機能型居宅介護（複合型サービス）】岡山県倉敷市船穂町船穂3827-1", "url": "https://www.kaigokensaku.mhlw.go.jp/33/index.php?action_kouhyou_detail_004_kani=true&JigyosyoCd=3390201980-00&ServiceCd=&Type=search", "url2": "https://care-one.moo.jp/" }, "geometry": { "type": "Point", "coordinates": [ 133.7064894, 34.5841571 ] } },
{ "type": "Feature", "properties": { "内容": "共生型看護小規模多機能ホーム桃の鈴花【看護小規模多機能型居宅介護（複合型サービス）】岡山県倉敷市玉島乙島7190－5富田ケアセンター令和乙島事業所", "url": "https://www.kaigokensaku.mhlw.go.jp/33/index.php?action_kouhyou_detail_004_kani=true&JigyosyoCd=3390201568-00&ServiceCd=&Type=search", "url2": "ｗｗｗ.tomicare.com" }, "geometry": { "type": "Point", "coordinates": [ 133.6844413, 34.5330778 ] } },
{ "type": "Feature", "properties": { "内容": "かんたき児島【看護小規模多機能型居宅介護（複合型サービス）】岡山県倉敷市児島味野一丁目4番23号", "url": "https://www.kaigokensaku.mhlw.go.jp/33/index.php?action_kouhyou_detail_004_kani=true&JigyosyoCd=3390201279-00&ServiceCd=&Type=search", "url2": null }, "geometry": { "type": "Point", "coordinates": [ 133.8053807, 34.4698273 ] } },
{ "type": "Feature", "properties": { "内容": "看護小規模多機能ホームぶどうの家真備【看護小規模多機能型居宅介護（複合型サービス）】岡山県倉敷市真備町箭田1179-6", "url": "https://www.kaigokensaku.mhlw.go.jp/33/index.php?action_kouhyou_detail_004_kani=true&JigyosyoCd=3390201972-00&ServiceCd=&Type=search", "url2": "https://www.budounoie.co.jp/" }, "geometry": { "type": "Point", "coordinates": [ 133.69172, 34.6303264 ] } },
{ "type": "Feature", "properties": { "内容": "ハーヴィスプラス【看護小規模多機能型居宅介護（複合型サービス）】岡山県玉野市東高崎24-8ハーヴィスヒルズ　1Ｆ", "url": "https://www.kaigokensaku.mhlw.go.jp/33/index.php?action_kouhyou_detail_004_kani=true&JigyosyoCd=3390400202-00&ServiceCd=&Type=search", "url2": "http://www.rcare.jp/" }, "geometry": { "type": "Point", "coordinates": [ 133.891823499999987, 34.538792 ] } },
{ "type": "Feature", "properties": { "内容": "看護小規模多機能型居宅介護ホーム　なごみの森【看護小規模多機能型居宅介護（複合型サービス）】岡山県高梁市原田南町1170-1", "url": "https://www.kaigokensaku.mhlw.go.jp/33/index.php?action_kouhyou_detail_004_kani=true&JigyosyoCd=3390900151-00&ServiceCd=&Type=search", "url2": "www.jyunshinkai.or.jp/nagominomori/" }, "geometry": { "type": "Point", "coordinates": [ 133.613858299999947, 34.7829931 ] } },
{ "type": "Feature", "properties": { "内容": "看護小規模多機能ホームかおり【看護小規模多機能型居宅介護（複合型サービス）】岡山県瀬戸内市邑久町福谷２０６－１", "url": "https://www.kaigokensaku.mhlw.go.jp/33/index.php?action_kouhyou_detail_004_kani=true&JigyosyoCd=3392400192-00&ServiceCd=&Type=search", "url2": "http://kaori0203.pluto.bindcloud.jp" }, "geometry": { "type": "Point", "coordinates": [ 134.1975663, 34.6810537 ] } },
{ "type": "Feature", "properties": { "内容": "看護小規模多機能ホーム縁路香【看護小規模多機能型居宅介護（複合型サービス）】岡山県瀬戸内市邑久町福谷214-1", "url": "https://www.kaigokensaku.mhlw.go.jp/33/index.php?action_kouhyou_detail_004_kani=true&JigyosyoCd=3392490011-00&ServiceCd=&Type=search", "url2": "http://kaori0203.pluto.bindcloud.jp" }, "geometry": { "type": "Point", "coordinates": [ 134.197152037028104, 34.681280183585237 ] } },
{ "type": "Feature", "properties": { "内容": "看護小規模多機能型居宅介護事業所　きぼうの杜ひのき【看護小規模多機能型居宅介護（複合型サービス）】岡山県真庭市上市瀬384番地2", "url": "https://www.kaigokensaku.mhlw.go.jp/33/index.php?action_kouhyou_detail_004_kani=true&JigyosyoCd=3393400241-00&ServiceCd=&Type=search", "url2": "https://www.ochiaihp.jp/group/hinoki.html" }, "geometry": { "type": "Point", "coordinates": [ 133.745193300000011, 35.0296943 ] } },
{ "type": "Feature", "properties": { "内容": "看護小規模多機能型居宅介護事業所わたぼうし【看護小規模多機能型居宅介護（複合型サービス）】岡山県真庭市本郷1819", "url": "https://www.kaigokensaku.mhlw.go.jp/33/index.php?action_kouhyou_detail_004_kani=true&JigyosyoCd=3393400258-00&ServiceCd=&Type=search", "url2": "http://www.katsuyama-hp.or.jp/wataboshi/kantaki.html" }, "geometry": { "type": "Point", "coordinates": [ 133.6891263, 35.0848424 ] } },
{ "type": "Feature", "properties": { "内容": "さつきの里看護小規模ケアホーム【看護小規模多機能型居宅介護（複合型サービス）】岡山県浅口市金光町地頭下２８４－１", "url": "https://www.kaigokensaku.mhlw.go.jp/33/index.php?action_kouhyou_detail_004_kani=true&JigyosyoCd=3392700054-00&ServiceCd=&Type=search", "url2": "http://satsuki.miwahp.com/" }, "geometry": { "type": "Point", "coordinates": [ 133.601895376057399, 34.54172210619442 ] } },
{ "type": "Feature", "properties": { "内容": "看護小規模多機能型居宅介護らいふ【看護小規模多機能型居宅介護（複合型サービス）】岡山県苫田郡鏡野町市場60-5", "url": "https://www.kaigokensaku.mhlw.go.jp/33/index.php?action_kouhyou_detail_004_kani=true&JigyosyoCd=3393500164-00&ServiceCd=&Type=search", "url2": "https://www.cras-ltd.com/company.html" }, "geometry": { "type": "Point", "coordinates": [ 133.951427099999989, 35.1127316 ] } }
]
}
