{
"type": "FeatureCollection",
"name": "geo_33_義務教育学校",
"crs": { "type": "name", "properties": { "name": "urn:ogc:def:crs:EPSG::6668" } },
"features": [
{ "type": "Feature", "properties": { "P29_001": "33103", "P29_002": "C233210000017", "P29_003": "16014", "P29_004": "岡山市立山南学園", "P29_005": "岡山県岡山市東区北幸田509-1", "P29_006": "3", "P29_007": "1", "P29_008": "00", "P29_009": null }, "geometry": { "type": "Point", "coordinates": [ 134.060448293194696, 34.622081123347101 ] } },
{ "type": "Feature", "properties": { "P29_001": "33666", "P29_002": "C233210000026", "P29_003": "16014", "P29_004": "美咲町立旭学園", "P29_005": "岡山県久米郡美咲町西川829-2", "P29_006": "3", "P29_007": "1", "P29_008": "00", "P29_009": null }, "geometry": { "type": "Point", "coordinates": [ 133.829025390175559, 34.971890161972631 ] } }
]
}
