{
"type": "FeatureCollection",
"name": "geo_33_通所リハビリテーション",
"crs": { "type": "name", "properties": { "name": "urn:ogc:def:crs:OGC:1.3:CRS84" } },
"features": [
{ "type": "Feature", "properties": { "内容": "あおき整形リハビリクリニック【通所リハビリテーション】岡山県岡山市北区久米２５０番地４", "url": "https://www.kaigokensaku.mhlw.go.jp/33/index.php?action_kouhyou_detail_004_kani=true&JigyosyoCd=3310111608-00&ServiceCd=160&Type=search", "url2": "aoki-ortho.com" }, "geometry": { "type": "Point", "coordinates": [ 133.868870600000037, 34.6471552 ] } },
{ "type": "Feature", "properties": { "内容": "介護老人保健施設　ハートフルきらめき荘【通所リハビリテーション】岡山県岡山市北区楢津３０５", "url": "https://www.kaigokensaku.mhlw.go.jp/33/index.php?action_kouhyou_detail_004_kani=true&JigyosyoCd=3350180034-00&ServiceCd=160&Type=search", "url2": "http://www.okayama-junshinkai.co.jp" }, "geometry": { "type": "Point", "coordinates": [ 133.887038100000041, 34.6800277 ] } },
{ "type": "Feature", "properties": { "内容": "介護老人保健施設　ハートフルかがやき荘【通所リハビリテーション】岡山県岡山市北区楢津500-5", "url": "https://www.kaigokensaku.mhlw.go.jp/33/index.php?action_kouhyou_detail_004_kani=true&JigyosyoCd=3350180240-00&ServiceCd=160&Type=search", "url2": "http://www.okayama-junshinkai.co.jp/" }, "geometry": { "type": "Point", "coordinates": [ 133.883048139371567, 34.679014769501364 ] } },
{ "type": "Feature", "properties": { "内容": "きらめきクリニック　通所リハビリテーション【通所リハビリテーション】岡山県岡山市北区下伊福一丁目2番6号", "url": "https://www.kaigokensaku.mhlw.go.jp/33/index.php?action_kouhyou_detail_004_kani=true&JigyosyoCd=3310116326-00&ServiceCd=160&Type=search", "url2": "http://www.okayama-junshinkai.co.jp/" }, "geometry": { "type": "Point", "coordinates": [ 133.906039299999946, 34.6661244 ] } },
{ "type": "Feature", "properties": { "内容": "医療法人　坂田整形外科医院【通所リハビリテーション】岡山県岡山市北区高柳西町１６－１０", "url": "https://www.kaigokensaku.mhlw.go.jp/33/index.php?action_kouhyou_detail_004_kani=true&JigyosyoCd=3310113828-00&ServiceCd=160&Type=search", "url2": null }, "geometry": { "type": "Point", "coordinates": [ 133.897994143516598, 34.661491538123897 ] } },
{ "type": "Feature", "properties": { "内容": "有森・整形外科・内科クリニック指定（予防）通所リハビリテーション【通所リハビリテーション】岡山県岡山市北区西辛川479", "url": "https://www.kaigokensaku.mhlw.go.jp/33/index.php?action_kouhyou_detail_004_kani=true&JigyosyoCd=3310112846-00&ServiceCd=160&Type=search", "url2": "http://arimori-fuwari.com/" }, "geometry": { "type": "Point", "coordinates": [ 133.860410600000023, 34.6818934 ] } },
{ "type": "Feature", "properties": { "内容": "医療法人　天成会　青江クリニック【通所リハビリテーション】青江５丁目１番３号", "url": "https://www.kaigokensaku.mhlw.go.jp/33/index.php?action_kouhyou_detail_004_kani=true&JigyosyoCd=3310111970-00&ServiceCd=160&Type=search", "url2": "daycare@tenseikai-aoe.or.jp" }, "geometry": { "type": "Point", "coordinates": [ 133.918166499999984, 34.6314678 ] } },
{ "type": "Feature", "properties": { "内容": "医療法人　佐藤医院【通所リハビリテーション】岡山県岡山市北区旭町１５", "url": "https://www.kaigokensaku.mhlw.go.jp/33/index.php?action_kouhyou_detail_004_kani=true&JigyosyoCd=3310112697-00&ServiceCd=160&Type=search", "url2": "http://www.satoclinic.or.jp/" }, "geometry": { "type": "Point", "coordinates": [ 133.927165856117881, 34.647115247437178 ] } },
{ "type": "Feature", "properties": { "内容": "医療法人　岡山水清会　岡山水清会病院【通所リハビリテーション】岡山県岡山市北区西花尻1231-1", "url": "https://www.kaigokensaku.mhlw.go.jp/33/index.php?action_kouhyou_detail_004_kani=true&JigyosyoCd=3310114776-00&ServiceCd=160&Type=search", "url2": "https://suiseikai-group.jp/okayama-suiseikai/" }, "geometry": { "type": "Point", "coordinates": [ 133.856453500000043, 34.651963 ] } },
{ "type": "Feature", "properties": { "内容": "御南クリニック【通所リハビリテーション】岡山県岡山市北区今保557番地16", "url": "https://www.kaigokensaku.mhlw.go.jp/33/index.php?action_kouhyou_detail_004_kani=true&JigyosyoCd=3310115823-00&ServiceCd=160&Type=search", "url2": "https://www.minanclinic.com/" }, "geometry": { "type": "Point", "coordinates": [ 133.871082626844753, 34.636333988603099 ] } },
{ "type": "Feature", "properties": { "内容": "老人保健施設岡山リハビリテーションホーム【通所リハビリテーション】岡山県岡山市北区谷万成1-6-5", "url": "https://www.kaigokensaku.mhlw.go.jp/33/index.php?action_kouhyou_detail_004_kani=true&JigyosyoCd=3350180042-00&ServiceCd=160&Type=search", "url2": "https://mannari.or.jp/" }, "geometry": { "type": "Point", "coordinates": [ 133.898353600000064, 34.676239599999981 ] } },
{ "type": "Feature", "properties": { "内容": "老人保健施設ももたろうリハビリセンター【通所リハビリテーション】岡山県岡山市北区下足守1852-1", "url": "https://www.kaigokensaku.mhlw.go.jp/33/index.php?action_kouhyou_detail_004_kani=true&JigyosyoCd=3350180117-00&ServiceCd=160&Type=search", "url2": null }, "geometry": { "type": "Point", "coordinates": [ 133.802216899999962, 34.7171701 ] } },
{ "type": "Feature", "properties": { "内容": "介護老人保健施設　光生リハビリ苑　通所リハビリステーション【通所リハビリテーション】岡山県岡山市北区厚生町３丁目８番３５号", "url": "https://www.kaigokensaku.mhlw.go.jp/33/index.php?action_kouhyou_detail_004_kani=true&JigyosyoCd=3350180125-00&ServiceCd=160&Type=search", "url2": "kousei-hp.or.jp" }, "geometry": { "type": "Point", "coordinates": [ 133.910936200000037, 34.6558786 ] } },
{ "type": "Feature", "properties": { "内容": "介護老人保健施設なでしこ苑【通所リハビリテーション】岡山県岡山市北区国体町3-12岡山済生会ライフケアセンター内", "url": "https://www.kaigokensaku.mhlw.go.jp/33/index.php?action_kouhyou_detail_004_kani=true&JigyosyoCd=3350180166-00&ServiceCd=160&Type=search", "url2": "http://www.okasaisei-life.jp" }, "geometry": { "type": "Point", "coordinates": [ 133.920442900000012, 34.6734989 ] } },
{ "type": "Feature", "properties": { "内容": "老人保健施設　高松アクティブホーム【通所リハビリテーション】岡山県岡山市北区立田５８７番地", "url": "https://www.kaigokensaku.mhlw.go.jp/33/index.php?action_kouhyou_detail_004_kani=true&JigyosyoCd=3350180174-00&ServiceCd=160&Type=search", "url2": "http://wwwt.active-home@soleil.ocn.ne.jp" }, "geometry": { "type": "Point", "coordinates": [ 133.829867799999988, 34.6843457 ] } },
{ "type": "Feature", "properties": { "内容": "介護老人保健施設たちばな苑【通所リハビリテーション】岡山県岡山市北区国体町3番12号", "url": "https://www.kaigokensaku.mhlw.go.jp/33/index.php?action_kouhyou_detail_004_kani=true&JigyosyoCd=3350180182-00&ServiceCd=160&Type=search", "url2": "http://www.okasaisei-life.jp" }, "geometry": { "type": "Point", "coordinates": [ 133.920442900000012, 34.6734989 ] } },
{ "type": "Feature", "properties": { "内容": "介護老人保健施設　備中荘【通所リハビリテーション】岡山県岡山市北区高松原古才６００－５", "url": "https://www.kaigokensaku.mhlw.go.jp/33/index.php?action_kouhyou_detail_004_kani=true&JigyosyoCd=3350180208-00&ServiceCd=160&Type=search", "url2": "https://www.okasaisei-life.jp/facility-list/corp-bicchuso" }, "geometry": { "type": "Point", "coordinates": [ 133.825845800000025, 34.6832736 ] } },
{ "type": "Feature", "properties": { "内容": "介護老人保健施設　葵の園・岡山福渡【通所リハビリテーション】岡山県岡山市北区建部町福渡408-1", "url": "https://www.kaigokensaku.mhlw.go.jp/33/index.php?action_kouhyou_detail_004_kani=true&JigyosyoCd=3350180224-00&ServiceCd=160&Type=search", "url2": "http://www.aoikai.jp/fukuwatari/" }, "geometry": { "type": "Point", "coordinates": [ 133.905004971025051, 34.869332529145929 ] } },
{ "type": "Feature", "properties": { "内容": "医療法人経和会　難波医院　通所リハビリテーション御津の木【通所リハビリテーション】岡山県岡山市北区御津金川963番地", "url": "https://www.kaigokensaku.mhlw.go.jp/33/index.php?action_kouhyou_detail_004_kani=true&JigyosyoCd=3370114914-00&ServiceCd=160&Type=search", "url2": null }, "geometry": { "type": "Point", "coordinates": [ 133.9347156, 34.7981178 ] } },
{ "type": "Feature", "properties": { "内容": "済生会吉備病院【通所リハビリテーション】岡山県岡山市北区高松原古才584-1", "url": "https://www.kaigokensaku.mhlw.go.jp/33/index.php?action_kouhyou_detail_004_kani=true&JigyosyoCd=3318800160-00&ServiceCd=160&Type=search", "url2": "https://www.saiseikaikibi.jp/" }, "geometry": { "type": "Point", "coordinates": [ 133.825439100000011, 34.6838351 ] } },
{ "type": "Feature", "properties": { "内容": "医療法人正善会今井医院【通所リハビリテーション】岡山県岡山市北区西辛川２６９番地２", "url": "https://www.kaigokensaku.mhlw.go.jp/33/index.php?action_kouhyou_detail_004_kani=true&JigyosyoCd=3310111491-00&ServiceCd=160&Type=search", "url2": "https://imaiiin-daycare.com" }, "geometry": { "type": "Point", "coordinates": [ 133.863704869975322, 34.680690807028874 ] } },
{ "type": "Feature", "properties": { "内容": "医療法人ほそたにクリニック【通所リハビリテーション】岡山県岡山市北区津島南2丁目5-25", "url": "https://www.kaigokensaku.mhlw.go.jp/33/index.php?action_kouhyou_detail_004_kani=true&JigyosyoCd=3310114479-00&ServiceCd=160&Type=search", "url2": "http://www.hosotani-cl.net/rehabili/" }, "geometry": { "type": "Point", "coordinates": [ 133.91084920000003, 34.6826837 ] } },
{ "type": "Feature", "properties": { "内容": "岡山そけいヘルニア日帰り手術Gi外科クリニック通所リハビリテーション【通所リハビリテーション】岡山市北区中仙道2丁目7番3号GiNEXTビル1F", "url": "https://www.kaigokensaku.mhlw.go.jp/33/index.php?action_kouhyou_detail_004_kani=true&JigyosyoCd=3310116276-00&ServiceCd=160&Type=search", "url2": "https://reha.gi-clinic.net/" }, "geometry": { "type": "Point", "coordinates": [ 133.8862792, 34.6468868 ] } },
{ "type": "Feature", "properties": { "内容": "渡辺医院【通所リハビリテーション】岡山市北区吉備津1022-6", "url": "https://www.kaigokensaku.mhlw.go.jp/33/index.php?action_kouhyou_detail_004_kani=true&JigyosyoCd=3310114222-00&ServiceCd=160&Type=search", "url2": "http://www.myclinic.ne.jp/wata_clinic/" }, "geometry": { "type": "Point", "coordinates": [ 133.845123400000034, 34.6733109 ] } },
{ "type": "Feature", "properties": { "内容": "医療法人雄風会　新あしもりクリニック【通所リハビリテーション】岡山県岡山市北区下足守1905-1", "url": "https://www.kaigokensaku.mhlw.go.jp/33/index.php?action_kouhyou_detail_004_kani=true&JigyosyoCd=3310113596-00&ServiceCd=160&Type=search", "url2": null }, "geometry": { "type": "Point", "coordinates": [ 133.803216799999973, 34.7179506 ] } },
{ "type": "Feature", "properties": { "内容": "老人保健施設　マスカット苑【通所リハビリテーション】岡山県岡山市北区菅野4281-1", "url": "https://www.kaigokensaku.mhlw.go.jp/33/index.php?action_kouhyou_detail_004_kani=true&JigyosyoCd=3350180158-00&ServiceCd=160&Type=search", "url2": "https://www.isto.or.jp/" }, "geometry": { "type": "Point", "coordinates": [ 133.886408500000016, 34.7420001 ] } },
{ "type": "Feature", "properties": { "内容": "医療法人　雄風会　あしもりクリニック【通所リハビリテーション】岡山県岡山市北区下足守１９００－１", "url": "https://www.kaigokensaku.mhlw.go.jp/33/index.php?action_kouhyou_detail_004_kani=true&JigyosyoCd=3310112564-00&ServiceCd=160&Type=search", "url2": "http://ikenaga-group.jp" }, "geometry": { "type": "Point", "coordinates": [ 133.803714, 34.7178979 ] } },
{ "type": "Feature", "properties": { "内容": "通所リハビリテーションひかり【通所リハビリテーション】大供２－２－１６", "url": "https://www.kaigokensaku.mhlw.go.jp/33/index.php?action_kouhyou_detail_004_kani=true&JigyosyoCd=3310115096-00&ServiceCd=160&Type=search", "url2": "http://www.kawaguchi-hp.or.jp/" }, "geometry": { "type": "Point", "coordinates": [ 133.91821873372956, 34.655587215767952 ] } },
{ "type": "Feature", "properties": { "内容": "順正通所リハビリテーションセンター【通所リハビリテーション】岡山県岡山市桑田町２番１０号ラ・エスペランサ　2階", "url": "https://www.kaigokensaku.mhlw.go.jp/33/index.php?action_kouhyou_detail_004_kani=true&JigyosyoCd=3310116045-00&ServiceCd=160&Type=search", "url2": "http://clients.tomono.jp/junseikai/site/index.html" }, "geometry": { "type": "Point", "coordinates": [ 133.916566, 34.6592616 ] } },
{ "type": "Feature", "properties": { "内容": "医療法人　おまち整形外科医院【通所リハビリテーション】岡山県岡山市中区雄町２９５－３", "url": "https://www.kaigokensaku.mhlw.go.jp/33/index.php?action_kouhyou_detail_004_kani=true&JigyosyoCd=3310112838-00&ServiceCd=160&Type=search", "url2": "http://omachiseikei.com" }, "geometry": { "type": "Point", "coordinates": [ 133.9737182, 34.6860048 ] } },
{ "type": "Feature", "properties": { "内容": "朝日医療クリニック　デイケア【通所リハビリテーション】東川原１４１－１０朝日医療クリニック　２F", "url": "https://www.kaigokensaku.mhlw.go.jp/33/index.php?action_kouhyou_detail_004_kani=true&JigyosyoCd=3310112317-00&ServiceCd=160&Type=search", "url2": "https://ash-ic.jp/" }, "geometry": { "type": "Point", "coordinates": [ 133.943863, 34.6778524 ] } },
{ "type": "Feature", "properties": { "内容": "医療法人社団　操仁会　岡山第一病院【通所リハビリテーション】岡山県岡山市中区高屋343", "url": "https://www.kaigokensaku.mhlw.go.jp/33/index.php?action_kouhyou_detail_004_kani=true&JigyosyoCd=3310113125-00&ServiceCd=160&Type=search", "url2": "http://www.okayama-daiichi.jp" }, "geometry": { "type": "Point", "coordinates": [ 133.96909370000003, 34.6748008 ] } },
{ "type": "Feature", "properties": { "内容": "さとう内科【通所リハビリテーション】岡山県岡山市中区中井2丁目11－23", "url": "https://www.kaigokensaku.mhlw.go.jp/33/index.php?action_kouhyou_detail_004_kani=true&JigyosyoCd=3310113372-00&ServiceCd=160&Type=search", "url2": "http://satounaika.net" }, "geometry": { "type": "Point", "coordinates": [ 133.96241120000002, 34.686765700000024 ] } },
{ "type": "Feature", "properties": { "内容": "公益財団法人　操風会　岡山リハビリテーション病院【通所リハビリテーション】岡山市中区倉田503-1", "url": "https://www.kaigokensaku.mhlw.go.jp/33/index.php?action_kouhyou_detail_004_kani=true&JigyosyoCd=3310115674-00&ServiceCd=160&Type=search", "url2": "http://www.okayama-reha.hp.or.jp/" }, "geometry": { "type": "Point", "coordinates": [ 133.958342799999969, 34.6298525 ] } },
{ "type": "Feature", "properties": { "内容": "介護老人保健施設　恵風苑　通所リハビリテーション【通所リハビリテーション】岡山市中区今在家304-6", "url": "https://www.kaigokensaku.mhlw.go.jp/33/index.php?action_kouhyou_detail_004_kani=true&JigyosyoCd=3350180018-00&ServiceCd=160&Type=search", "url2": "http://www.keifuukai.or.jp/blank-8" }, "geometry": { "type": "Point", "coordinates": [ 133.949468940501731, 34.689433034440498 ] } },
{ "type": "Feature", "properties": { "内容": "岡山協立病院　リハビリテーション部【通所リハビリテーション】岡山市中区赤坂本町8-10", "url": "https://www.kaigokensaku.mhlw.go.jp/33/index.php?action_kouhyou_detail_004_kani=true&JigyosyoCd=3310110626-00&ServiceCd=160&Type=search", "url2": "http://www.okayama-kyoritsu.jp/" }, "geometry": { "type": "Point", "coordinates": [ 133.9375973, 34.6512051 ] } },
{ "type": "Feature", "properties": { "内容": "介護老人保健施設　藤崎苑【通所リハビリテーション】岡山県岡山市中区藤崎463", "url": "https://www.kaigokensaku.mhlw.go.jp/33/index.php?action_kouhyou_detail_004_kani=true&JigyosyoCd=3350180067-00&ServiceCd=160&Type=search", "url2": "http://www.ryoyukai.or.jp/" }, "geometry": { "type": "Point", "coordinates": [ 133.971539600000028, 34.6186709 ] } },
{ "type": "Feature", "properties": { "内容": "原尾島クリニック通所リハビリセンター【通所リハビリテーション】岡山県岡山市中区原尾島三丁目8番16号", "url": "https://www.kaigokensaku.mhlw.go.jp/33/index.php?action_kouhyou_detail_004_kani=true&JigyosyoCd=3310113786-00&ServiceCd=160&Type=search", "url2": "http://www.haraosima-clinic.jp" }, "geometry": { "type": "Point", "coordinates": [ 133.946301700000049, 34.6703647 ] } },
{ "type": "Feature", "properties": { "内容": "旭竜クリニック【通所リハビリテーション】岡山県岡山市中区中島70-1", "url": "https://www.kaigokensaku.mhlw.go.jp/33/index.php?action_kouhyou_detail_004_kani=true&JigyosyoCd=3310115682-00&ServiceCd=160&Type=search", "url2": "https://www.takufukai-group.or.jp/" }, "geometry": { "type": "Point", "coordinates": [ 133.945513204893473, 34.685846177556009 ] } },
{ "type": "Feature", "properties": { "内容": "医療法人緑青会宿毛診療所【通所リハビリテーション】岡山県岡山市東区宿毛741-5", "url": "https://www.kaigokensaku.mhlw.go.jp/33/index.php?action_kouhyou_detail_004_kani=true&JigyosyoCd=3310114230-00&ServiceCd=160&Type=search", "url2": null }, "geometry": { "type": "Point", "coordinates": [ 134.084322, 34.623682 ] } },
{ "type": "Feature", "properties": { "内容": "医療法人　芥子会　城本クリニック【通所リハビリテーション】岡山県岡山市東区松新町65－4", "url": "https://www.kaigokensaku.mhlw.go.jp/33/index.php?action_kouhyou_detail_004_kani=true&JigyosyoCd=3310114883-00&ServiceCd=160&Type=search", "url2": "http://shiromoto-s.or.jp" }, "geometry": { "type": "Point", "coordinates": [ 134.009567699999934, 34.658409 ] } },
{ "type": "Feature", "properties": { "内容": "医療法人　長光会　長島病院　通所リハビリテーション【通所リハビリテーション】岡山県岡山市東区瀬戸町瀬戸40-1長島病院　1階　リハビリテーション室", "url": "https://www.kaigokensaku.mhlw.go.jp/33/index.php?action_kouhyou_detail_004_kani=true&JigyosyoCd=3312210309-00&ServiceCd=160&Type=search", "url2": "https://www.nagashimahp.or.jp" }, "geometry": { "type": "Point", "coordinates": [ 134.038038199999988, 34.7333391 ] } },
{ "type": "Feature", "properties": { "内容": "岡山東部脳神経外科　東備クリニック【通所リハビリテーション】瀬戸町光明谷２０３－１", "url": "https://www.kaigokensaku.mhlw.go.jp/33/index.php?action_kouhyou_detail_004_kani=true&JigyosyoCd=3312210408-00&ServiceCd=160&Type=search", "url2": "http://www.oenc.or.jp" }, "geometry": { "type": "Point", "coordinates": [ 134.042845581614642, 34.7390207805676 ] } },
{ "type": "Feature", "properties": { "内容": "介護老人保健施設　日立養力センター【通所リハビリテーション】岡山県岡山市東区吉原247-1", "url": "https://www.kaigokensaku.mhlw.go.jp/33/index.php?action_kouhyou_detail_004_kani=true&JigyosyoCd=3350180091-00&ServiceCd=160&Type=search", "url2": "http://www.saidaiji-hp.or.jp/roken/" }, "geometry": { "type": "Point", "coordinates": [ 134.031304200000022, 34.673316 ] } },
{ "type": "Feature", "properties": { "内容": "老人保健施設　さくら苑リハビリセンター【通所リハビリテーション】岡山県岡山市東区西大寺浜261", "url": "https://www.kaigokensaku.mhlw.go.jp/33/index.php?action_kouhyou_detail_004_kani=true&JigyosyoCd=3350180109-00&ServiceCd=160&Type=search", "url2": "http://www.chuo-fukushikai.jp/sakura/facility/sakura/" }, "geometry": { "type": "Point", "coordinates": [ 134.03877609999995, 34.646541 ] } },
{ "type": "Feature", "properties": { "内容": "介護老人保健施設　夕なぎケアセンター【通所リハビリテーション】岡山県岡山市東区宿毛745-1", "url": "https://www.kaigokensaku.mhlw.go.jp/33/index.php?action_kouhyou_detail_004_kani=true&JigyosyoCd=3350180133-00&ServiceCd=160&Type=search", "url2": "https://www.yunagi.jp" }, "geometry": { "type": "Point", "coordinates": [ 134.08533030000001, 34.6230071 ] } },
{ "type": "Feature", "properties": { "内容": "老人保健施設　古都の森【通所リハビリテーション】岡山県岡山市東区古都南方2815-1", "url": "https://www.kaigokensaku.mhlw.go.jp/33/index.php?action_kouhyou_detail_004_kani=true&JigyosyoCd=3350180141-00&ServiceCd=160&Type=search", "url2": "http://www.mc-mirai.or.jp" }, "geometry": { "type": "Point", "coordinates": [ 134.018649800000048, 34.6871341 ] } },
{ "type": "Feature", "properties": { "内容": "介護老人保健施設　はるか【通所リハビリテーション】岡山県岡山市東区西大寺北941", "url": "https://www.kaigokensaku.mhlw.go.jp/33/index.php?action_kouhyou_detail_004_kani=true&JigyosyoCd=3350180232-00&ServiceCd=160&Type=search", "url2": "www.rouken-haruka.or.jp" }, "geometry": { "type": "Point", "coordinates": [ 134.039268991406971, 34.662696848343806 ] } },
{ "type": "Feature", "properties": { "内容": "老人保健施設　アルテピアせと【通所リハビリテーション】岡山県岡山市東区瀬戸町江尻711", "url": "https://www.kaigokensaku.mhlw.go.jp/33/index.php?action_kouhyou_detail_004_kani=true&JigyosyoCd=3352280014-00&ServiceCd=160&Type=search", "url2": "http://iwadoufukushi.jp/seto_index.html" }, "geometry": { "type": "Point", "coordinates": [ 134.0550187, 34.7260029 ] } },
{ "type": "Feature", "properties": { "内容": "じょうとうクリニック【通所リハビリテーション】上道北方635-1", "url": "https://www.kaigokensaku.mhlw.go.jp/33/index.php?action_kouhyou_detail_004_kani=true&JigyosyoCd=3310116714-00&ServiceCd=160&Type=search", "url2": "https://joto-clinic.jp/" }, "geometry": { "type": "Point", "coordinates": [ 134.0210219, 34.6977176 ] } },
{ "type": "Feature", "properties": { "内容": "あいの里クリニック【通所リハビリテーション】岡山県岡山市南区大福９５０－６", "url": "https://www.kaigokensaku.mhlw.go.jp/33/index.php?action_kouhyou_detail_004_kani=true&JigyosyoCd=3310112739-00&ServiceCd=160&Type=search", "url2": "http://www.aoki-ainosato.or.jp/" }, "geometry": { "type": "Point", "coordinates": [ 133.891268600000018, 34.6191514 ] } },
{ "type": "Feature", "properties": { "内容": "青木内科小児科医院【通所リハビリテーション】岡山県岡山市南区大福281-5", "url": "https://www.kaigokensaku.mhlw.go.jp/33/index.php?action_kouhyou_detail_004_kani=true&JigyosyoCd=3310112325-00&ServiceCd=160&Type=search", "url2": "http://www.aoki-ainosato.or.jp/" }, "geometry": { "type": "Point", "coordinates": [ 133.878106900000034, 34.6218342 ] } },
{ "type": "Feature", "properties": { "内容": "佐藤病院【通所リハビリテーション】岡山県岡山市南区築港栄町２－１３", "url": "https://www.kaigokensaku.mhlw.go.jp/33/index.php?action_kouhyou_detail_004_kani=true&JigyosyoCd=3310111053-00&ServiceCd=160&Type=search", "url2": "http://www.sato-hp.com" }, "geometry": { "type": "Point", "coordinates": [ 133.944775599999957, 34.6075937 ] } },
{ "type": "Feature", "properties": { "内容": "岡山光南病院　通所リハビリテーション【通所リハビリテーション】岡山県岡山市南区東畦767-3", "url": "https://www.kaigokensaku.mhlw.go.jp/33/index.php?action_kouhyou_detail_004_kani=true&JigyosyoCd=3310111392-00&ServiceCd=160&Type=search", "url2": "https://www.kounan-hp.jp/reha/tsusho-reha/" }, "geometry": { "type": "Point", "coordinates": [ 133.8812379, 34.6049021 ] } },
{ "type": "Feature", "properties": { "内容": "医療法人社団　かとう内科並木通り診療所【通所リハビリテーション】岡山県岡山市南区並木町2丁目27-5", "url": "https://www.kaigokensaku.mhlw.go.jp/33/index.php?action_kouhyou_detail_004_kani=true&JigyosyoCd=3310111400-00&ServiceCd=160&Type=search", "url2": "https://kato-namiki.or.jp/" }, "geometry": { "type": "Point", "coordinates": [ 133.938939800000071, 34.6101432 ] } },
{ "type": "Feature", "properties": { "内容": "医療法人　ふたば会　うちおグリーンクリニック【通所リハビリテーション】岡山県岡山市南区内尾463", "url": "https://www.kaigokensaku.mhlw.go.jp/33/index.php?action_kouhyou_detail_004_kani=true&JigyosyoCd=3310112820-00&ServiceCd=160&Type=search", "url2": "http://gp.futaba-ac.jp/" }, "geometry": { "type": "Point", "coordinates": [ 133.857530399999973, 34.5992142 ] } },
{ "type": "Feature", "properties": { "内容": "ながい内科クリニック【通所リハビリテーション】岡山県岡山市南区泉田五丁目10番32号", "url": "https://www.kaigokensaku.mhlw.go.jp/33/index.php?action_kouhyou_detail_004_kani=true&JigyosyoCd=3310115609-00&ServiceCd=160&Type=search", "url2": "https://yotuba.or.jp/" }, "geometry": { "type": "Point", "coordinates": [ 133.910936799999945, 34.6235852 ] } },
{ "type": "Feature", "properties": { "内容": "介護老人保健施設　若宮老人保健センター【通所リハビリテーション】岡山県岡山市南区箕島３５６６－１", "url": "https://www.kaigokensaku.mhlw.go.jp/33/index.php?action_kouhyou_detail_004_kani=true&JigyosyoCd=3350180000-00&ServiceCd=160&Type=search", "url2": "http://junfuku.jp/" }, "geometry": { "type": "Point", "coordinates": [ 133.8359815, 34.6162142 ] } },
{ "type": "Feature", "properties": { "内容": "老人保健施設やすらぎ【通所リハビリテーション】岡山県岡山市南区築港栄町2-13", "url": "https://www.kaigokensaku.mhlw.go.jp/33/index.php?action_kouhyou_detail_004_kani=true&JigyosyoCd=3350180026-00&ServiceCd=160&Type=search", "url2": "http://www.sato-hp.com" }, "geometry": { "type": "Point", "coordinates": [ 133.944775599999957, 34.6075937 ] } },
{ "type": "Feature", "properties": { "内容": "介護老人保健施設あいの里リハビリ苑通所リハビリテーション【通所リハビリテーション】岡山県岡山市南区大福９５０－６", "url": "https://www.kaigokensaku.mhlw.go.jp/33/index.php?action_kouhyou_detail_004_kani=true&JigyosyoCd=3350180083-00&ServiceCd=160&Type=search", "url2": "http://www.aoki-ainosato.or.jp/" }, "geometry": { "type": "Point", "coordinates": [ 133.891130800000042, 34.6193379 ] } },
{ "type": "Feature", "properties": { "内容": "老人保健施設　南岡山ナ－シングホ－ム【通所リハビリテーション】岡山県岡山市南区東畦772-10", "url": "https://www.kaigokensaku.mhlw.go.jp/33/index.php?action_kouhyou_detail_004_kani=true&JigyosyoCd=3350180190-00&ServiceCd=160&Type=search", "url2": "http://www.keiyuu-kai.or.jp/" }, "geometry": { "type": "Point", "coordinates": [ 133.881751, 34.6049227 ] } },
{ "type": "Feature", "properties": { "内容": "老人保健施設　ゆめの里　通所リハビリテーション【通所リハビリテーション】岡山県岡山市南区川張1267", "url": "https://www.kaigokensaku.mhlw.go.jp/33/index.php?action_kouhyou_detail_004_kani=true&JigyosyoCd=3352580017-00&ServiceCd=160&Type=search", "url2": "http://yumeno-sato.com/" }, "geometry": { "type": "Point", "coordinates": [ 133.8605652, 34.5450012 ] } },
{ "type": "Feature", "properties": { "内容": "池田医院【通所リハビリテーション】岡山県岡山市南区彦崎２８０１－６", "url": "https://www.kaigokensaku.mhlw.go.jp/33/index.php?action_kouhyou_detail_004_kani=true&JigyosyoCd=3312510047-00&ServiceCd=160&Type=search", "url2": "https://ikedaiin.or.jp" }, "geometry": { "type": "Point", "coordinates": [ 133.8366588, 34.5523188 ] } },
{ "type": "Feature", "properties": { "内容": "みなみ整形・痛みのクリニック【通所リハビリテーション】岡山県岡山市南区藤田560番地512", "url": "https://www.kaigokensaku.mhlw.go.jp/33/index.php?action_kouhyou_detail_004_kani=true&JigyosyoCd=3310115963-00&ServiceCd=160&Type=search", "url2": "http://www.373seikei.jp/" }, "geometry": { "type": "Point", "coordinates": [ 133.887920500000064, 34.5885799 ] } },
{ "type": "Feature", "properties": { "内容": "鴨井医院【通所リハビリテーション】岡山県倉敷市新倉敷駅前2丁目62番3号", "url": "https://www.kaigokensaku.mhlw.go.jp/33/index.php?action_kouhyou_detail_004_kani=true&JigyosyoCd=3310211994-00&ServiceCd=160&Type=search", "url2": null }, "geometry": { "type": "Point", "coordinates": [ 133.681071100000054, 34.5657679 ] } },
{ "type": "Feature", "properties": { "内容": "医療法人和香会　倉敷廣済クリニック【通所リハビリテーション】倉敷市東塚５丁目４番１６号", "url": "https://www.kaigokensaku.mhlw.go.jp/33/index.php?action_kouhyou_detail_004_kani=true&JigyosyoCd=3310212935-00&ServiceCd=160&Type=search", "url2": "http://www.wakokai.com/kousai_top.html" }, "geometry": { "type": "Point", "coordinates": [ 133.7629723, 34.5310948 ] } },
{ "type": "Feature", "properties": { "内容": "まび記念病院【通所リハビリテーション】岡山県倉敷市真備町川辺2000番地1", "url": "https://www.kaigokensaku.mhlw.go.jp/33/index.php?action_kouhyou_detail_004_kani=true&JigyosyoCd=3310213040-00&ServiceCd=160&Type=search", "url2": "http://www.mkh.or.jp" }, "geometry": { "type": "Point", "coordinates": [ 133.7099852, 34.6375521 ] } },
{ "type": "Feature", "properties": { "内容": "倉敷リハビリテーション病院【通所リハビリテーション】岡山県倉敷市笹沖21", "url": "https://www.kaigokensaku.mhlw.go.jp/33/index.php?action_kouhyou_detail_004_kani=true&JigyosyoCd=3310212158-00&ServiceCd=160&Type=search", "url2": "http://www.kurareha.com/krh/00top/top.html" }, "geometry": { "type": "Point", "coordinates": [ 133.761271434918172, 34.571987862916934 ] } },
{ "type": "Feature", "properties": { "内容": "医療法人えんさこ医院【通所リハビリテーション】倉敷市下庄458-1", "url": "https://www.kaigokensaku.mhlw.go.jp/33/index.php?action_kouhyou_detail_004_kani=true&JigyosyoCd=3310211481-00&ServiceCd=160&Type=search", "url2": "http://www.ensako.or.jp" }, "geometry": { "type": "Point", "coordinates": [ 133.823074812217783, 34.640159566879959 ] } },
{ "type": "Feature", "properties": { "内容": "プライムホスピタル玉島　通所リハビリテーション【通所リハビリテーション】岡山県倉敷市玉島750-1プライムホスピタル玉島", "url": "https://www.kaigokensaku.mhlw.go.jp/33/index.php?action_kouhyou_detail_004_kani=true&JigyosyoCd=3310213263-00&ServiceCd=160&Type=search", "url2": null }, "geometry": { "type": "Point", "coordinates": [ 133.685926099999989, 34.549644800000038 ] } },
{ "type": "Feature", "properties": { "内容": "老人保健施設倉敷シルバーナーシングホーム通所リハビリテーション【通所リハビリテーション】岡山県倉敷市児島柳田町３５５－１", "url": "https://www.kaigokensaku.mhlw.go.jp/33/index.php?action_kouhyou_detail_004_kani=true&JigyosyoCd=3350280115-00&ServiceCd=160&Type=search", "url2": "https://www.silver21.org/" }, "geometry": { "type": "Point", "coordinates": [ 133.789060877246101, 34.494895121228247 ] } },
{ "type": "Feature", "properties": { "内容": "介護老人保健施設　グリーンピース【通所リハビリテーション】岡山県倉敷市新田２７９１－４", "url": "https://www.kaigokensaku.mhlw.go.jp/33/index.php?action_kouhyou_detail_004_kani=true&JigyosyoCd=3350280123-00&ServiceCd=160&Type=search", "url2": "http://www.mutu.jp" }, "geometry": { "type": "Point", "coordinates": [ 133.777017399999977, 34.5758337 ] } },
{ "type": "Feature", "properties": { "内容": "通所リハビリ　おげんき倶楽部【通所リハビリテーション】岡山県倉敷市玉島1719番地", "url": "https://www.kaigokensaku.mhlw.go.jp/33/index.php?action_kouhyou_detail_004_kani=true&JigyosyoCd=3370208385-00&ServiceCd=160&Type=search", "url2": null }, "geometry": { "type": "Point", "coordinates": [ 133.680998791978709, 34.554483388475141 ] } },
{ "type": "Feature", "properties": { "内容": "医療法人以心会難波医院【通所リハビリテーション】岡山県倉敷市福田町古新田146番地の4", "url": "https://www.kaigokensaku.mhlw.go.jp/33/index.php?action_kouhyou_detail_004_kani=true&JigyosyoCd=3310211853-00&ServiceCd=160&Type=search", "url2": "http://ishinkai-clinic.or.jp/" }, "geometry": { "type": "Point", "coordinates": [ 133.756330700000035, 34.5442679 ] } },
{ "type": "Feature", "properties": { "内容": "おうじクリニック【通所リハビリテーション】岡山県倉敷市児島下の町5丁目2番17号", "url": "https://www.kaigokensaku.mhlw.go.jp/33/index.php?action_kouhyou_detail_004_kani=true&JigyosyoCd=3310211465-00&ServiceCd=160&Type=search", "url2": "http://www.ohji-nouge.or.jp" }, "geometry": { "type": "Point", "coordinates": [ 133.82167979999997, 34.4776046 ] } },
{ "type": "Feature", "properties": { "内容": "オアシス通所リハビリテーション【通所リハビリテーション】岡山県倉敷市児島阿津2丁目７－５３", "url": "https://www.kaigokensaku.mhlw.go.jp/33/index.php?action_kouhyou_detail_004_kani=true&JigyosyoCd=3350280040-00&ServiceCd=160&Type=search", "url2": "https://kyouaikai.jp/page/ambulatory-rehabilitation" }, "geometry": { "type": "Point", "coordinates": [ 133.805826199999956, 34.4515878 ] } },
{ "type": "Feature", "properties": { "内容": "玉島中央老健施設秀明荘　通所リハビリテーション【通所リハビリテーション】岡山県倉敷市玉島中央町１－４－８", "url": "https://www.kaigokensaku.mhlw.go.jp/33/index.php?action_kouhyou_detail_004_kani=true&JigyosyoCd=3350280057-00&ServiceCd=160&Type=search", "url2": "http://www.tamashima-ch.or.jp/shumei/" }, "geometry": { "type": "Point", "coordinates": [ 133.672972100000038, 34.546611300000016 ] } },
{ "type": "Feature", "properties": { "内容": "倉敷平成病院通所リハビリテーション【通所リハビリテーション】倉敷市老松町4丁目4-7倉敷在宅総合ケアセンター　1階", "url": "https://www.kaigokensaku.mhlw.go.jp/33/index.php?action_kouhyou_detail_004_kani=true&JigyosyoCd=3310210822-00&ServiceCd=160&Type=search", "url2": "http://www.heisei.or.jp/" }, "geometry": { "type": "Point", "coordinates": [ 133.760956699999952, 34.594082 ] } },
{ "type": "Feature", "properties": { "内容": "倉敷第一病院【通所リハビリテーション】岡山県倉敷市老松町5-3-10", "url": "https://www.kaigokensaku.mhlw.go.jp/33/index.php?action_kouhyou_detail_004_kani=true&JigyosyoCd=3310213248-00&ServiceCd=160&Type=search", "url2": "http://www.seiwakai-net.or.jp/daiichi/" }, "geometry": { "type": "Point", "coordinates": [ 133.757109799999967, 34.5932349 ] } },
{ "type": "Feature", "properties": { "内容": "倉敷老健通所リハビリテーション【通所リハビリテーション】岡山県倉敷市老松町4丁目4-7", "url": "https://www.kaigokensaku.mhlw.go.jp/33/index.php?action_kouhyou_detail_004_kani=true&JigyosyoCd=3350280008-00&ServiceCd=160&Type=search", "url2": "http://www.heisei.or.jp/" }, "geometry": { "type": "Point", "coordinates": [ 133.760956699999952, 34.594082 ] } },
{ "type": "Feature", "properties": { "内容": "山本整形外科医院【通所リハビリテーション】岡山県倉敷市林348", "url": "https://www.kaigokensaku.mhlw.go.jp/33/index.php?action_kouhyou_detail_004_kani=true&JigyosyoCd=3310210996-00&ServiceCd=160&Type=search", "url2": "http://www.yamamotoseikei.or.jp" }, "geometry": { "type": "Point", "coordinates": [ 133.816754899999978, 34.5429446 ] } },
{ "type": "Feature", "properties": { "内容": "老人保健施設　老健あかね【通所リハビリテーション】岡山県倉敷市水島東千鳥町１番６０号", "url": "https://www.kaigokensaku.mhlw.go.jp/33/index.php?action_kouhyou_detail_004_kani=true&JigyosyoCd=3350280073-00&ServiceCd=160&Type=search", "url2": "http://coopreha.jp/" }, "geometry": { "type": "Point", "coordinates": [ 133.74015719695899, 34.528602947721801 ] } },
{ "type": "Feature", "properties": { "内容": "下津井病院【通所リハビリテーション】岡山県倉敷市下津井吹上２丁目６番４号", "url": "https://www.kaigokensaku.mhlw.go.jp/33/index.php?action_kouhyou_detail_004_kani=true&JigyosyoCd=3310210640-00&ServiceCd=160&Type=search", "url2": "http://www.shimotsui-hp.jp/" }, "geometry": { "type": "Point", "coordinates": [ 133.8000743, 34.4411666 ] } },
{ "type": "Feature", "properties": { "内容": "コープリハビリテーション病院【通所リハビリテーション】岡山県倉敷市水島東千鳥町1-60", "url": "https://www.kaigokensaku.mhlw.go.jp/33/index.php?action_kouhyou_detail_004_kani=true&JigyosyoCd=3310213214-00&ServiceCd=160&Type=search", "url2": "http://coopreha.jp/" }, "geometry": { "type": "Point", "coordinates": [ 133.740154699999948, 34.528616699999965 ] } },
{ "type": "Feature", "properties": { "内容": "児島聖康病院【通所リハビリテーション】岡山県倉敷市児島下の町1丁目1番16号", "url": "https://www.kaigokensaku.mhlw.go.jp/33/index.php?action_kouhyou_detail_004_kani=true&JigyosyoCd=3310213487-00&ServiceCd=160&Type=search", "url2": "https://seikoh-hp.or.jp/" }, "geometry": { "type": "Point", "coordinates": [ 133.8169624, 34.4690797 ] } },
{ "type": "Feature", "properties": { "内容": "介護老人保健施設　和光園【通所リハビリテーション】岡山県倉敷市東塚５丁目４番５０号", "url": "https://www.kaigokensaku.mhlw.go.jp/33/index.php?action_kouhyou_detail_004_kani=true&JigyosyoCd=3350280107-00&ServiceCd=160&Type=search", "url2": "http://www.wakokai.com" }, "geometry": { "type": "Point", "coordinates": [ 133.763327900000036, 34.5311476 ] } },
{ "type": "Feature", "properties": { "内容": "玉島病院　通所リハビリテーション【通所リハビリテーション】岡山県倉敷市玉島乙島４０３０", "url": "https://www.kaigokensaku.mhlw.go.jp/33/index.php?action_kouhyou_detail_004_kani=true&JigyosyoCd=3310210368-00&ServiceCd=160&Type=search", "url2": "http://www.tamashimahosp.or.jp" }, "geometry": { "type": "Point", "coordinates": [ 133.680468499999961, 34.5416506 ] } },
{ "type": "Feature", "properties": { "内容": "介護老人保健施設　サンライフ倉敷【通所リハビリテーション】岡山県倉敷市下庄700番地1", "url": "https://www.kaigokensaku.mhlw.go.jp/33/index.php?action_kouhyou_detail_004_kani=true&JigyosyoCd=3350280099-00&ServiceCd=160&Type=search", "url2": "https://suiseikai-group.jp/heiseikai/" }, "geometry": { "type": "Point", "coordinates": [ 133.823852699999946, 34.6368004 ] } },
{ "type": "Feature", "properties": { "内容": "しげい病院通所リハビリテーション【通所リハビリテーション】岡山県倉敷市幸町２－３０", "url": "https://www.kaigokensaku.mhlw.go.jp/33/index.php?action_kouhyou_detail_004_kani=true&JigyosyoCd=3310210145-00&ServiceCd=160&Type=search", "url2": "https://shigei.jp" }, "geometry": { "type": "Point", "coordinates": [ 133.773125199999981, 34.603659 ] } },
{ "type": "Feature", "properties": { "内容": "介護老人保健施設　倉敷あいあいえん【通所リハビリテーション】岡山県倉敷市串田660番地", "url": "https://www.kaigokensaku.mhlw.go.jp/33/index.php?action_kouhyou_detail_004_kani=true&JigyosyoCd=3350280081-00&ServiceCd=160&Type=search", "url2": "http://www.warakukai.com" }, "geometry": { "type": "Point", "coordinates": [ 133.812907900000027, 34.5433056 ] } },
{ "type": "Feature", "properties": { "内容": "新見脳神経外科【通所リハビリテーション】岡山県倉敷市児島稗田町1822", "url": "https://www.kaigokensaku.mhlw.go.jp/33/index.php?action_kouhyou_detail_004_kani=true&JigyosyoCd=3310211671-00&ServiceCd=160&Type=search", "url2": "https://www.niimi-nougeka.jp/" }, "geometry": { "type": "Point", "coordinates": [ 133.803731, 34.4962934 ] } },
{ "type": "Feature", "properties": { "内容": "医療法人えんさこ医院【通所リハビリテーション】岡山県倉敷市下庄458－1", "url": "https://www.kaigokensaku.mhlw.go.jp/33/index.php?action_kouhyou_detail_004_kani=true&JigyosyoCd=3310213545-00&ServiceCd=160&Type=search", "url2": "https://www.ensako.or.jp/" }, "geometry": { "type": "Point", "coordinates": [ 133.8230628, 34.6402422 ] } },
{ "type": "Feature", "properties": { "内容": "医療法人水清会　水島第一病院【通所リハビリテーション】岡山県倉敷市神田2-3-33", "url": "https://www.kaigokensaku.mhlw.go.jp/33/index.php?action_kouhyou_detail_004_kani=true&JigyosyoCd=3310210210-00&ServiceCd=160&Type=search", "url2": "https://suiseikai-group.jp/suiseikai/care/shien/" }, "geometry": { "type": "Point", "coordinates": [ 133.738853690212949, 34.541921630664454 ] } },
{ "type": "Feature", "properties": { "内容": "柴田病院【通所リハビリテーション】岡山県倉敷市玉島乙島６１０８－１", "url": "https://www.kaigokensaku.mhlw.go.jp/33/index.php?action_kouhyou_detail_004_kani=true&JigyosyoCd=3310212240-00&ServiceCd=160&Type=search", "url2": "https://www.shibata-h.jp" }, "geometry": { "type": "Point", "coordinates": [ 133.6930671, 34.5533024 ] } },
{ "type": "Feature", "properties": { "内容": "介護老人保健施設　亀龍園通所リハビリテーション【通所リハビリテーション】岡山県倉敷市亀山679-1", "url": "https://www.kaigokensaku.mhlw.go.jp/33/index.php?action_kouhyou_detail_004_kani=true&JigyosyoCd=3350280065-00&ServiceCd=160&Type=search", "url2": "http://www.touzankai.or.jp" }, "geometry": { "type": "Point", "coordinates": [ 133.8022373, 34.5884163 ] } },
{ "type": "Feature", "properties": { "内容": "中塚医院【通所リハビリテーション】岡山県倉敷市玉島黒崎3911-1", "url": "https://www.kaigokensaku.mhlw.go.jp/33/index.php?action_kouhyou_detail_004_kani=true&JigyosyoCd=3310211143-00&ServiceCd=160&Type=search", "url2": "https://www.nakatsuka-iin.jp" }, "geometry": { "type": "Point", "coordinates": [ 133.645250600000054, 34.5155649 ] } },
{ "type": "Feature", "properties": { "内容": "老人保健施設　倉敷藤戸荘【通所リハビリテーション】岡山県倉敷市藤戸町藤戸1580", "url": "https://www.kaigokensaku.mhlw.go.jp/33/index.php?action_kouhyou_detail_004_kani=true&JigyosyoCd=3350280032-00&ServiceCd=160&Type=search", "url2": "http//www.fukujyu.or.jp" }, "geometry": { "type": "Point", "coordinates": [ 133.822779099999906, 34.5580231 ] } },
{ "type": "Feature", "properties": { "内容": "医療法人和香会倉敷スイートホスピタル【通所リハビリテーション】岡山県倉敷市中庄３５４２番１倉敷スイートタウン", "url": "https://www.kaigokensaku.mhlw.go.jp/33/index.php?action_kouhyou_detail_004_kani=true&JigyosyoCd=3310212927-00&ServiceCd=160&Type=search", "url2": "http://sweet-town.jp/hospital/index.html" }, "geometry": { "type": "Point", "coordinates": [ 133.804156299999931, 34.6244656 ] } },
{ "type": "Feature", "properties": { "内容": "医療法人　児島第一診療所【通所リハビリテーション】岡山県倉敷市児島味野1丁目14番20号", "url": "https://www.kaigokensaku.mhlw.go.jp/33/index.php?action_kouhyou_detail_004_kani=true&JigyosyoCd=3310211549-00&ServiceCd=160&Type=search", "url2": null }, "geometry": { "type": "Point", "coordinates": [ 133.802598699999976, 34.4736509 ] } },
{ "type": "Feature", "properties": { "内容": "小野内科医院【通所リハビリテーション】岡山県倉敷市玉島八島1755", "url": "https://www.kaigokensaku.mhlw.go.jp/33/index.php?action_kouhyou_detail_004_kani=true&JigyosyoCd=3310211192-00&ServiceCd=160&Type=search", "url2": null }, "geometry": { "type": "Point", "coordinates": [ 133.6590344, 34.5607489 ] } },
{ "type": "Feature", "properties": { "内容": "介護老人保健施設　ニューエルダーセンター　通所リハビリテーション【通所リハビリテーション】岡山県倉敷市玉島1334-1", "url": "https://www.kaigokensaku.mhlw.go.jp/33/index.php?action_kouhyou_detail_004_kani=true&JigyosyoCd=3350280016-00&ServiceCd=160&Type=search", "url2": "http://www.newelder.jp/" }, "geometry": { "type": "Point", "coordinates": [ 133.682440499999984, 34.5485417 ] } },
{ "type": "Feature", "properties": { "内容": "玉島協同病院【通所リハビリテーション】岡山県倉敷市玉島柏島5209-1", "url": "https://www.kaigokensaku.mhlw.go.jp/33/index.php?action_kouhyou_detail_004_kani=true&JigyosyoCd=3310213123-00&ServiceCd=160&Type=search", "url2": "http://www.tamakyo.com/" }, "geometry": { "type": "Point", "coordinates": [ 133.66386220000004, 34.5333543 ] } },
{ "type": "Feature", "properties": { "内容": "武田病院【通所リハビリテーション】岡山県倉敷市連島町西之浦３５２－１", "url": "https://www.kaigokensaku.mhlw.go.jp/33/index.php?action_kouhyou_detail_004_kani=true&JigyosyoCd=3310211812-00&ServiceCd=160&Type=search", "url2": "http://www.kct.ne.jp/~takeda/" }, "geometry": { "type": "Point", "coordinates": [ 133.7150815, 34.5503138 ] } },
{ "type": "Feature", "properties": { "内容": "倉敷紀念病院【通所リハビリテーション】岡山県倉敷市中島770-1", "url": "https://www.kaigokensaku.mhlw.go.jp/33/index.php?action_kouhyou_detail_004_kani=true&JigyosyoCd=3310210418-00&ServiceCd=160&Type=search", "url2": "http://www.seiwakai-net.or.jp" }, "geometry": { "type": "Point", "coordinates": [ 133.739772712411536, 34.579887529933281 ] } },
{ "type": "Feature", "properties": { "内容": "内田整形外科医院【通所リハビリテーション】岡山県津山市山北５５０－１通所リハビリテーション　デイケア　ロドフ", "url": "https://www.kaigokensaku.mhlw.go.jp/33/index.php?action_kouhyou_detail_004_kani=true&JigyosyoCd=3310301647-00&ServiceCd=160&Type=search", "url2": "uchida-seikei.jp" }, "geometry": { "type": "Point", "coordinates": [ 134.004406600000038, 35.0727734 ] } },
{ "type": "Feature", "properties": { "内容": "多胡クリニックまどか苑【通所リハビリテーション】岡山県津山市草加部955-1", "url": "https://www.kaigokensaku.mhlw.go.jp/33/index.php?action_kouhyou_detail_004_kani=true&JigyosyoCd=3310310523-00&ServiceCd=160&Type=search", "url2": "http://www.tagoclinic.or.jp/" }, "geometry": { "type": "Point", "coordinates": [ 134.070105099999978, 35.0958472 ] } },
{ "type": "Feature", "properties": { "内容": "津山第一病院　通所リハビリテーション【通所リハビリテーション】岡山県津山市中島438", "url": "https://www.kaigokensaku.mhlw.go.jp/33/index.php?action_kouhyou_detail_004_kani=true&JigyosyoCd=3310310663-00&ServiceCd=160&Type=search", "url2": "http://tsuyama-1sthp.jp/tu-reha.html" }, "geometry": { "type": "Point", "coordinates": [ 133.966718899999933, 35.0535439 ] } },
{ "type": "Feature", "properties": { "内容": "社会医療法人清風會　日本原病院【通所リハビリテーション】岡山県津山市日本原３５２", "url": "https://www.kaigokensaku.mhlw.go.jp/33/index.php?action_kouhyou_detail_004_kani=true&JigyosyoCd=3313610069-00&ServiceCd=160&Type=search", "url2": "https://www.smc-seifukai.or.jp/" }, "geometry": { "type": "Point", "coordinates": [ 134.132151300000032, 35.11113 ] } },
{ "type": "Feature", "properties": { "内容": "介護老人保健施設　エスポアール城西【通所リハビリテーション】岡山県津山市田町151－5－1", "url": "https://www.kaigokensaku.mhlw.go.jp/33/index.php?action_kouhyou_detail_004_kani=true&JigyosyoCd=3350380006-00&ServiceCd=160&Type=search", "url2": "http://tokufuu.or.jp/jyousai" }, "geometry": { "type": "Point", "coordinates": [ 133.995903329804833, 35.063662374016246 ] } },
{ "type": "Feature", "properties": { "内容": "老人保健施設　のぞみ苑【通所リハビリテーション】岡山県津山市川崎554-5", "url": "https://www.kaigokensaku.mhlw.go.jp/33/index.php?action_kouhyou_detail_004_kani=true&JigyosyoCd=3350380014-00&ServiceCd=160&Type=search", "url2": "http://www.toukou.or.jp/nozomi.htm" }, "geometry": { "type": "Point", "coordinates": [ 134.025394768656156, 35.062430043703671 ] } },
{ "type": "Feature", "properties": { "内容": "介護老人保健施設　津山ナーシングホーム　通所リハビリテーション【通所リハビリテーション】岡山県津山市野介代1656-1", "url": "https://www.kaigokensaku.mhlw.go.jp/33/index.php?action_kouhyou_detail_004_kani=true&JigyosyoCd=3350380022-00&ServiceCd=160&Type=search", "url2": "http:/www.nihonbara.or.jp/" }, "geometry": { "type": "Point", "coordinates": [ 134.036109, 35.0781487 ] } },
{ "type": "Feature", "properties": { "内容": "介護老人保健施設ケアガーデン津山【通所リハビリテーション】岡山県津山市河辺３３２－１", "url": "https://www.kaigokensaku.mhlw.go.jp/33/index.php?action_kouhyou_detail_004_kani=true&JigyosyoCd=3350380030-00&ServiceCd=160&Type=search", "url2": "http://www.ranwakai.or.jp" }, "geometry": { "type": "Point", "coordinates": [ 134.052296899999988, 35.0614038 ] } },
{ "type": "Feature", "properties": { "内容": "介護老人保健施設おとなの学校岡山校【通所リハビリテーション】岡山県津山市日本原３５２", "url": "https://www.kaigokensaku.mhlw.go.jp/33/index.php?action_kouhyou_detail_004_kani=true&JigyosyoCd=3353680014-00&ServiceCd=160&Type=search", "url2": "http://www.nihonbara.com" }, "geometry": { "type": "Point", "coordinates": [ 134.132151300000032, 35.11113 ] } },
{ "type": "Feature", "properties": { "内容": "介護医療院かもの郷【通所リハビリテーション】岡山県津山市加茂町中原６１番地", "url": "https://www.kaigokensaku.mhlw.go.jp/33/index.php?action_kouhyou_detail_004_kani=true&JigyosyoCd=33B0300027-00&ServiceCd=160&Type=search", "url2": "https://www.jikeikai-net.or.jp" }, "geometry": { "type": "Point", "coordinates": [ 134.052086211639363, 35.176319274058365 ] } },
{ "type": "Feature", "properties": { "内容": "医療法人　みやもと整形外科　通所リハビリテーション【通所リハビリテーション】岡山県玉野市東紅陽台１－１９－３２５", "url": "https://www.kaigokensaku.mhlw.go.jp/33/index.php?action_kouhyou_detail_004_kani=true&JigyosyoCd=3310410273-00&ServiceCd=160&Type=search", "url2": "http://www.myclinic.ne.jp/miyamoto_ort/" }, "geometry": { "type": "Point", "coordinates": [ 133.894262199999957, 34.5390727 ] } },
{ "type": "Feature", "properties": { "内容": "大西病院【通所リハビリテーション】岡山県玉野市田井3丁目8-11", "url": "https://www.kaigokensaku.mhlw.go.jp/33/index.php?action_kouhyou_detail_004_kani=true&JigyosyoCd=3310410125-00&ServiceCd=160&Type=search", "url2": "http://www.onishihp.or.jp/" }, "geometry": { "type": "Point", "coordinates": [ 133.9460477, 34.5159079 ] } },
{ "type": "Feature", "properties": { "内容": "岡山赤十字老人保健施設　玉野マリンホーム【通所リハビリテーション】岡山県玉野市築港5丁目16番25号", "url": "https://www.kaigokensaku.mhlw.go.jp/33/index.php?action_kouhyou_detail_004_kani=true&JigyosyoCd=3350480012-00&ServiceCd=160&Type=search", "url2": "https://www.okaseki-tamano.jrc.or.jp" }, "geometry": { "type": "Point", "coordinates": [ 133.958755600000018, 34.4985459 ] } },
{ "type": "Feature", "properties": { "内容": "きのこ老人保健施設【通所リハビリテーション】岡山県笠岡市東大戸2912-3", "url": "https://www.kaigokensaku.mhlw.go.jp/33/index.php?action_kouhyou_detail_004_kani=true&JigyosyoCd=3350580068-00&ServiceCd=160&Type=search", "url2": "http://www.kinoko-group.jp/" }, "geometry": { "type": "Point", "coordinates": [ 133.503076400000026, 34.5532206 ] } },
{ "type": "Feature", "properties": { "内容": "介護老人保健施設　瀬戸いこい苑【通所リハビリテーション】岡山県笠岡市横島１９４４－１", "url": "https://www.kaigokensaku.mhlw.go.jp/33/index.php?action_kouhyou_detail_004_kani=true&JigyosyoCd=3350580050-00&ServiceCd=160&Type=search", "url2": "http://www.kasaoka-d-hp.or.jp" }, "geometry": { "type": "Point", "coordinates": [ 133.519846599999937, 34.4785581 ] } },
{ "type": "Feature", "properties": { "内容": "こうのしま介護老人保健施設デイケアセンター【通所リハビリテーション】笠岡市神島３６２８－３", "url": "https://www.kaigokensaku.mhlw.go.jp/33/index.php?action_kouhyou_detail_004_kani=true&JigyosyoCd=3350580035-00&ServiceCd=160&Type=search", "url2": "http://www.tenjinkai.org/" }, "geometry": { "type": "Point", "coordinates": [ 133.509142200000042, 34.4717255 ] } },
{ "type": "Feature", "properties": { "内容": "天神介護老人保健施設【通所リハビリテーション】岡山県笠岡市神島５３００－２", "url": "https://www.kaigokensaku.mhlw.go.jp/33/index.php?action_kouhyou_detail_004_kani=true&JigyosyoCd=3350580019-00&ServiceCd=160&Type=search", "url2": "http://www.tenjinkai.org/" }, "geometry": { "type": "Point", "coordinates": [ 133.525807500000042, 34.4706812 ] } },
{ "type": "Feature", "properties": { "内容": "医療法人平允会　森本整形外科医院　通所リハビリテーション【通所リハビリテーション】井原市上出部町473番地", "url": "https://www.kaigokensaku.mhlw.go.jp/33/index.php?action_kouhyou_detail_004_kani=true&JigyosyoCd=3310710136-00&ServiceCd=160&Type=search", "url2": "http://daycare.morimotoseikei-hifu.net" }, "geometry": { "type": "Point", "coordinates": [ 133.467364500000031, 34.5944472 ] } },
{ "type": "Feature", "properties": { "内容": "井原第一クリニック【通所リハビリテーション】井原市高屋町127-1", "url": "https://www.kaigokensaku.mhlw.go.jp/33/index.php?action_kouhyou_detail_004_kani=true&JigyosyoCd=3310710086-00&ServiceCd=160&Type=search", "url2": "http://www.ibara-1stclinic.jp" }, "geometry": { "type": "Point", "coordinates": [ 133.426488406745875, 34.57955619844698 ] } },
{ "type": "Feature", "properties": { "内容": "医療法人社団菅病院【通所リハビリテーション】岡山県井原市井原町１２４", "url": "https://www.kaigokensaku.mhlw.go.jp/33/index.php?action_kouhyou_detail_004_kani=true&JigyosyoCd=3310710037-00&ServiceCd=160&Type=search", "url2": "https://sugahospital.jp" }, "geometry": { "type": "Point", "coordinates": [ 133.464184199999977, 34.5960359 ] } },
{ "type": "Feature", "properties": { "内容": "井原市立井原市民病院【通所リハビリテーション】岡山県井原市井原町1186番地", "url": "https://www.kaigokensaku.mhlw.go.jp/33/index.php?action_kouhyou_detail_004_kani=true&JigyosyoCd=3318900416-00&ServiceCd=160&Type=search", "url2": "http://www.ibarahp.jp" }, "geometry": { "type": "Point", "coordinates": [ 133.458797800138882, 34.603375041427 ] } },
{ "type": "Feature", "properties": { "内容": "長尾整形外科リハビリテーション科【通所リハビリテーション】岡山県井原市西江原町867-1", "url": "https://www.kaigokensaku.mhlw.go.jp/33/index.php?action_kouhyou_detail_004_kani=true&JigyosyoCd=3310710052-00&ServiceCd=160&Type=search", "url2": "https://nagao-clinic.or.jp/" }, "geometry": { "type": "Point", "coordinates": [ 133.484960099999967, 34.5974079 ] } },
{ "type": "Feature", "properties": { "内容": "長野病院通所リハビリテーション【通所リハビリテーション】岡山県総社市金井戸１５０番地１", "url": "https://www.kaigokensaku.mhlw.go.jp/33/index.php?action_kouhyou_detail_004_kani=true&JigyosyoCd=3310810548-00&ServiceCd=160&Type=search", "url2": "https://nagano.koudou-kai.or.jp/" }, "geometry": { "type": "Point", "coordinates": [ 133.768756369074282, 34.683562149415557 ] } },
{ "type": "Feature", "properties": { "内容": "杉生クリニック【通所リハビリテーション】岡山県総社市三須１３４２", "url": "https://www.kaigokensaku.mhlw.go.jp/33/index.php?action_kouhyou_detail_004_kani=true&JigyosyoCd=3310810415-00&ServiceCd=160&Type=search", "url2": "http://www.kakusaikai-sugiu.or.jp" }, "geometry": { "type": "Point", "coordinates": [ 133.766952100000026, 34.6732961 ] } },
{ "type": "Feature", "properties": { "内容": "介護老人保健施設　ナーシングホーム大樹【通所リハビリテーション】岡山県総社市黒尾２３２番地", "url": "https://www.kaigokensaku.mhlw.go.jp/33/index.php?action_kouhyou_detail_004_kani=true&JigyosyoCd=3350880013-00&ServiceCd=160&Type=search", "url2": "http://www.koudou-kai.or.jp" }, "geometry": { "type": "Point", "coordinates": [ 133.771283499999981, 34.6953219 ] } },
{ "type": "Feature", "properties": { "内容": "老人保健施設泉リハビリセンター【通所リハビリテーション】岡山県総社市小寺995-1", "url": "https://www.kaigokensaku.mhlw.go.jp/33/index.php?action_kouhyou_detail_004_kani=true&JigyosyoCd=3350880005-00&ServiceCd=160&Type=search", "url2": "http://kyk-mc.or.jp/" }, "geometry": { "type": "Point", "coordinates": [ 133.746485900000039, 34.6878698 ] } },
{ "type": "Feature", "properties": { "内容": "泉クリニック【通所リハビリテーション】岡山県総社市小寺995-1", "url": "https://www.kaigokensaku.mhlw.go.jp/33/index.php?action_kouhyou_detail_004_kani=true&JigyosyoCd=3310810191-00&ServiceCd=160&Type=search", "url2": "http://kyk-mc.or.jp/" }, "geometry": { "type": "Point", "coordinates": [ 133.746485900000039, 34.6878698 ] } },
{ "type": "Feature", "properties": { "内容": "医療法人　高梁整形外科医院【通所リハビリテーション】岡山県高梁市本町１１番地1", "url": "https://www.kaigokensaku.mhlw.go.jp/33/index.php?action_kouhyou_detail_004_kani=true&JigyosyoCd=3310910264-00&ServiceCd=160&Type=search", "url2": "http://www.takahashiseikei.jp" }, "geometry": { "type": "Point", "coordinates": [ 133.615801499999975, 34.79908 ] } },
{ "type": "Feature", "properties": { "内容": "医療法人宏仁会　まつうらクリニック　通所リハビリテーション【通所リハビリテーション】岡山県高梁市成羽町下原1004-1", "url": "https://www.kaigokensaku.mhlw.go.jp/33/index.php?action_kouhyou_detail_004_kani=true&JigyosyoCd=3313210142-00&ServiceCd=160&Type=search", "url2": "http://matsuura-clinic.net/" }, "geometry": { "type": "Point", "coordinates": [ 133.537316299999929, 34.7821204 ] } },
{ "type": "Feature", "properties": { "内容": "医療法人慶真会大杉病院【通所リハビリテーション】岡山県高梁市柿木町24", "url": "https://www.kaigokensaku.mhlw.go.jp/33/index.php?action_kouhyou_detail_004_kani=true&JigyosyoCd=3310910199-00&ServiceCd=160&Type=search", "url2": "http://www.oosugi-hospital.or.jp/" }, "geometry": { "type": "Point", "coordinates": [ 133.617654300000027, 34.7957166 ] } },
{ "type": "Feature", "properties": { "内容": "高梁市国民健康保険成羽病院附属介護老人保健施設ひだまり苑【通所リハビリテーション】岡山県高梁市川上町地頭2337-1", "url": "https://www.kaigokensaku.mhlw.go.jp/33/index.php?action_kouhyou_detail_004_kani=true&JigyosyoCd=3353280013-00&ServiceCd=160&Type=search", "url2": "http://www.asahigawasou.or.jp" }, "geometry": { "type": "Point", "coordinates": [ 133.479778399999987, 34.7330387 ] } },
{ "type": "Feature", "properties": { "内容": "老人保健施設ゆうゆう村【通所リハビリテーション】岡山県高梁市東町１８６６番地の３", "url": "https://www.kaigokensaku.mhlw.go.jp/33/index.php?action_kouhyou_detail_004_kani=true&JigyosyoCd=3350980003-00&ServiceCd=160&Type=search", "url2": "http://seiryoukai.jp/yuyu/index.html" }, "geometry": { "type": "Point", "coordinates": [ 133.61533529999997, 34.7922114 ] } },
{ "type": "Feature", "properties": { "内容": "長谷川紀念病院通所リハビリテーション【通所リハビリテーション】岡山県新見市高尾793ー6長谷川紀念病院", "url": "https://www.kaigokensaku.mhlw.go.jp/33/index.php?action_kouhyou_detail_004_kani=true&JigyosyoCd=3371000542-00&ServiceCd=160&Type=search", "url2": "http://www.hasegawa-hp.gr.jp" }, "geometry": { "type": "Point", "coordinates": [ 133.450101, 34.9940677 ] } },
{ "type": "Feature", "properties": { "内容": "介護老人保健施設くろかみ【通所リハビリテーション】岡山県新見市高尾２３０６－５", "url": "https://www.kaigokensaku.mhlw.go.jp/33/index.php?action_kouhyou_detail_004_kani=true&JigyosyoCd=3351080001-00&ServiceCd=160&Type=search", "url2": "http://www.kurokami.jp/" }, "geometry": { "type": "Point", "coordinates": [ 133.447087900000042, 34.9936833 ] } },
{ "type": "Feature", "properties": { "内容": "医療法人　思誠会　渡辺病院【通所リハビリテーション】岡山県新見市高尾2278-1", "url": "https://www.kaigokensaku.mhlw.go.jp/33/index.php?action_kouhyou_detail_004_kani=true&JigyosyoCd=3311010288-00&ServiceCd=160&Type=search", "url2": "http://www.watanabe-byouin.or.jp" }, "geometry": { "type": "Point", "coordinates": [ 133.445526831877118, 34.994510445699731 ] } },
{ "type": "Feature", "properties": { "内容": "草加病院【通所リハビリテーション】岡山県備前市西片上1122", "url": "https://www.kaigokensaku.mhlw.go.jp/33/index.php?action_kouhyou_detail_004_kani=true&JigyosyoCd=3311110104-00&ServiceCd=160&Type=search", "url2": "http://kusaka-soujinkai.jp" }, "geometry": { "type": "Point", "coordinates": [ 134.182335800000033, 34.7460981 ] } },
{ "type": "Feature", "properties": { "内容": "備前市国民健康保険市立吉永病院【通所リハビリテーション】岡山県備前市吉永町吉永中563-4", "url": "https://www.kaigokensaku.mhlw.go.jp/33/index.php?action_kouhyou_detail_004_kani=true&JigyosyoCd=3318902958-00&ServiceCd=160&Type=search", "url2": "http://www.city.bizen.okayama.jp/" }, "geometry": { "type": "Point", "coordinates": [ 134.20332350000001, 34.8118455 ] } },
{ "type": "Feature", "properties": { "内容": "老人保健施設　備前閑谷苑【通所リハビリテーション】岡山県備前市木谷217-1", "url": "https://www.kaigokensaku.mhlw.go.jp/33/index.php?action_kouhyou_detail_004_kani=true&JigyosyoCd=3351180017-00&ServiceCd=160&Type=search", "url2": "http://www.shizutanikai.com" }, "geometry": { "type": "Point", "coordinates": [ 134.222163799999947, 34.7627268 ] } },
{ "type": "Feature", "properties": { "内容": "備前市介護老人保健施設備前さつき苑【通所リハビリテーション】岡山県備前市伊部２２３１－１", "url": "https://www.kaigokensaku.mhlw.go.jp/33/index.php?action_kouhyou_detail_004_kani=true&JigyosyoCd=3351180025-00&ServiceCd=160&Type=search", "url2": "http://www.city.bizen.okayama.jp/shimin/shisetsu/bizenhospital/satsukien/satsukien.jsp" }, "geometry": { "type": "Point", "coordinates": [ 134.155218699999978, 34.7395731 ] } },
{ "type": "Feature", "properties": { "内容": "ひさとみ歯科クリニック【通所リハビリテーション】岡山県瀬戸内市長船町土師313-1", "url": "https://www.kaigokensaku.mhlw.go.jp/33/index.php?action_kouhyou_detail_004_kani=true&JigyosyoCd=3331200034-00&ServiceCd=160&Type=search", "url2": "https://www.hisatomishika.com" }, "geometry": { "type": "Point", "coordinates": [ 134.0928408, 34.664903 ] } },
{ "type": "Feature", "properties": { "内容": "平井医院【通所リハビリテーション】岡山県瀬戸内市長船町福岡１０２－１", "url": "https://www.kaigokensaku.mhlw.go.jp/33/index.php?action_kouhyou_detail_004_kani=true&JigyosyoCd=3312410065-00&ServiceCd=160&Type=search", "url2": null }, "geometry": { "type": "Point", "coordinates": [ 134.0921727, 34.7051559 ] } },
{ "type": "Feature", "properties": { "内容": "老人保健施設　邑久ナーシングホーム【通所リハビリテーション】岡山県瀬戸内市邑久町箕輪266-1", "url": "https://www.kaigokensaku.mhlw.go.jp/33/index.php?action_kouhyou_detail_004_kani=true&JigyosyoCd=3352480002-00&ServiceCd=160&Type=search", "url2": "https://www.keiyuu-kai.or.jp/facility/139/" }, "geometry": { "type": "Point", "coordinates": [ 134.090953899999931, 34.6841578 ] } },
{ "type": "Feature", "properties": { "内容": "さくら整形クリニック【通所リハビリテーション】岡山県赤磐市桜が丘東4丁目4-471", "url": "https://www.kaigokensaku.mhlw.go.jp/33/index.php?action_kouhyou_detail_004_kani=true&JigyosyoCd=3311310043-00&ServiceCd=160&Type=search", "url2": "www.sakura-ortho.jp" }, "geometry": { "type": "Point", "coordinates": [ 134.040731, 34.781385 ] } },
{ "type": "Feature", "properties": { "内容": "介護老人保健施設ゆうあい【通所リハビリテーション】岡山県真庭市勝山１０７０", "url": "https://www.kaigokensaku.mhlw.go.jp/33/index.php?action_kouhyou_detail_004_kani=true&JigyosyoCd=3353480035-00&ServiceCd=160&Type=search", "url2": "https://www.maniwa.tch.or.jp/rokenyuai/" }, "geometry": { "type": "Point", "coordinates": [ 133.697556800000029, 35.0842948 ] } },
{ "type": "Feature", "properties": { "内容": "老人保健施設　白梅の丘【通所リハビリテーション】岡山県真庭市上市瀬３６８番地", "url": "https://www.kaigokensaku.mhlw.go.jp/33/index.php?action_kouhyou_detail_004_kani=true&JigyosyoCd=3353480027-00&ServiceCd=160&Type=search", "url2": "http://shiraume-hill.jp/" }, "geometry": { "type": "Point", "coordinates": [ 133.744945700000017, 35.0288787 ] } },
{ "type": "Feature", "properties": { "内容": "真庭市国民健康保険湯原温泉病院通所リハビリテーション【通所リハビリテーション】岡山県真庭市下湯原56番地", "url": "https://www.kaigokensaku.mhlw.go.jp/33/index.php?action_kouhyou_detail_004_kani=true&JigyosyoCd=3318902784-00&ServiceCd=160&Type=search", "url2": "http://www.yubara.com/hospital/" }, "geometry": { "type": "Point", "coordinates": [ 133.733784199999945, 35.1874902 ] } },
{ "type": "Feature", "properties": { "内容": "医療法人　イケヤ医院【通所リハビリテーション】岡山県真庭市久世2926-3", "url": "https://www.kaigokensaku.mhlw.go.jp/33/index.php?action_kouhyou_detail_004_kani=true&JigyosyoCd=3313410296-00&ServiceCd=160&Type=search", "url2": null }, "geometry": { "type": "Point", "coordinates": [ 133.7517633, 35.0763379 ] } },
{ "type": "Feature", "properties": { "内容": "医療法人　豊医会　原　医院【通所リハビリテーション】美作市豊国原３６３－２", "url": "https://www.kaigokensaku.mhlw.go.jp/33/index.php?action_kouhyou_detail_004_kani=true&JigyosyoCd=3313710166-00&ServiceCd=160&Type=search", "url2": "https://houikai.jp/" }, "geometry": { "type": "Point", "coordinates": [ 134.159956500000021, 35.0212234 ] } },
{ "type": "Feature", "properties": { "内容": "美作市立作東老人保健施設【通所リハビリテーション】岡山県美作市江見280番地", "url": "https://www.kaigokensaku.mhlw.go.jp/33/index.php?action_kouhyou_detail_004_kani=true&JigyosyoCd=3353780004-00&ServiceCd=160&Type=search", "url2": "http://www.city.mimasaka.lg.jp" }, "geometry": { "type": "Point", "coordinates": [ 134.22530329999995, 35.0133252 ] } },
{ "type": "Feature", "properties": { "内容": "医療法人　豊医会　介護老人保健施設　美作リハビリテーションホーム　通所リハビリテーション【通所リハビリテーション】岡山県美作市豊国原1057-1", "url": "https://www.kaigokensaku.mhlw.go.jp/33/index.php?action_kouhyou_detail_004_kani=true&JigyosyoCd=3353780012-00&ServiceCd=160&Type=search", "url2": "https://houikai.jp/" }, "geometry": { "type": "Point", "coordinates": [ 134.159473199999979, 35.0212456 ] } },
{ "type": "Feature", "properties": { "内容": "介護老人保健施設サンパレス桃花【通所リハビリテーション】岡山県浅口市鴨方町六条院中1329", "url": "https://www.kaigokensaku.mhlw.go.jp/33/index.php?action_kouhyou_detail_004_kani=true&JigyosyoCd=3352780021-00&ServiceCd=160&Type=search", "url2": "https://www.sunpalacetouka2.com/." }, "geometry": { "type": "Point", "coordinates": [ 133.578430499999968, 34.5214482 ] } },
{ "type": "Feature", "properties": { "内容": "医療法人社団同仁会　ケアリゾート金光【通所リハビリテーション】岡山県浅口市金光町占見新田740", "url": "https://www.kaigokensaku.mhlw.go.jp/33/index.php?action_kouhyou_detail_004_kani=true&JigyosyoCd=3352780062-00&ServiceCd=160&Type=search", "url2": "http://konkohp.jp/" }, "geometry": { "type": "Point", "coordinates": [ 133.626536100000067, 34.5421424 ] } },
{ "type": "Feature", "properties": { "内容": "医療法人社団よりしま中西医院【通所リハビリテーション】岡山県浅口市寄島町7543-1", "url": "https://www.kaigokensaku.mhlw.go.jp/33/index.php?action_kouhyou_detail_004_kani=true&JigyosyoCd=3312710167-00&ServiceCd=160&Type=search", "url2": null }, "geometry": { "type": "Point", "coordinates": [ 133.586441017196648, 34.480695239611435 ] } },
{ "type": "Feature", "properties": { "内容": "介護老人保健施設いるかの家リハビリテーションセンター【通所リハビリテーション】岡山県浅口市寄島町16089-16", "url": "https://www.kaigokensaku.mhlw.go.jp/33/index.php?action_kouhyou_detail_004_kani=true&JigyosyoCd=3352780039-00&ServiceCd=160&Type=search", "url2": "http://www.iruka.or.jp" }, "geometry": { "type": "Point", "coordinates": [ 133.5865854, 34.4762926 ] } },
{ "type": "Feature", "properties": { "内容": "医療法人　平病院通所リハビリテーションひまわり【通所リハビリテーション】岡山県和気郡和気町尺所４３８", "url": "https://www.kaigokensaku.mhlw.go.jp/33/index.php?action_kouhyou_detail_004_kani=true&JigyosyoCd=3312310208-00&ServiceCd=160&Type=search", "url2": "http://www.tairahos.or.jp" }, "geometry": { "type": "Point", "coordinates": [ 134.161708, 34.8049791 ] } },
{ "type": "Feature", "properties": { "内容": "老人保健施設エスペランスわけ【通所リハビリテーション】岡山県和気郡和気町和気265", "url": "https://www.kaigokensaku.mhlw.go.jp/33/index.php?action_kouhyou_detail_004_kani=true&JigyosyoCd=3352380004-00&ServiceCd=160&Type=search", "url2": "http://www.esperance.or.jp/" }, "geometry": { "type": "Point", "coordinates": [ 134.145214900000042, 34.8029016 ] } },
{ "type": "Feature", "properties": { "内容": "里庄町介護老人保健施設里見川荘　通所リハビリテーション【通所リハビリテーション】岡山県浅口郡里庄町大字里見７３５０里庄町介護老人保健施設里見川荘", "url": "https://www.kaigokensaku.mhlw.go.jp/33/index.php?action_kouhyou_detail_004_kani=true&JigyosyoCd=3372701080-00&ServiceCd=160&Type=search", "url2": "http://hoseikai.jp/?page_id=1362" }, "geometry": { "type": "Point", "coordinates": [ 133.565881600000012, 34.5242228 ] } },
{ "type": "Feature", "properties": { "内容": "鴨方整形外科【通所リハビリテーション】岡山県浅口郡里庄町里見5276", "url": "https://www.kaigokensaku.mhlw.go.jp/33/index.php?action_kouhyou_detail_004_kani=true&JigyosyoCd=3312710217-00&ServiceCd=160&Type=search", "url2": null }, "geometry": { "type": "Point", "coordinates": [ 133.583436342547571, 34.53020280226756 ] } },
{ "type": "Feature", "properties": { "内容": "医療法人　おぐら整形外科医院【通所リハビリテーション】岡山県小田郡矢掛町矢掛2533", "url": "https://www.kaigokensaku.mhlw.go.jp/33/index.php?action_kouhyou_detail_004_kani=true&JigyosyoCd=3312810074-00&ServiceCd=160&Type=search", "url2": null }, "geometry": { "type": "Point", "coordinates": [ 133.589987800000017, 34.6277404 ] } },
{ "type": "Feature", "properties": { "内容": "介護老人保健施設　リハヴィラ　ポルソ矢掛【通所リハビリテーション】岡山県小田郡矢掛町横谷1497番地", "url": "https://www.kaigokensaku.mhlw.go.jp/33/index.php?action_kouhyou_detail_004_kani=true&JigyosyoCd=3352880011-00&ServiceCd=160&Type=search", "url2": "https://polso-yakage.jimdofree.com/" }, "geometry": { "type": "Point", "coordinates": [ 133.625236351430772, 34.606865665231055 ] } },
{ "type": "Feature", "properties": { "内容": "矢掛町介護老人保健施設たかつま荘通所リハビリテーション【通所リハビリテーション】岡山県小田郡矢掛町矢掛２６９５－２", "url": "https://www.kaigokensaku.mhlw.go.jp/33/index.php?action_kouhyou_detail_004_kani=true&JigyosyoCd=3352880003-00&ServiceCd=160&Type=search", "url2": null }, "geometry": { "type": "Point", "coordinates": [ 133.5871297, 34.6287819 ] } },
{ "type": "Feature", "properties": { "内容": "一般財団法人共愛会　老人保健施設　虹【通所リハビリテーション】岡山県苫田郡鏡野町古川1406", "url": "https://www.kaigokensaku.mhlw.go.jp/33/index.php?action_kouhyou_detail_004_kani=true&JigyosyoCd=3353580024-00&ServiceCd=160&Type=search", "url2": "http://www.kyouaikai.or.jp/" }, "geometry": { "type": "Point", "coordinates": [ 133.9360739, 35.0723187 ] } },
{ "type": "Feature", "properties": { "内容": "老人保健施設勝央苑【通所リハビリテーション】岡山県勝田郡勝央町平242-1", "url": "https://www.kaigokensaku.mhlw.go.jp/33/index.php?action_kouhyou_detail_004_kani=true&JigyosyoCd=3353680030-00&ServiceCd=160&Type=search", "url2": "http://www.bloominglife.or.jp/" }, "geometry": { "type": "Point", "coordinates": [ 134.116052, 35.0433176 ] } },
{ "type": "Feature", "properties": { "内容": "さとう記念病院老人保健施設【通所リハビリテーション】岡山県勝田郡勝央町黒土45", "url": "https://www.kaigokensaku.mhlw.go.jp/33/index.php?action_kouhyou_detail_004_kani=true&JigyosyoCd=3353680022-00&ServiceCd=160&Type=search", "url2": "http://www.satoukinen.or.jp/" }, "geometry": { "type": "Point", "coordinates": [ 134.126914858196983, 35.028631071828826 ] } },
{ "type": "Feature", "properties": { "内容": "医療法人　三憲会　介護老人保健施設　エリシウム柵原【通所リハビリテーション】久米郡美咲町吉ヶ原981-1", "url": "https://www.kaigokensaku.mhlw.go.jp/33/index.php?action_kouhyou_detail_004_kani=true&JigyosyoCd=3353880002-00&ServiceCd=160&Type=search", "url2": "elysiumyanahara.jp" }, "geometry": { "type": "Point", "coordinates": [ 134.072329200000013, 34.9443083 ] } },
{ "type": "Feature", "properties": { "内容": "老人保健施設ルミエール【通所リハビリテーション】岡山県加賀郡吉備中央町宮地３３３６－８", "url": "https://www.kaigokensaku.mhlw.go.jp/33/index.php?action_kouhyou_detail_004_kani=true&JigyosyoCd=3353180007-00&ServiceCd=160&Type=search", "url2": null }, "geometry": { "type": "Point", "coordinates": [ 133.681022200000029, 34.7731167 ] } },
{ "type": "Feature", "properties": { "内容": "吉備高原総合福祉センター　介護老人保健施設　つつじ苑　通所リハビリテーション【通所リハビリテーション】岡山県加賀郡吉備中央町吉川７５３１", "url": "https://www.kaigokensaku.mhlw.go.jp/33/index.php?action_kouhyou_detail_004_kani=true&JigyosyoCd=3353980000-00&ServiceCd=160&Type=search", "url2": "https://momotarogroup.com" }, "geometry": { "type": "Point", "coordinates": [ 133.763061099999959, 34.8443465 ] } }
]
}
