{
"type": "FeatureCollection",
"name": "geo_33_訪問入浴介護",
"crs": { "type": "name", "properties": { "name": "urn:ogc:def:crs:OGC:1.3:CRS84" } },
"features": [
{ "type": "Feature", "properties": { "内容": "ニチイケアセンター岡山南【訪問入浴介護】岡山市北区下中野324-118", "url": "https://www.kaigokensaku.mhlw.go.jp/33/index.php?action_kouhyou_detail_004_kani=true&JigyosyoCd=3370106365-00&ServiceCd=120&Type=search", "url2": "http://www.nichiigakkan.co.jp/" }, "geometry": { "type": "Point", "coordinates": [ 133.908098099999961, 34.6408553 ] } },
{ "type": "Feature", "properties": { "内容": "アスケア訪問入浴　岡山【訪問入浴介護】岡山県岡山市北区平野５３５番地の１アーデン平野１階", "url": "https://www.kaigokensaku.mhlw.go.jp/33/index.php?action_kouhyou_detail_004_kani=true&JigyosyoCd=3370110862-00&ServiceCd=120&Type=search", "url2": "https://www.as-care.co.jp/" }, "geometry": { "type": "Point", "coordinates": [ 133.861425199999985, 34.6459721 ] } },
{ "type": "Feature", "properties": { "内容": "あうる訪問入浴サービス【訪問入浴介護】岡山県岡山市東区松新町71-1内田ビル105", "url": "https://www.kaigokensaku.mhlw.go.jp/33/index.php?action_kouhyou_detail_004_kani=true&JigyosyoCd=3370114591-00&ServiceCd=120&Type=search", "url2": "http://hp.kaipoke.biz/vph/95364/index_0006.html" }, "geometry": { "type": "Point", "coordinates": [ 134.010150483077382, 34.658510459196975 ] } },
{ "type": "Feature", "properties": { "内容": "アスケア訪問入浴　岡山東【訪問入浴介護】岡山県岡山市東区西大寺上１丁目４－５セジュールＰＡＲＴ２　１０１号室", "url": "https://www.kaigokensaku.mhlw.go.jp/33/index.php?action_kouhyou_detail_004_kani=true&JigyosyoCd=3370117677-00&ServiceCd=120&Type=search", "url2": "https://www.as-care.co.jp/" }, "geometry": { "type": "Point", "coordinates": [ 134.0303137, 34.6605307 ] } },
{ "type": "Feature", "properties": { "内容": "アースサポート岡山【訪問入浴介護】岡山県岡山市南区新保1612番地16", "url": "https://www.kaigokensaku.mhlw.go.jp/33/index.php?action_kouhyou_detail_004_kani=true&JigyosyoCd=3370109732-00&ServiceCd=120&Type=search", "url2": "http://www.earthsupport.co.jp" }, "geometry": { "type": "Point", "coordinates": [ 133.90932870000006, 34.6365169 ] } },
{ "type": "Feature", "properties": { "内容": "あずケアセンター【訪問入浴介護】岡山県岡山市南区芳泉1丁目11-27", "url": "https://www.kaigokensaku.mhlw.go.jp/33/index.php?action_kouhyou_detail_004_kani=true&JigyosyoCd=3370107199-00&ServiceCd=120&Type=search", "url2": "http://azcorporation.co.jp/" }, "geometry": { "type": "Point", "coordinates": [ 133.9093259, 34.6181664 ] } },
{ "type": "Feature", "properties": { "内容": "セントケア岡山南【訪問入浴介護】岡山県岡山市南区三浜町一丁目1-20コンフォールミハマ北側", "url": "https://www.kaigokensaku.mhlw.go.jp/33/index.php?action_kouhyou_detail_004_kani=true&JigyosyoCd=3370117040-00&ServiceCd=120&Type=search", "url2": "https://care-net.biz/33/okayama/" }, "geometry": { "type": "Point", "coordinates": [ 133.947273700000011, 34.6176712 ] } },
{ "type": "Feature", "properties": { "内容": "訪問入浴はぁと【訪問入浴介護】岡山市南区福富西一丁目１３番２１号", "url": "https://www.kaigokensaku.mhlw.go.jp/33/index.php?action_kouhyou_detail_004_kani=true&JigyosyoCd=3370117057-00&ServiceCd=120&Type=search", "url2": "http:/hp.kaipoke.biz/fdr/" }, "geometry": { "type": "Point", "coordinates": [ 133.9340383, 34.6248674 ] } },
{ "type": "Feature", "properties": { "内容": "ツクイ倉敷連島【訪問入浴介護】連島町連島33－2", "url": "https://www.kaigokensaku.mhlw.go.jp/33/index.php?action_kouhyou_detail_004_kani=true&JigyosyoCd=3370209490-00&ServiceCd=120&Type=search", "url2": "https://www.tsukui.net/home-care/2025/" }, "geometry": { "type": "Point", "coordinates": [ 133.744805, 34.5659707 ] } },
{ "type": "Feature", "properties": { "内容": "アスケア訪問入浴　倉敷【訪問入浴介護】岡山県倉敷市中島467　ﾗﾝﾄﾞⅡ　西側", "url": "https://www.kaigokensaku.mhlw.go.jp/33/index.php?action_kouhyou_detail_004_kani=true&JigyosyoCd=3370205852-00&ServiceCd=120&Type=search", "url2": "https://www.as-care.co.jp/" }, "geometry": { "type": "Point", "coordinates": [ 133.731997370786843, 34.588580070829728 ] } },
{ "type": "Feature", "properties": { "内容": "アースサポート倉敷【訪問入浴介護】岡山県倉敷市青江855番地3", "url": "https://www.kaigokensaku.mhlw.go.jp/33/index.php?action_kouhyou_detail_004_kani=true&JigyosyoCd=3370205696-00&ServiceCd=120&Type=search", "url2": "http://www.earthsupport.co.jp" }, "geometry": { "type": "Point", "coordinates": [ 133.757473299999987, 34.6125082 ] } },
{ "type": "Feature", "properties": { "内容": "有限会社　医療福祉研究所ヘイセイ【訪問入浴介護】岡山県倉敷市老松町4丁目4-7倉敷在宅総合ケアセンター", "url": "https://www.kaigokensaku.mhlw.go.jp/33/index.php?action_kouhyou_detail_004_kani=true&JigyosyoCd=3370200960-00&ServiceCd=120&Type=search", "url2": "http://www.heisei.or.jp/" }, "geometry": { "type": "Point", "coordinates": [ 133.760956699999952, 34.594082 ] } },
{ "type": "Feature", "properties": { "内容": "津山市社会福祉協議会津山訪問入浴サービスセンター【訪問入浴介護】岡山県津山市山北520番地津山市総合福祉会館", "url": "https://www.kaigokensaku.mhlw.go.jp/33/index.php?action_kouhyou_detail_004_kani=true&JigyosyoCd=3370300588-00&ServiceCd=120&Type=search", "url2": "http://www.tsuyamasyakyo.or.jp/" }, "geometry": { "type": "Point", "coordinates": [ 134.005374284794584, 35.069342218202159 ] } },
{ "type": "Feature", "properties": { "内容": "アースサポート津山【訪問入浴介護】岡山県津山市東一宮22番地3", "url": "https://www.kaigokensaku.mhlw.go.jp/33/index.php?action_kouhyou_detail_004_kani=true&JigyosyoCd=3370301669-00&ServiceCd=120&Type=search", "url2": "http://www.earthsupport.co.jp" }, "geometry": { "type": "Point", "coordinates": [ 134.001758600000016, 35.0960817 ] } },
{ "type": "Feature", "properties": { "内容": "アスケア訪問入浴　井原【訪問入浴介護】岡山県井原市七日市町149番石井仙ビル1階", "url": "https://www.kaigokensaku.mhlw.go.jp/33/index.php?action_kouhyou_detail_004_kani=true&JigyosyoCd=3370700704-00&ServiceCd=120&Type=search", "url2": "https://www.as-care.co.jp/" }, "geometry": { "type": "Point", "coordinates": [ 133.46806719999995, 34.595722 ] } },
{ "type": "Feature", "properties": { "内容": "新見中央訪問入浴介護事業所【訪問入浴介護】岡山県新見市金谷640-1", "url": "https://www.kaigokensaku.mhlw.go.jp/33/index.php?action_kouhyou_detail_004_kani=true&JigyosyoCd=3371000153-00&ServiceCd=120&Type=search", "url2": "http://www.fukushiokayama.or.jp/niimi/niimi.htm" }, "geometry": { "type": "Point", "coordinates": [ 133.468594340861529, 34.973049462375762 ] } },
{ "type": "Feature", "properties": { "内容": "サンキ・ウエルビィ介護センター備前【訪問入浴介護】岡山県備前市東片上514-12", "url": "https://www.kaigokensaku.mhlw.go.jp/33/index.php?action_kouhyou_detail_004_kani=true&JigyosyoCd=3371100532-00&ServiceCd=120&Type=search", "url2": null }, "geometry": { "type": "Point", "coordinates": [ 134.196867500000053, 34.7477231 ] } },
{ "type": "Feature", "properties": { "内容": "真庭市社協　訪問入浴介護南事業所【訪問入浴介護】岡山県真庭市下市瀬558-1", "url": "https://www.kaigokensaku.mhlw.go.jp/33/index.php?action_kouhyou_detail_004_kani=true&JigyosyoCd=3373400369-00&ServiceCd=120&Type=search", "url2": null }, "geometry": { "type": "Point", "coordinates": [ 133.739057572122192, 35.026037151750955 ] } }
]
}
