{
"type": "FeatureCollection",
"name": "geo_33_小規模多機能型居宅介護",
"crs": { "type": "name", "properties": { "name": "urn:ogc:def:crs:OGC:1.3:CRS84" } },
"features": [
{ "type": "Feature", "properties": { "内容": "医療法人中山医院サポートハウス四季の里【小規模多機能型居宅介護】岡山市北区西山内９５－１", "url": "https://www.kaigokensaku.mhlw.go.jp/33/index.php?action_kouhyou_detail_004_kani=true&JigyosyoCd=3390100695-00&ServiceCd=730&Type=search", "url2": null }, "geometry": { "type": "Point", "coordinates": [ 133.790784095700843, 34.764954889629443 ] } },
{ "type": "Feature", "properties": { "内容": "小規模多機能型居宅介護事業所　集い愛【小規模多機能型居宅介護】岡山県岡山市北区楢津418-1", "url": "https://www.kaigokensaku.mhlw.go.jp/33/index.php?action_kouhyou_detail_004_kani=true&JigyosyoCd=3390100455-00&ServiceCd=730&Type=search", "url2": "http://www.okayama-junshinkai.co.jp/aiaikai/index.html" }, "geometry": { "type": "Point", "coordinates": [ 133.877817199999981, 34.676239 ] } },
{ "type": "Feature", "properties": { "内容": "香々庵小規模多機能ホーム【小規模多機能型居宅介護】岡山県岡山市北区東古松１丁目１０番１０号", "url": "https://www.kaigokensaku.mhlw.go.jp/33/index.php?action_kouhyou_detail_004_kani=true&JigyosyoCd=3390100067-00&ServiceCd=730&Type=search", "url2": "info@koukoan.co.jp" }, "geometry": { "type": "Point", "coordinates": [ 133.918003199999958, 34.6484672 ] } },
{ "type": "Feature", "properties": { "内容": "小規模多機能型居宅介護事業所みんなの家ななくさ【小規模多機能型居宅介護】岡山県岡山市北区西崎本町1-7", "url": "https://www.kaigokensaku.mhlw.go.jp/33/index.php?action_kouhyou_detail_004_kani=true&JigyosyoCd=3390100125-00&ServiceCd=730&Type=search", "url2": "nanakusa_okayama@yahoo.co.jp" }, "geometry": { "type": "Point", "coordinates": [ 133.899140100000068, 34.6667936 ] } },
{ "type": "Feature", "properties": { "内容": "ライフサポートあおいちょう【小規模多機能型居宅介護】岡山県岡山市北区葵町3-7", "url": "https://www.kaigokensaku.mhlw.go.jp/33/index.php?action_kouhyou_detail_004_kani=true&JigyosyoCd=3390100265-00&ServiceCd=730&Type=search", "url2": "http://life-support.ne.jp/" }, "geometry": { "type": "Point", "coordinates": [ 133.898309499999982, 34.6698987 ] } },
{ "type": "Feature", "properties": { "内容": "サンキ・ウエルビィ小規模多機能センター撫川【小規模多機能型居宅介護】岡山県岡山市北区撫川438-1", "url": "https://www.kaigokensaku.mhlw.go.jp/33/index.php?action_kouhyou_detail_004_kani=true&JigyosyoCd=3390100596-00&ServiceCd=730&Type=search", "url2": null }, "geometry": { "type": "Point", "coordinates": [ 133.846943, 34.6433387 ] } },
{ "type": "Feature", "properties": { "内容": "小規模多機能型居宅介護事業所　長春苑【小規模多機能型居宅介護】岡山市北区富町2丁目１９－４１", "url": "https://www.kaigokensaku.mhlw.go.jp/33/index.php?action_kouhyou_detail_004_kani=true&JigyosyoCd=3390100810-00&ServiceCd=730&Type=search", "url2": "https://tyousyun.kawada.or.jp" }, "geometry": { "type": "Point", "coordinates": [ 133.907289200000037, 34.6642386 ] } },
{ "type": "Feature", "properties": { "内容": "小規模多機能センター吉備の杜【小規模多機能型居宅介護】岡山県岡山市北区延友69", "url": "https://www.kaigokensaku.mhlw.go.jp/33/index.php?action_kouhyou_detail_004_kani=true&JigyosyoCd=3390100885-00&ServiceCd=730&Type=search", "url2": "http://www.kibikibi.info/" }, "geometry": { "type": "Point", "coordinates": [ 133.866472, 34.6394647 ] } },
{ "type": "Feature", "properties": { "内容": "宇垣荘　小規模多機能型居宅介護事業所【小規模多機能型居宅介護】岡山県岡山市北区御津宇垣2069-10", "url": "https://www.kaigokensaku.mhlw.go.jp/33/index.php?action_kouhyou_detail_004_kani=true&JigyosyoCd=3390101164-00&ServiceCd=730&Type=search", "url2": "http://www.okayamasaiseikai.or.jp/ugakiso/" }, "geometry": { "type": "Point", "coordinates": [ 133.918598100000054, 34.7805689 ] } },
{ "type": "Feature", "properties": { "内容": "小規模多機能　コスモスの家【小規模多機能型居宅介護】岡山市北区加茂７２６番地１", "url": "https://www.kaigokensaku.mhlw.go.jp/33/index.php?action_kouhyou_detail_004_kani=true&JigyosyoCd=3390101289-00&ServiceCd=730&Type=search", "url2": null }, "geometry": { "type": "Point", "coordinates": [ 133.830962799999952, 34.6766272 ] } },
{ "type": "Feature", "properties": { "内容": "小規模多機能ライフケアホーム　いきがいライフたかまつ【小規模多機能型居宅介護】岡山市北区立田５８６番地1", "url": "https://www.kaigokensaku.mhlw.go.jp/33/index.php?action_kouhyou_detail_004_kani=true&JigyosyoCd=3390101313-00&ServiceCd=730&Type=search", "url2": "http://www.okayama-ikiiki-shiawase.net/" }, "geometry": { "type": "Point", "coordinates": [ 133.83177360000002, 34.6795324 ] } },
{ "type": "Feature", "properties": { "内容": "小規模多機能ホーム　よつばの丘【小規模多機能型居宅介護】岡山県岡山市北区吉宗853小規模多機能ホーム　よつばの丘", "url": "https://www.kaigokensaku.mhlw.go.jp/33/index.php?action_kouhyou_detail_004_kani=true&JigyosyoCd=3390101347-00&ServiceCd=730&Type=search", "url2": "http://yotubaen.com" }, "geometry": { "type": "Point", "coordinates": [ 133.9098679, 34.7306568 ] } },
{ "type": "Feature", "properties": { "内容": "ヴィライフ今保ケアサポートセンター【小規模多機能型居宅介護】岡山県岡山市北区今保651-10", "url": "https://www.kaigokensaku.mhlw.go.jp/33/index.php?action_kouhyou_detail_004_kani=true&JigyosyoCd=3390101420-00&ServiceCd=730&Type=search", "url2": "https://www.ohkita.co.jp/" }, "geometry": { "type": "Point", "coordinates": [ 133.870985499999961, 34.6369208 ] } },
{ "type": "Feature", "properties": { "内容": "小規模多機能ホーム　みんなの家だんだん【小規模多機能型居宅介護】岡山県岡山市北区西崎本町1-10", "url": "https://www.kaigokensaku.mhlw.go.jp/33/index.php?action_kouhyou_detail_004_kani=true&JigyosyoCd=3390101479-00&ServiceCd=730&Type=search", "url2": "danndann.2013@ivy.ocn.ne.jp" }, "geometry": { "type": "Point", "coordinates": [ 133.89880605767209, 34.666760718598134 ] } },
{ "type": "Feature", "properties": { "内容": "サンキ・ウエルビィ小規模多機能センター今保【小規模多機能型居宅介護】岡山県岡山市北区今保154-1", "url": "https://www.kaigokensaku.mhlw.go.jp/33/index.php?action_kouhyou_detail_004_kani=true&JigyosyoCd=3390101586-00&ServiceCd=730&Type=search", "url2": null }, "geometry": { "type": "Point", "coordinates": [ 133.871041, 34.6388789 ] } },
{ "type": "Feature", "properties": { "内容": "花津月【小規模多機能型居宅介護】岡山県岡山市北区津高696-2", "url": "https://www.kaigokensaku.mhlw.go.jp/33/index.php?action_kouhyou_detail_004_kani=true&JigyosyoCd=3390101594-00&ServiceCd=730&Type=search", "url2": "https://goodlife-okayama.p-kit.com/" }, "geometry": { "type": "Point", "coordinates": [ 133.903635047817943, 34.696533357635623 ] } },
{ "type": "Feature", "properties": { "内容": "小規模多機能ホーム麻姑の小町伊島【小規模多機能型居宅介護】岡山県岡山市北区伊島町3丁目8-8-2麻姑の小町伊島２、３階", "url": "https://www.kaigokensaku.mhlw.go.jp/33/index.php?action_kouhyou_detail_004_kani=true&JigyosyoCd=3390101966-00&ServiceCd=730&Type=search", "url2": "http://www.maco.co.jp/" }, "geometry": { "type": "Point", "coordinates": [ 133.907109694551082, 34.678919075407826 ] } },
{ "type": "Feature", "properties": { "内容": "小規模多機能型居宅介護まるのうち【小規模多機能型居宅介護】岡山県岡山市北区丸の内一丁目13-14", "url": "https://www.kaigokensaku.mhlw.go.jp/33/index.php?action_kouhyou_detail_004_kani=true&JigyosyoCd=3390102063-00&ServiceCd=730&Type=search", "url2": null }, "geometry": { "type": "Point", "coordinates": [ 133.932413726983668, 34.662366817907696 ] } },
{ "type": "Feature", "properties": { "内容": "小規模多機能さとの家にわせ【小規模多機能型居宅介護】岡山県岡山市北区庭瀬１０５４－３", "url": "https://www.kaigokensaku.mhlw.go.jp/33/index.php?action_kouhyou_detail_004_kani=true&JigyosyoCd=3390102162-00&ServiceCd=730&Type=search", "url2": "https://makotokai.okayama.jp" }, "geometry": { "type": "Point", "coordinates": [ 133.854291099999955, 34.6391278 ] } },
{ "type": "Feature", "properties": { "内容": "小規模多機能　ひまわりの家【小規模多機能型居宅介護】岡山県岡山市北区加茂７１８番地１", "url": "https://www.kaigokensaku.mhlw.go.jp/33/index.php?action_kouhyou_detail_004_kani=true&JigyosyoCd=3390102212-00&ServiceCd=730&Type=search", "url2": null }, "geometry": { "type": "Point", "coordinates": [ 133.830823900000041, 34.6765855 ] } },
{ "type": "Feature", "properties": { "内容": "小規模多機能型居宅介護　津島かがやき【小規模多機能型居宅介護】岡山市北区津島西坂2-11-19", "url": "https://www.kaigokensaku.mhlw.go.jp/33/index.php?action_kouhyou_detail_004_kani=true&JigyosyoCd=3390102378-00&ServiceCd=730&Type=search", "url2": "www.takufukai-group.or.jp" }, "geometry": { "type": "Point", "coordinates": [ 133.908173199999965, 34.6837386 ] } },
{ "type": "Feature", "properties": { "内容": "シティヴィラ大供ケアサポートセンター【小規模多機能型居宅介護】岡山県岡山市北区大供本町715-1", "url": "https://www.kaigokensaku.mhlw.go.jp/33/index.php?action_kouhyou_detail_004_kani=true&JigyosyoCd=3390102584-00&ServiceCd=730&Type=search", "url2": "https://www.ohkita.co.jp/" }, "geometry": { "type": "Point", "coordinates": [ 133.911653300000012, 34.6525609 ] } },
{ "type": "Feature", "properties": { "内容": "ニチイケアセンター岡山門前Ⅰ【小規模多機能型居宅介護】岡山県岡山市北区門前３８４番２", "url": "https://www.kaigokensaku.mhlw.go.jp/33/index.php?action_kouhyou_detail_004_kani=true&JigyosyoCd=3390103145-00&ServiceCd=730&Type=search", "url2": null }, "geometry": { "type": "Point", "coordinates": [ 133.8092547, 34.6939958 ] } },
{ "type": "Feature", "properties": { "内容": "ライフサポートみの【小規模多機能型居宅介護】三野10‐51", "url": "https://www.kaigokensaku.mhlw.go.jp/33/index.php?action_kouhyou_detail_004_kani=true&JigyosyoCd=3390103327-00&ServiceCd=730&Type=search", "url2": null }, "geometry": { "type": "Point", "coordinates": [ 133.937692, 34.692817 ] } },
{ "type": "Feature", "properties": { "内容": "ひのきの森ケア　弓之町【小規模多機能型居宅介護】岡山県岡山市北区弓之町２－２０天心ビル2階", "url": "https://www.kaigokensaku.mhlw.go.jp/33/index.php?action_kouhyou_detail_004_kani=true&JigyosyoCd=3390103350-00&ServiceCd=730&Type=search", "url2": "http://www.greenhelp-japan.org" }, "geometry": { "type": "Point", "coordinates": [ 133.926836, 34.670935 ] } },
{ "type": "Feature", "properties": { "内容": "ライフサポートいちえ【小規模多機能型居宅介護】岡山県岡山市北区青江1丁目15番15号", "url": "https://www.kaigokensaku.mhlw.go.jp/33/index.php?action_kouhyou_detail_004_kani=true&JigyosyoCd=3390102683-00&ServiceCd=730&Type=search", "url2": "http://life-support.ne.jp/" }, "geometry": { "type": "Point", "coordinates": [ 133.917593900000014, 34.6344859 ] } },
{ "type": "Feature", "properties": { "内容": "シニアリビング　あかり【小規模多機能型居宅介護】岡山県岡山市北区北方1－1－9", "url": "https://www.kaigokensaku.mhlw.go.jp/33/index.php?action_kouhyou_detail_004_kani=true&JigyosyoCd=3390100356-00&ServiceCd=730&Type=search", "url2": "https://www.reline-families.com" }, "geometry": { "type": "Point", "coordinates": [ 133.928698998471418, 34.684956343663551 ] } },
{ "type": "Feature", "properties": { "内容": "サテライト型小規模多機能居宅介護いこいの里【小規模多機能型居宅介護】岡山市北区北方3丁目6-20YSハイツ21", "url": "https://www.kaigokensaku.mhlw.go.jp/33/index.php?action_kouhyou_detail_004_kani=true&JigyosyoCd=3390102220-00&ServiceCd=730&Type=search", "url2": "http://takufukai-group.or.jp/ikoi-sho-sate.html" }, "geometry": { "type": "Point", "coordinates": [ 133.933366400000068, 34.6896448 ] } },
{ "type": "Feature", "properties": { "内容": "小規模多機能ホームむすび【小規模多機能型居宅介護】岡山市北区平山715-2", "url": "https://www.kaigokensaku.mhlw.go.jp/33/index.php?action_kouhyou_detail_004_kani=true&JigyosyoCd=3390103384-00&ServiceCd=730&Type=search", "url2": "https://www.koinonia2020.com/" }, "geometry": { "type": "Point", "coordinates": [ 133.8311525, 34.6994281 ] } },
{ "type": "Feature", "properties": { "内容": "小規模多機能型居宅介護　ケアビレッジたけべ【小規模多機能型居宅介護】岡山市北区建部町建部上326-1", "url": "https://www.kaigokensaku.mhlw.go.jp/33/index.php?action_kouhyou_detail_004_kani=true&JigyosyoCd=3390101115-00&ServiceCd=730&Type=search", "url2": null }, "geometry": { "type": "Point", "coordinates": [ 133.902488400000038, 34.8562078 ] } },
{ "type": "Feature", "properties": { "内容": "小規模多機能型居宅介護事業所牟佐げんき【小規模多機能型居宅介護】岡山市北区牟佐１４７９番地１", "url": "https://www.kaigokensaku.mhlw.go.jp/33/index.php?action_kouhyou_detail_004_kani=true&JigyosyoCd=3390100935-00&ServiceCd=730&Type=search", "url2": "https://okayama-kotobuki.sakura.ne.jp" }, "geometry": { "type": "Point", "coordinates": [ 133.975962100000061, 34.7244924 ] } },
{ "type": "Feature", "properties": { "内容": "小規模多機能型居宅介護　光生げんき【小規模多機能型居宅介護】岡山市北区厚生町三丁目8番35号", "url": "https://www.kaigokensaku.mhlw.go.jp/33/index.php?action_kouhyou_detail_004_kani=true&JigyosyoCd=3390101453-00&ServiceCd=730&Type=search", "url2": null }, "geometry": { "type": "Point", "coordinates": [ 133.910936200000037, 34.6558786 ] } },
{ "type": "Feature", "properties": { "内容": "ライフサポートいつき【小規模多機能型居宅介護】岡山県岡山市北区高柳東町２番１１", "url": "https://www.kaigokensaku.mhlw.go.jp/33/index.php?action_kouhyou_detail_004_kani=true&JigyosyoCd=3390102931-00&ServiceCd=730&Type=search", "url2": "http://life-support.ne.jp/" }, "geometry": { "type": "Point", "coordinates": [ 133.9035395, 34.6598754 ] } },
{ "type": "Feature", "properties": { "内容": "ちっちゃな多機能事業所おかげさん【小規模多機能型居宅介護】原尾島4－4ー16", "url": "https://www.kaigokensaku.mhlw.go.jp/33/index.php?action_kouhyou_detail_004_kani=true&JigyosyoCd=3390101545-00&ServiceCd=730&Type=search", "url2": "www.premudan.jp" }, "geometry": { "type": "Point", "coordinates": [ 133.951741099999907, 34.666717699999985 ] } },
{ "type": "Feature", "properties": { "内容": "ライフサポートくらた【小規模多機能型居宅介護】岡山県岡山市中区倉田482", "url": "https://www.kaigokensaku.mhlw.go.jp/33/index.php?action_kouhyou_detail_004_kani=true&JigyosyoCd=3390100190-00&ServiceCd=730&Type=search", "url2": "http://life-support.ne.jp/" }, "geometry": { "type": "Point", "coordinates": [ 133.956212400000027, 34.6292998 ] } },
{ "type": "Feature", "properties": { "内容": "小規模多機能ホームてんとう虫【小規模多機能型居宅介護】岡山県岡山市中区海吉１５３７－４", "url": "https://www.kaigokensaku.mhlw.go.jp/33/index.php?action_kouhyou_detail_004_kani=true&JigyosyoCd=3390100703-00&ServiceCd=730&Type=search", "url2": "http://tentou-m.com/" }, "geometry": { "type": "Point", "coordinates": [ 133.987100300000066, 34.6615996 ] } },
{ "type": "Feature", "properties": { "内容": "かたらい【小規模多機能型居宅介護】岡山市中区乙多見１４７－１", "url": "https://www.kaigokensaku.mhlw.go.jp/33/index.php?action_kouhyou_detail_004_kani=true&JigyosyoCd=3390100794-00&ServiceCd=730&Type=search", "url2": "http://www.fukushi-koukikai,jp/" }, "geometry": { "type": "Point", "coordinates": [ 133.9761512, 34.6799446 ] } },
{ "type": "Feature", "properties": { "内容": "小規模多機能ホームケアポート生き活き館原尾島【小規模多機能型居宅介護】東川原361-1", "url": "https://www.kaigokensaku.mhlw.go.jp/33/index.php?action_kouhyou_detail_004_kani=true&JigyosyoCd=3390100851-00&ServiceCd=730&Type=search", "url2": "https://iki2.org/" }, "geometry": { "type": "Point", "coordinates": [ 133.949266599999987, 34.6748263 ] } },
{ "type": "Feature", "properties": { "内容": "小規模多機能型居宅介護　さくら【小規模多機能型居宅介護】岡山県岡山市中区土田802-2ケアタウン土田", "url": "https://www.kaigokensaku.mhlw.go.jp/33/index.php?action_kouhyou_detail_004_kani=true&JigyosyoCd=3390101719-00&ServiceCd=730&Type=search", "url2": null }, "geometry": { "type": "Point", "coordinates": [ 133.987161, 34.6935986 ] } },
{ "type": "Feature", "properties": { "内容": "小規模多機能ホームてんとう虫倉益【小規模多機能型居宅介護】岡山県岡山市中区倉益114－13小規模多機能ホームてんとう虫倉益", "url": "https://www.kaigokensaku.mhlw.go.jp/33/index.php?action_kouhyou_detail_004_kani=true&JigyosyoCd=3390101883-00&ServiceCd=730&Type=search", "url2": "http//www.tentou-m.com" }, "geometry": { "type": "Point", "coordinates": [ 133.975232833065746, 34.647830896513923 ] } },
{ "type": "Feature", "properties": { "内容": "ライフサポートこころ【小規模多機能型居宅介護】岡山県岡山市中区藤崎661-20", "url": "https://www.kaigokensaku.mhlw.go.jp/33/index.php?action_kouhyou_detail_004_kani=true&JigyosyoCd=3390102030-00&ServiceCd=730&Type=search", "url2": "http://life-support.ne.jp/" }, "geometry": { "type": "Point", "coordinates": [ 133.980034833314676, 34.607569547594281 ] } },
{ "type": "Feature", "properties": { "内容": "小規模多機能ホームいほり【小規模多機能型居宅介護】岡山県岡山市中区神下458-4", "url": "https://www.kaigokensaku.mhlw.go.jp/33/index.php?action_kouhyou_detail_004_kani=true&JigyosyoCd=3390102873-00&ServiceCd=730&Type=search", "url2": null }, "geometry": { "type": "Point", "coordinates": [ 133.9844272, 34.6757836 ] } },
{ "type": "Feature", "properties": { "内容": "サテライト　なごみ【小規模多機能型居宅介護】岡山県岡山市中区国府市場985-1", "url": "https://www.kaigokensaku.mhlw.go.jp/33/index.php?action_kouhyou_detail_004_kani=true&JigyosyoCd=3390103277-00&ServiceCd=730&Type=search", "url2": "http://www.fukushi-koukikai.jp" }, "geometry": { "type": "Point", "coordinates": [ 133.964827195106494, 34.693680374633622 ] } },
{ "type": "Feature", "properties": { "内容": "小規模多機能型居宅介護事業所はぐはぐの家【小規模多機能型居宅介護】岡山市中区高島新屋敷298", "url": "https://www.kaigokensaku.mhlw.go.jp/33/index.php?action_kouhyou_detail_004_kani=true&JigyosyoCd=3390103129-00&ServiceCd=730&Type=search", "url2": "https://halo-care.jp/" }, "geometry": { "type": "Point", "coordinates": [ 133.9533267, 34.68638 ] } },
{ "type": "Feature", "properties": { "内容": "こころの里　やまさき【小規模多機能型居宅介護】岡山県岡山市中区山崎57番地", "url": "https://www.kaigokensaku.mhlw.go.jp/33/index.php?action_kouhyou_detail_004_kani=true&JigyosyoCd=3390101834-00&ServiceCd=730&Type=search", "url2": "http://kokoronosato-yamasaki.com/" }, "geometry": { "type": "Point", "coordinates": [ 133.9697683, 34.6538516 ] } },
{ "type": "Feature", "properties": { "内容": "小規模多機能型居宅介護　いこいの里【小規模多機能型居宅介護】岡山市中区衹園541-1", "url": "https://www.kaigokensaku.mhlw.go.jp/33/index.php?action_kouhyou_detail_004_kani=true&JigyosyoCd=3390101180-00&ServiceCd=730&Type=search", "url2": "http://ww3.tiki.ne.jp/~kksugahara/" }, "geometry": { "type": "Point", "coordinates": [ 133.955544783558679, 34.698081065239386 ] } },
{ "type": "Feature", "properties": { "内容": "小規模多機能　ケアホステル・ナイスデイ【小規模多機能型居宅介護】岡山県岡山市東区東平島321－2", "url": "https://www.kaigokensaku.mhlw.go.jp/33/index.php?action_kouhyou_detail_004_kani=true&JigyosyoCd=3390101131-00&ServiceCd=730&Type=search", "url2": null }, "geometry": { "type": "Point", "coordinates": [ 134.054701678356878, 34.709867045232919 ] } },
{ "type": "Feature", "properties": { "内容": "小規模多機能型居宅介護かぜの苑【小規模多機能型居宅介護】岡山市東区金岡東町２丁目５－１１", "url": "https://www.kaigokensaku.mhlw.go.jp/33/index.php?action_kouhyou_detail_004_kani=true&JigyosyoCd=3390101354-00&ServiceCd=730&Type=search", "url2": "http://t-hananoen.com/" }, "geometry": { "type": "Point", "coordinates": [ 134.028880776721167, 34.640212059475211 ] } },
{ "type": "Feature", "properties": { "内容": "ハートフル多聞　小規模多機能型居宅介護【小規模多機能型居宅介護】岡山県岡山市東区瀬戸町瀬戸33ハートフル多聞", "url": "https://www.kaigokensaku.mhlw.go.jp/33/index.php?action_kouhyou_detail_004_kani=true&JigyosyoCd=3390101768-00&ServiceCd=730&Type=search", "url2": "http://www.tensetsukai.or.jp/" }, "geometry": { "type": "Point", "coordinates": [ 134.039172399999984, 34.7364932 ] } },
{ "type": "Feature", "properties": { "内容": "ライフサポートあらた【小規模多機能型居宅介護】岡山市東区西大寺中1丁目1番15番", "url": "https://www.kaigokensaku.mhlw.go.jp/33/index.php?action_kouhyou_detail_004_kani=true&JigyosyoCd=3390102865-00&ServiceCd=730&Type=search", "url2": "http://life-support.ne.jp/" }, "geometry": { "type": "Point", "coordinates": [ 134.031965, 34.6533415 ] } },
{ "type": "Feature", "properties": { "内容": "小規模多機能型居宅介護　穂香の里【小規模多機能型居宅介護】岡山県岡山市東区豊田300－１", "url": "https://www.kaigokensaku.mhlw.go.jp/33/index.php?action_kouhyou_detail_004_kani=true&JigyosyoCd=3390100570-00&ServiceCd=730&Type=search", "url2": "chuo-fukushikai" }, "geometry": { "type": "Point", "coordinates": [ 134.016244, 34.6152727 ] } },
{ "type": "Feature", "properties": { "内容": "小規模多機能　マナの木【小規模多機能型居宅介護】岡山県岡山市東区神崎町１０２－２ケアビレッジマナの木", "url": "https://www.kaigokensaku.mhlw.go.jp/33/index.php?action_kouhyou_detail_004_kani=true&JigyosyoCd=3390100836-00&ServiceCd=730&Type=search", "url2": "http://ishii-naika-clinic.com/" }, "geometry": { "type": "Point", "coordinates": [ 134.058968599999957, 34.6271399 ] } },
{ "type": "Feature", "properties": { "内容": "小規模多機能ホームみえさんちの家【小規模多機能型居宅介護】岡山市東区瀬戸町江尻１１７８－２", "url": "https://www.kaigokensaku.mhlw.go.jp/33/index.php?action_kouhyou_detail_004_kani=true&JigyosyoCd=3390101057-00&ServiceCd=730&Type=search", "url2": "https://miesanchi.com" }, "geometry": { "type": "Point", "coordinates": [ 134.04400290000001, 34.724954900000029 ] } },
{ "type": "Feature", "properties": { "内容": "ケアホステル・ナイスデイ別館【小規模多機能型居宅介護】岡山県岡山市東区東平島323-1", "url": "https://www.kaigokensaku.mhlw.go.jp/33/index.php?action_kouhyou_detail_004_kani=true&JigyosyoCd=3390101875-00&ServiceCd=730&Type=search", "url2": null }, "geometry": { "type": "Point", "coordinates": [ 134.054454915127508, 34.709911143204941 ] } },
{ "type": "Feature", "properties": { "内容": "小規模多機能ホームせとうちの郷【小規模多機能型居宅介護】岡山県岡山市東区西大寺北966", "url": "https://www.kaigokensaku.mhlw.go.jp/33/index.php?action_kouhyou_detail_004_kani=true&JigyosyoCd=3390101891-00&ServiceCd=730&Type=search", "url2": "http://www.tohkakai.jp/" }, "geometry": { "type": "Point", "coordinates": [ 134.039824729638667, 34.663016032973765 ] } },
{ "type": "Feature", "properties": { "内容": "藤田荘小規模多機能型居宅介護事業所【小規模多機能型居宅介護】岡山市南区藤田2662-2", "url": "https://www.kaigokensaku.mhlw.go.jp/33/index.php?action_kouhyou_detail_004_kani=true&JigyosyoCd=3390100323-00&ServiceCd=730&Type=search", "url2": "http://fujitaso.syoyokai.com" }, "geometry": { "type": "Point", "coordinates": [ 133.868575600000014, 34.5615406 ] } },
{ "type": "Feature", "properties": { "内容": "小規模多機能型居宅介護こうなんだい【小規模多機能型居宅介護】岡山県岡山市南区北浦714", "url": "https://www.kaigokensaku.mhlw.go.jp/33/index.php?action_kouhyou_detail_004_kani=true&JigyosyoCd=3390100430-00&ServiceCd=730&Type=search", "url2": null }, "geometry": { "type": "Point", "coordinates": [ 133.968666100000064, 34.5872996 ] } },
{ "type": "Feature", "properties": { "内容": "サンキ・ウエルビィ小規模多機能センター新保【小規模多機能型居宅介護】岡山県岡山市南区新保681-3", "url": "https://www.kaigokensaku.mhlw.go.jp/33/index.php?action_kouhyou_detail_004_kani=true&JigyosyoCd=3390100604-00&ServiceCd=730&Type=search", "url2": null }, "geometry": { "type": "Point", "coordinates": [ 133.909375899999986, 34.629565 ] } },
{ "type": "Feature", "properties": { "内容": "小規模多機能ホーム　みんなの家　かるがも【小規模多機能型居宅介護】岡山市南区浦安本町１５８番地", "url": "https://www.kaigokensaku.mhlw.go.jp/33/index.php?action_kouhyou_detail_004_kani=true&JigyosyoCd=3390100844-00&ServiceCd=730&Type=search", "url2": "http://k.minnanoie.org/" }, "geometry": { "type": "Point", "coordinates": [ 133.926140799999985, 34.6029354 ] } },
{ "type": "Feature", "properties": { "内容": "小規模多機能ホームあずみ【小規模多機能型居宅介護】岡山市南区中畦443-4", "url": "https://www.kaigokensaku.mhlw.go.jp/33/index.php?action_kouhyou_detail_004_kani=true&JigyosyoCd=3390101206-00&ServiceCd=730&Type=search", "url2": "https://meiseikai-azumi.jp" }, "geometry": { "type": "Point", "coordinates": [ 133.854349140475506, 34.579951815910185 ] } },
{ "type": "Feature", "properties": { "内容": "ライフケア　らくらく荘【小規模多機能型居宅介護】岡山市南区彦崎2815", "url": "https://www.kaigokensaku.mhlw.go.jp/33/index.php?action_kouhyou_detail_004_kani=true&JigyosyoCd=3390101404-00&ServiceCd=730&Type=search", "url2": "https://ikedaiin.or.jp" }, "geometry": { "type": "Point", "coordinates": [ 133.838159242991651, 34.552078054238848 ] } },
{ "type": "Feature", "properties": { "内容": "小規模多機能ホームあゆむ【小規模多機能型居宅介護】岡山県岡山市南区福成3丁目2－1", "url": "https://www.kaigokensaku.mhlw.go.jp/33/index.php?action_kouhyou_detail_004_kani=true&JigyosyoCd=3390101438-00&ServiceCd=730&Type=search", "url2": "http://www.ayumu-service.com" }, "geometry": { "type": "Point", "coordinates": [ 133.9365398, 34.6150981 ] } },
{ "type": "Feature", "properties": { "内容": "ヴィライフ岡南ケアサポートセンター【小規模多機能型居宅介護】岡山県岡山市南区築港栄町19-2", "url": "https://www.kaigokensaku.mhlw.go.jp/33/index.php?action_kouhyou_detail_004_kani=true&JigyosyoCd=3390101685-00&ServiceCd=730&Type=search", "url2": "https://www.ohkita.co.jp/" }, "geometry": { "type": "Point", "coordinates": [ 133.942821073908931, 34.606236395892843 ] } },
{ "type": "Feature", "properties": { "内容": "小規模多機能ホーム　あずき【小規模多機能型居宅介護】岡山県岡山市南区芳泉2丁目2-65", "url": "https://www.kaigokensaku.mhlw.go.jp/33/index.php?action_kouhyou_detail_004_kani=true&JigyosyoCd=3390101750-00&ServiceCd=730&Type=search", "url2": "ｈｔｔｐ：//ｗｗｗ.21ｃａｒｅ.ｃｏ.ｊｐ" }, "geometry": { "type": "Point", "coordinates": [ 133.9195135, 34.6212915 ] } },
{ "type": "Feature", "properties": { "内容": "小規模多機能ホームあゆむ和の家【小規模多機能型居宅介護】岡山県岡山市南区福田98-4", "url": "https://www.kaigokensaku.mhlw.go.jp/33/index.php?action_kouhyou_detail_004_kani=true&JigyosyoCd=3390101826-00&ServiceCd=730&Type=search", "url2": "http://www.ayumu-service.com" }, "geometry": { "type": "Point", "coordinates": [ 133.92889880000007, 34.6172643 ] } },
{ "type": "Feature", "properties": { "内容": "小規模多機能ホームあゆむ　喜の家【小規模多機能型居宅介護】岡山県岡山市南区福田164-9", "url": "https://www.kaigokensaku.mhlw.go.jp/33/index.php?action_kouhyou_detail_004_kani=true&JigyosyoCd=3390101958-00&ServiceCd=730&Type=search", "url2": "http://www.ayumu-service.com" }, "geometry": { "type": "Point", "coordinates": [ 133.926742986309279, 34.615914083728391 ] } },
{ "type": "Feature", "properties": { "内容": "小規模多機能型居宅介護　古新田げんき【小規模多機能型居宅介護】古新田796番地1", "url": "https://www.kaigokensaku.mhlw.go.jp/33/index.php?action_kouhyou_detail_004_kani=true&JigyosyoCd=3390102287-00&ServiceCd=730&Type=search", "url2": "http://okayama-kotobuki.sakura.ne.jp/" }, "geometry": { "type": "Point", "coordinates": [ 133.876804, 34.630316 ] } },
{ "type": "Feature", "properties": { "内容": "小規模多機能ホームあにまあと【小規模多機能型居宅介護】岡山県岡山市南区浦安南町73-17", "url": "https://www.kaigokensaku.mhlw.go.jp/33/index.php?action_kouhyou_detail_004_kani=true&JigyosyoCd=3390102477-00&ServiceCd=730&Type=search", "url2": null }, "geometry": { "type": "Point", "coordinates": [ 133.921963654631099, 34.591699060900254 ] } },
{ "type": "Feature", "properties": { "内容": "小規模多機能きらり妹尾【小規模多機能型居宅介護】東畦169-3", "url": "https://www.kaigokensaku.mhlw.go.jp/33/index.php?action_kouhyou_detail_004_kani=true&JigyosyoCd=3390102386-00&ServiceCd=730&Type=search", "url2": "http://blossom-kirari.com" }, "geometry": { "type": "Point", "coordinates": [ 133.874033007023655, 34.609697577991575 ] } },
{ "type": "Feature", "properties": { "内容": "小規模多機能きらり東畦【小規模多機能型居宅介護】岡山県岡山市南区東畦169番地", "url": "https://www.kaigokensaku.mhlw.go.jp/33/index.php?action_kouhyou_detail_004_kani=true&JigyosyoCd=3390102733-00&ServiceCd=730&Type=search", "url2": "https://blossom-kirari.com" }, "geometry": { "type": "Point", "coordinates": [ 133.8738328, 34.609823200000022 ] } },
{ "type": "Feature", "properties": { "内容": "小規模多機能型居宅介護　けやき【小規模多機能型居宅介護】岡山県岡山市南区築港元町2-31", "url": "https://www.kaigokensaku.mhlw.go.jp/33/index.php?action_kouhyou_detail_004_kani=true&JigyosyoCd=3390100687-00&ServiceCd=730&Type=search", "url2": "https://www.sato-hp.com" }, "geometry": { "type": "Point", "coordinates": [ 133.9491531, 34.6075161 ] } },
{ "type": "Feature", "properties": { "内容": "小規模多機能サービス　もくもく【小規模多機能型居宅介護】岡山県倉敷市沖新町63-7", "url": "https://www.kaigokensaku.mhlw.go.jp/33/index.php?action_kouhyou_detail_004_kani=true&JigyosyoCd=3390201493-00&ServiceCd=730&Type=search", "url2": "http://www.yotsubakai.or.jp" }, "geometry": { "type": "Point", "coordinates": [ 133.75512859087678, 34.582583288188196 ] } },
{ "type": "Feature", "properties": { "内容": "小規模多機能型居宅介護事業所　茶屋町の郷【小規模多機能型居宅介護】岡山県倉敷市茶屋町303－7", "url": "https://www.kaigokensaku.mhlw.go.jp/33/index.php?action_kouhyou_detail_004_kani=true&JigyosyoCd=3390200800-00&ServiceCd=730&Type=search", "url2": null }, "geometry": { "type": "Point", "coordinates": [ 133.8208246858444, 34.573845046670769 ] } },
{ "type": "Feature", "properties": { "内容": "小規模多機能ホーム庄の里「つどいの家」【小規模多機能型居宅介護】岡山県倉敷市上東822-7", "url": "https://www.kaigokensaku.mhlw.go.jp/33/index.php?action_kouhyou_detail_004_kani=true&JigyosyoCd=3390200768-00&ServiceCd=730&Type=search", "url2": "http://www.syounosato.or.jp/" }, "geometry": { "type": "Point", "coordinates": [ 133.824130858088637, 34.642929866250803 ] } },
{ "type": "Feature", "properties": { "内容": "小規模多機能　穂の香【小規模多機能型居宅介護】岡山県倉敷市矢部644-1", "url": "https://www.kaigokensaku.mhlw.go.jp/33/index.php?action_kouhyou_detail_004_kani=true&JigyosyoCd=3390201477-00&ServiceCd=730&Type=search", "url2": "https://kurashiki-honoka.com/" }, "geometry": { "type": "Point", "coordinates": [ 133.820826400169352, 34.66421545630017 ] } },
{ "type": "Feature", "properties": { "内容": "小規模多機能サービス　げんきむら【小規模多機能型居宅介護】岡山県倉敷市中庄2960-1", "url": "https://www.kaigokensaku.mhlw.go.jp/33/index.php?action_kouhyou_detail_004_kani=true&JigyosyoCd=3390200271-00&ServiceCd=730&Type=search", "url2": "www.yotsubakai.or.jp" }, "geometry": { "type": "Point", "coordinates": [ 133.8012119, 34.6171496 ] } },
{ "type": "Feature", "properties": { "内容": "小規模多機能型居宅介護事業所　ももたろう【小規模多機能型居宅介護】岡山県倉敷市船穂町船穂974-1", "url": "https://www.kaigokensaku.mhlw.go.jp/33/index.php?action_kouhyou_detail_004_kani=true&JigyosyoCd=3390200669-00&ServiceCd=730&Type=search", "url2": "http://www.nakagiri.co.jp" }, "geometry": { "type": "Point", "coordinates": [ 133.696772199999941, 34.5662679 ] } },
{ "type": "Feature", "properties": { "内容": "社会福祉法人四ツ葉会　小規模多機能サービスげんきむらサテライト【小規模多機能型居宅介護】岡山県倉敷市中庄2881-15げんきむらサテライト", "url": "https://www.kaigokensaku.mhlw.go.jp/33/index.php?action_kouhyou_detail_004_kani=true&JigyosyoCd=3390201345-00&ServiceCd=730&Type=search", "url2": "www.yotsubakai.or.jp" }, "geometry": { "type": "Point", "coordinates": [ 133.800470300000029, 34.6163191 ] } },
{ "type": "Feature", "properties": { "内容": "小規模多機能型居宅介護事業事業所「桃の花」サテライト【小規模多機能型居宅介護】岡山県倉敷市玉島道口4428-1", "url": "https://www.kaigokensaku.mhlw.go.jp/33/index.php?action_kouhyou_detail_004_kani=true&JigyosyoCd=3390201428-00&ServiceCd=730&Type=search", "url2": "http://www.tomicare.com" }, "geometry": { "type": "Point", "coordinates": [ 133.645863500000019, 34.5732759 ] } },
{ "type": "Feature", "properties": { "内容": "ケアポート生き活き館倉敷【小規模多機能型居宅介護】岡山県倉敷市林586サンパレス倉敷4号棟107号室", "url": "https://www.kaigokensaku.mhlw.go.jp/33/index.php?action_kouhyou_detail_004_kani=true&JigyosyoCd=3390200214-00&ServiceCd=730&Type=search", "url2": "http://kokoro-net.org" }, "geometry": { "type": "Point", "coordinates": [ 133.813033437434314, 34.536157583179545 ] } },
{ "type": "Feature", "properties": { "内容": "共生型小規模多機能ホームohanaサテライト上成【小規模多機能型居宅介護】玉島上成652-4", "url": "https://www.kaigokensaku.mhlw.go.jp/33/index.php?action_kouhyou_detail_004_kani=true&JigyosyoCd=3390201998-00&ServiceCd=730&Type=search", "url2": "https://www.tomicare.com/data/831/facility_detail/" }, "geometry": { "type": "Point", "coordinates": [ 133.691651417790951, 34.562233597103202 ] } },
{ "type": "Feature", "properties": { "内容": "小規模多機能型居宅介護施設　倉敷・楽々苑【小規模多機能型居宅介護】西岡1150-5", "url": "https://www.kaigokensaku.mhlw.go.jp/33/index.php?action_kouhyou_detail_004_kani=true&JigyosyoCd=3390200909-00&ServiceCd=730&Type=search", "url2": "http://www.ykbs-group.jp/" }, "geometry": { "type": "Point", "coordinates": [ 133.7714262, 34.6158107 ] } },
{ "type": "Feature", "properties": { "内容": "サンキ・ウエルビィ小規模多機能センター児島【小規模多機能型居宅介護】岡山県倉敷市児島味野四丁目2番52号", "url": "https://www.kaigokensaku.mhlw.go.jp/33/index.php?action_kouhyou_detail_004_kani=true&JigyosyoCd=3390200321-00&ServiceCd=730&Type=search", "url2": null }, "geometry": { "type": "Point", "coordinates": [ 133.800818, 34.463292 ] } },
{ "type": "Feature", "properties": { "内容": "小規模多機能ホームきらり【小規模多機能型居宅介護】岡山県倉敷市中島1796-3", "url": "https://www.kaigokensaku.mhlw.go.jp/33/index.php?action_kouhyou_detail_004_kani=true&JigyosyoCd=3390201196-00&ServiceCd=730&Type=search", "url2": "http://terrass.jp/" }, "geometry": { "type": "Point", "coordinates": [ 133.734965099999954, 34.5724118 ] } },
{ "type": "Feature", "properties": { "内容": "小規模多機能型居宅介護事業所「桃の花」【小規模多機能型居宅介護】倉敷市玉島道口２７５２－１", "url": "https://www.kaigokensaku.mhlw.go.jp/33/index.php?action_kouhyou_detail_004_kani=true&JigyosyoCd=3390200511-00&ServiceCd=730&Type=search", "url2": "http://www.tomicare.com" }, "geometry": { "type": "Point", "coordinates": [ 133.651182400000039, 34.5666791 ] } },
{ "type": "Feature", "properties": { "内容": "小規模多機能ホームみどりのけあ　鶴の浦【小規模多機能型居宅介護】岡山県倉敷市鶴の浦3丁目2番67号", "url": "https://www.kaigokensaku.mhlw.go.jp/33/index.php?action_kouhyou_detail_004_kani=true&JigyosyoCd=3390200974-00&ServiceCd=730&Type=search", "url2": "http://kunpoo.jp" }, "geometry": { "type": "Point", "coordinates": [ 133.707907299999988, 34.5475196 ] } },
{ "type": "Feature", "properties": { "内容": "小規模多機能型居宅介護　ふなお【小規模多機能型居宅介護】岡山県倉敷市船穂町船穂2846-1", "url": "https://www.kaigokensaku.mhlw.go.jp/33/index.php?action_kouhyou_detail_004_kani=true&JigyosyoCd=3390201634-00&ServiceCd=730&Type=search", "url2": "http://care-one.moo.jp/" }, "geometry": { "type": "Point", "coordinates": [ 133.709171700000013, 34.5876512 ] } },
{ "type": "Feature", "properties": { "内容": "小規模多機能ホーム　玉北ひかりの里【小規模多機能型居宅介護】岡山県倉敷市玉島八島70番地1", "url": "https://www.kaigokensaku.mhlw.go.jp/33/index.php?action_kouhyou_detail_004_kani=true&JigyosyoCd=3390201378-00&ServiceCd=730&Type=search", "url2": "http://www.onkochishinkai.or.jp/" }, "geometry": { "type": "Point", "coordinates": [ 133.663806199999954, 34.557299199999989 ] } },
{ "type": "Feature", "properties": { "内容": "十王堂おうじ【小規模多機能型居宅介護】児島田の口７丁目６番３７号", "url": "https://www.kaigokensaku.mhlw.go.jp/33/index.php?action_kouhyou_detail_004_kani=true&JigyosyoCd=3390200776-00&ServiceCd=730&Type=search", "url2": "https://www.ohji.ne.jp" }, "geometry": { "type": "Point", "coordinates": [ 133.839307475393639, 34.471886711364405 ] } },
{ "type": "Feature", "properties": { "内容": "小規模多機能ホームみどりのけあ連島【小規模多機能型居宅介護】岡山県倉敷市連島１丁目１番１５号つらじま総合福祉センター", "url": "https://www.kaigokensaku.mhlw.go.jp/33/index.php?action_kouhyou_detail_004_kani=true&JigyosyoCd=3390200750-00&ServiceCd=730&Type=search", "url2": "http://www.kunpoo.jp/" }, "geometry": { "type": "Point", "coordinates": [ 133.738257400000066, 34.5432842 ] } },
{ "type": "Feature", "properties": { "内容": "シーサイドリビング勇崎【小規模多機能型居宅介護】倉敷市玉島勇崎1263", "url": "https://www.kaigokensaku.mhlw.go.jp/33/index.php?action_kouhyou_detail_004_kani=true&JigyosyoCd=3390200388-00&ServiceCd=730&Type=search", "url2": "http://care-net.biz/33/seeside-sami/" }, "geometry": { "type": "Point", "coordinates": [ 133.6543828, 34.5166341 ] } },
{ "type": "Feature", "properties": { "内容": "小規模多機能ホームさんらいふ下庄【小規模多機能型居宅介護】岡山県倉敷市下庄715-2", "url": "https://www.kaigokensaku.mhlw.go.jp/33/index.php?action_kouhyou_detail_004_kani=true&JigyosyoCd=3390201337-00&ServiceCd=730&Type=search", "url2": "https://suiseikai-group.jp/heiseikai/" }, "geometry": { "type": "Point", "coordinates": [ 133.826424699999961, 34.6369032 ] } },
{ "type": "Feature", "properties": { "内容": "多機能ホーム　ぽっぽ【小規模多機能型居宅介護】岡山県倉敷市水島西栄町５－２２", "url": "https://www.kaigokensaku.mhlw.go.jp/33/index.php?action_kouhyou_detail_004_kani=true&JigyosyoCd=3390201386-00&ServiceCd=730&Type=search", "url2": null }, "geometry": { "type": "Point", "coordinates": [ 133.742193300000054, 34.5373738 ] } },
{ "type": "Feature", "properties": { "内容": "小規模多機能型居宅介護事業所　おとしま【小規模多機能型居宅介護】岡山県倉敷市玉島２－２４－２８", "url": "https://www.kaigokensaku.mhlw.go.jp/33/index.php?action_kouhyou_detail_004_kani=true&JigyosyoCd=3390200206-00&ServiceCd=730&Type=search", "url2": "http://www.tamashimahosp.or.jp" }, "geometry": { "type": "Point", "coordinates": [ 133.677127199999973, 34.5427617 ] } },
{ "type": "Feature", "properties": { "内容": "小規模多機能ホーム　みどりのけあ水島【小規模多機能型居宅介護】岡山県倉敷市水島北幸町4番5号", "url": "https://www.kaigokensaku.mhlw.go.jp/33/index.php?action_kouhyou_detail_004_kani=true&JigyosyoCd=3390200966-00&ServiceCd=730&Type=search", "url2": "https://suiseikai-group.jp/kunpukai/" }, "geometry": { "type": "Point", "coordinates": [ 133.73960169999998, 34.5412761 ] } },
{ "type": "Feature", "properties": { "内容": "シーサイドリビング沙美西【小規模多機能型居宅介護】倉敷市玉島黒崎6592-24", "url": "https://www.kaigokensaku.mhlw.go.jp/33/index.php?action_kouhyou_detail_004_kani=true&JigyosyoCd=3390200784-00&ServiceCd=730&Type=search", "url2": "http://suiseikai-grop.jp" }, "geometry": { "type": "Point", "coordinates": [ 133.629494099999988, 34.5032031 ] } },
{ "type": "Feature", "properties": { "内容": "（医）河合会小規模多機能型居宅介護あいの泉【小規模多機能型居宅介護】岡山県倉敷市玉島1719", "url": "https://www.kaigokensaku.mhlw.go.jp/33/index.php?action_kouhyou_detail_004_kani=true&JigyosyoCd=3390200032-00&ServiceCd=730&Type=search", "url2": "info@sinkra-hsp.com" }, "geometry": { "type": "Point", "coordinates": [ 133.681287800000064, 34.5543884 ] } },
{ "type": "Feature", "properties": { "内容": "小規模多機能　和【小規模多機能型居宅介護】倉敷市中島８４８－３", "url": "https://www.kaigokensaku.mhlw.go.jp/33/index.php?action_kouhyou_detail_004_kani=true&JigyosyoCd=3390200743-00&ServiceCd=730&Type=search", "url2": "nagomi@seiwakai-net.or.jp" }, "geometry": { "type": "Point", "coordinates": [ 133.739251679762191, 34.578113294961106 ] } },
{ "type": "Feature", "properties": { "内容": "小規模多機能ホーム　こはる日和【小規模多機能型居宅介護】岡山県倉敷市玉島柏島920-14", "url": "https://www.kaigokensaku.mhlw.go.jp/33/index.php?action_kouhyou_detail_004_kani=true&JigyosyoCd=3390201014-00&ServiceCd=730&Type=search", "url2": "https://www.inada-iin.com/" }, "geometry": { "type": "Point", "coordinates": [ 133.66389583743441, 34.53370683112022 ] } },
{ "type": "Feature", "properties": { "内容": "やすらぎの家児島駅前【小規模多機能型居宅介護】児島駅前４丁目５３番", "url": "https://www.kaigokensaku.mhlw.go.jp/33/index.php?action_kouhyou_detail_004_kani=true&JigyosyoCd=3390200883-00&ServiceCd=730&Type=search", "url2": "http://ｗｗｗ.shiokaze-group.jp" }, "geometry": { "type": "Point", "coordinates": [ 133.805476, 34.4613534 ] } },
{ "type": "Feature", "properties": { "内容": "小規模多機能ホームみどりのけあ　東塚【小規模多機能型居宅介護】東塚1-12-3", "url": "https://www.kaigokensaku.mhlw.go.jp/33/index.php?action_kouhyou_detail_004_kani=true&JigyosyoCd=3390201642-00&ServiceCd=730&Type=search", "url2": "http://kunpoo.ne.jp" }, "geometry": { "type": "Point", "coordinates": [ 133.7645287, 34.5279139 ] } },
{ "type": "Feature", "properties": { "内容": "小規模多機能型居宅介護事業所　ひかりの里【小規模多機能型居宅介護】岡山県倉敷市玉島八島262-3", "url": "https://www.kaigokensaku.mhlw.go.jp/33/index.php?action_kouhyou_detail_004_kani=true&JigyosyoCd=3390200016-00&ServiceCd=730&Type=search", "url2": "http://www.hikarinosato.co.jp" }, "geometry": { "type": "Point", "coordinates": [ 133.665925499999958, 34.5523858 ] } },
{ "type": "Feature", "properties": { "内容": "小規模多機能ホーム　だんらん【小規模多機能型居宅介護】倉敷市上の町4‐1‐56", "url": "https://www.kaigokensaku.mhlw.go.jp/33/index.php?action_kouhyou_detail_004_kani=true&JigyosyoCd=3390200842-00&ServiceCd=730&Type=search", "url2": "http://danran-syoutaki.com" }, "geometry": { "type": "Point", "coordinates": [ 133.819541100000038, 34.4837453 ] } },
{ "type": "Feature", "properties": { "内容": "共生型小規模多機能ホームohana【小規模多機能型居宅介護】岡山県倉敷市玉島乙島7183-1", "url": "https://www.kaigokensaku.mhlw.go.jp/33/index.php?action_kouhyou_detail_004_kani=true&JigyosyoCd=3390201881-00&ServiceCd=730&Type=search", "url2": "https://www.tomicare.com/data/552/facility_detail/" }, "geometry": { "type": "Point", "coordinates": [ 133.6806995, 34.5316693 ] } },
{ "type": "Feature", "properties": { "内容": "共生型小規模多機能ホームohanaサテライト勇崎【小規模多機能型居宅介護】岡山県倉敷市玉島勇崎6-1", "url": "https://www.kaigokensaku.mhlw.go.jp/33/index.php?action_kouhyou_detail_004_kani=true&JigyosyoCd=3390202095-00&ServiceCd=730&Type=search", "url2": "https://www.tomicare.com/data/1314/facility_detail/" }, "geometry": { "type": "Point", "coordinates": [ 133.642062900000013, 34.5370202 ] } },
{ "type": "Feature", "properties": { "内容": "小規模多機能ホームぶどうの家【小規模多機能型居宅介護】岡山県倉敷市船穂町船穂1707-1", "url": "https://www.kaigokensaku.mhlw.go.jp/33/index.php?action_kouhyou_detail_004_kani=true&JigyosyoCd=3390200099-00&ServiceCd=730&Type=search", "url2": "https://www.budounoie.co.jp/" }, "geometry": { "type": "Point", "coordinates": [ 133.709475699999984, 34.5851467 ] } },
{ "type": "Feature", "properties": { "内容": "小規模多機能ホームぶどうの家真備サテライト【小規模多機能型居宅介護】岡山県倉敷市真備町箭田1860", "url": "https://www.kaigokensaku.mhlw.go.jp/33/index.php?action_kouhyou_detail_004_kani=true&JigyosyoCd=3390202053-00&ServiceCd=730&Type=search", "url2": "https://www.budounoie.co.jp/" }, "geometry": { "type": "Point", "coordinates": [ 133.688621500000011, 34.6301674 ] } },
{ "type": "Feature", "properties": { "内容": "絆の家すみれ【小規模多機能型居宅介護】岡山県倉敷市連島町鶴新田499-3", "url": "https://www.kaigokensaku.mhlw.go.jp/33/index.php?action_kouhyou_detail_004_kani=true&JigyosyoCd=3390200677-00&ServiceCd=730&Type=search", "url2": null }, "geometry": { "type": "Point", "coordinates": [ 133.711522204278481, 34.538940332348766 ] } },
{ "type": "Feature", "properties": { "内容": "笑いの家すみれ【小規模多機能型居宅介護】二日市470番地1", "url": "https://www.kaigokensaku.mhlw.go.jp/33/index.php?action_kouhyou_detail_004_kani=true&JigyosyoCd=3390200446-00&ServiceCd=730&Type=search", "url2": null }, "geometry": { "type": "Point", "coordinates": [ 133.791793900000016, 34.5874466 ] } },
{ "type": "Feature", "properties": { "内容": "ケアポート　生き活き館　津山【小規模多機能型居宅介護】岡山県津山市大谷６１１－２", "url": "https://www.kaigokensaku.mhlw.go.jp/33/index.php?action_kouhyou_detail_004_kani=true&JigyosyoCd=3390300071-00&ServiceCd=730&Type=search", "url2": "http://kokoro-net.org" }, "geometry": { "type": "Point", "coordinates": [ 133.993088700000044, 35.0543471 ] } },
{ "type": "Feature", "properties": { "内容": "日向の家【小規模多機能型居宅介護】岡山県津山市桑下１３２４－１", "url": "https://www.kaigokensaku.mhlw.go.jp/33/index.php?action_kouhyou_detail_004_kani=true&JigyosyoCd=3390300089-00&ServiceCd=730&Type=search", "url2": null }, "geometry": { "type": "Point", "coordinates": [ 133.920011700000032, 35.0270347 ] } },
{ "type": "Feature", "properties": { "内容": "サンキ・ウエルビィ小規模多機能センター大崎【小規模多機能型居宅介護】岡山県津山市中原37-1", "url": "https://www.kaigokensaku.mhlw.go.jp/33/index.php?action_kouhyou_detail_004_kani=true&JigyosyoCd=3390300154-00&ServiceCd=730&Type=search", "url2": null }, "geometry": { "type": "Point", "coordinates": [ 134.067428699999937, 35.0429808 ] } },
{ "type": "Feature", "properties": { "内容": "多機能型介護ホームコスモス【小規模多機能型居宅介護】岡山県津山市上河原５１３－１", "url": "https://www.kaigokensaku.mhlw.go.jp/33/index.php?action_kouhyou_detail_004_kani=true&JigyosyoCd=3390300055-00&ServiceCd=730&Type=search", "url2": "cosmos-tsuyama.com" }, "geometry": { "type": "Point", "coordinates": [ 134.001503400000047, 35.0895075 ] } },
{ "type": "Feature", "properties": { "内容": "あかるい農村つやま【小規模多機能型居宅介護】岡山県津山市日本原３５３－１", "url": "https://www.kaigokensaku.mhlw.go.jp/33/index.php?action_kouhyou_detail_004_kani=true&JigyosyoCd=3390300162-00&ServiceCd=730&Type=search", "url2": "https://smc-seifukai.or.jp/office/farm/" }, "geometry": { "type": "Point", "coordinates": [ 134.132618632255316, 35.111453520084098 ] } },
{ "type": "Feature", "properties": { "内容": "小規模ホームのどか【小規模多機能型居宅介護】岡山県津山市神戸２６２－１", "url": "https://www.kaigokensaku.mhlw.go.jp/33/index.php?action_kouhyou_detail_004_kani=true&JigyosyoCd=3390300097-00&ServiceCd=730&Type=search", "url2": null }, "geometry": { "type": "Point", "coordinates": [ 133.9451262, 35.0571874 ] } },
{ "type": "Feature", "properties": { "内容": "小規模多機能ホーム　ふるさと【小規模多機能型居宅介護】梶岡７７７-１", "url": "https://www.kaigokensaku.mhlw.go.jp/33/index.php?action_kouhyou_detail_004_kani=true&JigyosyoCd=3390400228-00&ServiceCd=730&Type=search", "url2": null }, "geometry": { "type": "Point", "coordinates": [ 134.002880399999981, 34.5551212 ] } },
{ "type": "Feature", "properties": { "内容": "小規模多機能ホーム　ひなたぼっこ玉【小規模多機能型居宅介護】岡山県玉野市奥玉2丁目20番10号", "url": "https://www.kaigokensaku.mhlw.go.jp/33/index.php?action_kouhyou_detail_004_kani=true&JigyosyoCd=3390400327-00&ServiceCd=730&Type=search", "url2": null }, "geometry": { "type": "Point", "coordinates": [ 133.9205385, 34.4863935 ] } },
{ "type": "Feature", "properties": { "内容": "小規模多機能ホーム　夢【小規模多機能型居宅介護】岡山県玉野市山田468-1", "url": "https://www.kaigokensaku.mhlw.go.jp/33/index.php?action_kouhyou_detail_004_kani=true&JigyosyoCd=3390400103-00&ServiceCd=730&Type=search", "url2": "https://yume-shinseikai.or.jp" }, "geometry": { "type": "Point", "coordinates": [ 133.988862700000027, 34.5472384 ] } },
{ "type": "Feature", "properties": { "内容": "こもれ陽の家けやき【小規模多機能型居宅介護】岡山県玉野市築港一丁目１番２１号", "url": "https://www.kaigokensaku.mhlw.go.jp/33/index.php?action_kouhyou_detail_004_kani=true&JigyosyoCd=3390400111-00&ServiceCd=730&Type=search", "url2": "http://www.fenix-tai.co.jp" }, "geometry": { "type": "Point", "coordinates": [ 133.952681100000063, 34.4997568 ] } },
{ "type": "Feature", "properties": { "内容": "小規模多機能ホーム　アガペ【小規模多機能型居宅介護】岡山県玉野市長尾420-3", "url": "https://www.kaigokensaku.mhlw.go.jp/33/index.php?action_kouhyou_detail_004_kani=true&JigyosyoCd=3390400186-00&ServiceCd=730&Type=search", "url2": "http://agape-wanoka.com/" }, "geometry": { "type": "Point", "coordinates": [ 133.8919634, 34.4938925 ] } },
{ "type": "Feature", "properties": { "内容": "小規模多機能ホームアガペ　テラス【小規模多機能型居宅介護】岡山県玉野市八浜町波知23-1", "url": "https://www.kaigokensaku.mhlw.go.jp/33/index.php?action_kouhyou_detail_004_kani=true&JigyosyoCd=3390400251-00&ServiceCd=730&Type=search", "url2": "http://agape-wanoka.com" }, "geometry": { "type": "Point", "coordinates": [ 133.946950844829871, 34.553387995472342 ] } },
{ "type": "Feature", "properties": { "内容": "小規模多機能型ケアセンターほのか【小規模多機能型居宅介護】岡山県玉野市羽根崎町2-10", "url": "https://www.kaigokensaku.mhlw.go.jp/33/index.php?action_kouhyou_detail_004_kani=true&JigyosyoCd=3390400269-00&ServiceCd=730&Type=search", "url2": "https://honoka-hc.co.jp" }, "geometry": { "type": "Point", "coordinates": [ 133.925269100000037, 34.4604014 ] } },
{ "type": "Feature", "properties": { "内容": "小規模多機能型居宅介護　心結【小規模多機能型居宅介護】岡山県玉野市東高崎25-247", "url": "https://www.kaigokensaku.mhlw.go.jp/33/index.php?action_kouhyou_detail_004_kani=true&JigyosyoCd=3390400293-00&ServiceCd=730&Type=search", "url2": "https://www.rcare.jp/" }, "geometry": { "type": "Point", "coordinates": [ 133.895411058474735, 34.534767825878163 ] } },
{ "type": "Feature", "properties": { "内容": "小規模多機能ホーム　ドリーム【小規模多機能型居宅介護】岡山県玉野市山田466", "url": "https://www.kaigokensaku.mhlw.go.jp/33/index.php?action_kouhyou_detail_004_kani=true&JigyosyoCd=3390400319-00&ServiceCd=730&Type=search", "url2": "https://yume-shinseikai.or.jp" }, "geometry": { "type": "Point", "coordinates": [ 133.9886237, 34.5470385 ] } },
{ "type": "Feature", "properties": { "内容": "あんしん多機能ホーム【小規模多機能型居宅介護】岡山県笠岡市西大島3256", "url": "https://www.kaigokensaku.mhlw.go.jp/33/index.php?action_kouhyou_detail_004_kani=true&JigyosyoCd=3390500100-00&ServiceCd=730&Type=search", "url2": null }, "geometry": { "type": "Point", "coordinates": [ 133.532445015066514, 34.494130281745072 ] } },
{ "type": "Feature", "properties": { "内容": "ささえ愛の家　ハーモニー西大戸【小規模多機能型居宅介護】岡山県笠岡市西大戸８１０-1", "url": "https://www.kaigokensaku.mhlw.go.jp/33/index.php?action_kouhyou_detail_004_kani=true&JigyosyoCd=3390500134-00&ServiceCd=730&Type=search", "url2": "https://hamomira.or.jp/" }, "geometry": { "type": "Point", "coordinates": [ 133.4825346, 34.5354112 ] } },
{ "type": "Feature", "properties": { "内容": "きのこ倶楽部【小規模多機能型居宅介護】岡山県井原市木之子町2416－1", "url": "https://www.kaigokensaku.mhlw.go.jp/33/index.php?action_kouhyou_detail_004_kani=true&JigyosyoCd=3390700163-00&ServiceCd=730&Type=search", "url2": "http://www.kinoko-group.jp/" }, "geometry": { "type": "Point", "coordinates": [ 133.4981765, 34.5858618 ] } },
{ "type": "Feature", "properties": { "内容": "サンキ・ウエルビィ小規模多機能センター井原【小規模多機能型居宅介護】岡山県井原市西江原町1549-1", "url": "https://www.kaigokensaku.mhlw.go.jp/33/index.php?action_kouhyou_detail_004_kani=true&JigyosyoCd=3390700056-00&ServiceCd=730&Type=search", "url2": null }, "geometry": { "type": "Point", "coordinates": [ 133.479160500000035, 34.6007075 ] } },
{ "type": "Feature", "properties": { "内容": "小規模多機能型居宅介護こよし【小規模多機能型居宅介護】岡山県井原市高屋町1587", "url": "https://www.kaigokensaku.mhlw.go.jp/33/index.php?action_kouhyou_detail_004_kani=true&JigyosyoCd=3390700031-00&ServiceCd=730&Type=search", "url2": "nakayoshi-koyosi.jimdo.com" }, "geometry": { "type": "Point", "coordinates": [ 133.432137, 34.5864422 ] } },
{ "type": "Feature", "properties": { "内容": "小規模多機能ラスパみずき【小規模多機能型居宅介護】岡山県井原市下出部町８７２", "url": "https://www.kaigokensaku.mhlw.go.jp/33/index.php?action_kouhyou_detail_004_kani=true&JigyosyoCd=3390700072-00&ServiceCd=730&Type=search", "url2": "http://mizuki-okayama.jp/" }, "geometry": { "type": "Point", "coordinates": [ 133.435700699999984, 34.5846424 ] } },
{ "type": "Feature", "properties": { "内容": "ニチイケアセンター　稲倉【小規模多機能型居宅介護】岡山県井原市下稲木町1268-1", "url": "https://www.kaigokensaku.mhlw.go.jp/33/index.php?action_kouhyou_detail_004_kani=true&JigyosyoCd=3390700189-00&ServiceCd=730&Type=search", "url2": "https://www.nichii-kaigo.jp/base/base-result/05CD5/" }, "geometry": { "type": "Point", "coordinates": [ 133.4618433, 34.5660844 ] } },
{ "type": "Feature", "properties": { "内容": "つどいの家　愛家里【小規模多機能型居宅介護】岡山県総社市秦３３１－３", "url": "https://www.kaigokensaku.mhlw.go.jp/33/index.php?action_kouhyou_detail_004_kani=true&JigyosyoCd=3390800039-00&ServiceCd=730&Type=search", "url2": "http://www.sesshu-fukushikai.or.jp/sereno/" }, "geometry": { "type": "Point", "coordinates": [ 133.702585, 34.6757986 ] } },
{ "type": "Feature", "properties": { "内容": "小規模多機能型居宅介護　光憂舘【小規模多機能型居宅介護】岡山県総社市日羽４５２番地１", "url": "https://www.kaigokensaku.mhlw.go.jp/33/index.php?action_kouhyou_detail_004_kani=true&JigyosyoCd=3390800104-00&ServiceCd=730&Type=search", "url2": "https://www.k5963.com" }, "geometry": { "type": "Point", "coordinates": [ 133.677049263229378, 34.724032851080239 ] } },
{ "type": "Feature", "properties": { "内容": "サポートハウス桃李の里【小規模多機能型居宅介護】岡山県総社市真壁158-4", "url": "https://www.kaigokensaku.mhlw.go.jp/33/index.php?action_kouhyou_detail_004_kani=true&JigyosyoCd=3390800096-00&ServiceCd=730&Type=search", "url2": null }, "geometry": { "type": "Point", "coordinates": [ 133.757316800000012, 34.6689132 ] } },
{ "type": "Feature", "properties": { "内容": "小規模多機能ホームれんげ【小規模多機能型居宅介護】総社2-13-26", "url": "https://www.kaigokensaku.mhlw.go.jp/33/index.php?action_kouhyou_detail_004_kani=true&JigyosyoCd=3390800153-00&ServiceCd=730&Type=search", "url2": "http://choujukai.or.jp/" }, "geometry": { "type": "Point", "coordinates": [ 133.7380482, 34.6705738 ] } },
{ "type": "Feature", "properties": { "内容": "小規模多機能型居宅介護施設　まごころの里高梁【小規模多機能型居宅介護】岡山県高梁市落合町福地380-1", "url": "https://www.kaigokensaku.mhlw.go.jp/33/index.php?action_kouhyou_detail_004_kani=true&JigyosyoCd=3390900136-00&ServiceCd=730&Type=search", "url2": "https://magokoro-ok.com/" }, "geometry": { "type": "Point", "coordinates": [ 133.555446473529997, 34.782546428270706 ] } },
{ "type": "Feature", "properties": { "内容": "小規模多機能ホーム　ケアポート生き活き館巨瀬【小規模多機能型居宅介護】高梁市巨瀬町5540-1", "url": "https://www.kaigokensaku.mhlw.go.jp/33/index.php?action_kouhyou_detail_004_kani=true&JigyosyoCd=3390900060-00&ServiceCd=730&Type=search", "url2": null }, "geometry": { "type": "Point", "coordinates": [ 133.624344699999938, 34.8785987 ] } },
{ "type": "Feature", "properties": { "内容": "小規模多機能型居宅介護　高梁【小規模多機能型居宅介護】高梁市落合町阿部2029-1", "url": "https://www.kaigokensaku.mhlw.go.jp/33/index.php?action_kouhyou_detail_004_kani=true&JigyosyoCd=3390900094-00&ServiceCd=730&Type=search", "url2": null }, "geometry": { "type": "Point", "coordinates": [ 133.579109499999959, 34.779971 ] } },
{ "type": "Feature", "properties": { "内容": "小規模多機能型居宅介護ちかのり【小規模多機能型居宅介護】岡山県高梁市落合町近似1324-1", "url": "https://www.kaigokensaku.mhlw.go.jp/33/index.php?action_kouhyou_detail_004_kani=true&JigyosyoCd=3390900045-00&ServiceCd=730&Type=search", "url2": "http://www.fukumikai.or.jp/" }, "geometry": { "type": "Point", "coordinates": [ 133.60927068836051, 34.796815403023324 ] } },
{ "type": "Feature", "properties": { "内容": "小規模多機能ホーム　おいでんせぇ【小規模多機能型居宅介護】岡山県新見市千屋1667-3", "url": "https://www.kaigokensaku.mhlw.go.jp/33/index.php?action_kouhyou_detail_004_kani=true&JigyosyoCd=3391000035-00&ServiceCd=730&Type=search", "url2": "http://www.nissyoukai.com/" }, "geometry": { "type": "Point", "coordinates": [ 133.43343040000002, 35.1059947 ] } },
{ "type": "Feature", "properties": { "内容": "小規模多機能ホーム　ウェルネスたかお【小規模多機能型居宅介護】岡山県新見市高尾2296-1", "url": "https://www.kaigokensaku.mhlw.go.jp/33/index.php?action_kouhyou_detail_004_kani=true&JigyosyoCd=3391000191-00&ServiceCd=730&Type=search", "url2": null }, "geometry": { "type": "Point", "coordinates": [ 133.445282600000013, 34.9933164 ] } },
{ "type": "Feature", "properties": { "内容": "小規模多機能ホームわきあいあい【小規模多機能型居宅介護】新見市大佐小阪部１５１０番地２１", "url": "https://www.kaigokensaku.mhlw.go.jp/33/index.php?action_kouhyou_detail_004_kani=true&JigyosyoCd=3391000076-00&ServiceCd=730&Type=search", "url2": "https://keiaikai-osa.jp/" }, "geometry": { "type": "Point", "coordinates": [ 133.566597099999967, 35.0827213 ] } },
{ "type": "Feature", "properties": { "内容": "小規模多機能型居宅介護事業所　福の木【小規模多機能型居宅介護】新見市土橋１１９９番地", "url": "https://www.kaigokensaku.mhlw.go.jp/33/index.php?action_kouhyou_detail_004_kani=true&JigyosyoCd=3391000068-00&ServiceCd=730&Type=search", "url2": "http://www.karamatsu-so.jp" }, "geometry": { "type": "Point", "coordinates": [ 133.551017099999967, 34.9611773 ] } },
{ "type": "Feature", "properties": { "内容": "小規模多機能ホーム　にいざと　さくらの丘【小規模多機能型居宅介護】岡山県新見市神郷釜村１２３５番地１", "url": "https://www.kaigokensaku.mhlw.go.jp/33/index.php?action_kouhyou_detail_004_kani=true&JigyosyoCd=3391000084-00&ServiceCd=730&Type=search", "url2": "http://www.nissyoukai.net/" }, "geometry": { "type": "Point", "coordinates": [ 133.36778019999997, 35.0891362 ] } },
{ "type": "Feature", "properties": { "内容": "小規模多機能型居宅介護　ともゆきの家【小規模多機能型居宅介護】岡山県備前市麻宇那769", "url": "https://www.kaigokensaku.mhlw.go.jp/33/index.php?action_kouhyou_detail_004_kani=true&JigyosyoCd=3391100017-00&ServiceCd=730&Type=search", "url2": null }, "geometry": { "type": "Point", "coordinates": [ 134.235219216648261, 34.750382151367418 ] } },
{ "type": "Feature", "properties": { "内容": "小規模多機能ホームもみじの家【小規模多機能型居宅介護】岡山県備前市吉永町神根本６１－６", "url": "https://www.kaigokensaku.mhlw.go.jp/33/index.php?action_kouhyou_detail_004_kani=true&JigyosyoCd=3391100058-00&ServiceCd=730&Type=search", "url2": "http://www.momiji-toubi.or.jp" }, "geometry": { "type": "Point", "coordinates": [ 134.239515433729593, 34.843440892500368 ] } },
{ "type": "Feature", "properties": { "内容": "小規模多機能ホーム　せとうち【小規模多機能型居宅介護】岡山県瀬戸内市邑久町福中１１８０", "url": "https://www.kaigokensaku.mhlw.go.jp/33/index.php?action_kouhyou_detail_004_kani=true&JigyosyoCd=3392400044-00&ServiceCd=730&Type=search", "url2": "http://www.tohkakai.jp/" }, "geometry": { "type": "Point", "coordinates": [ 134.066753799999987, 34.6703333 ] } },
{ "type": "Feature", "properties": { "内容": "小規模多機能型居宅介護事業所うらら東【小規模多機能型居宅介護】岡山県瀬戸内市牛窓町牛窓2297-1", "url": "https://www.kaigokensaku.mhlw.go.jp/33/index.php?action_kouhyou_detail_004_kani=true&JigyosyoCd=3392400051-00&ServiceCd=730&Type=search", "url2": null }, "geometry": { "type": "Point", "coordinates": [ 134.171376624536833, 34.617783460342565 ] } },
{ "type": "Feature", "properties": { "内容": "小規模多機能ホーム夢路【小規模多機能型居宅介護】岡山県瀬戸内市邑久町向山７６", "url": "https://www.kaigokensaku.mhlw.go.jp/33/index.php?action_kouhyou_detail_004_kani=true&JigyosyoCd=3392400085-00&ServiceCd=730&Type=search", "url2": null }, "geometry": { "type": "Point", "coordinates": [ 134.07718890000001, 34.656654 ] } },
{ "type": "Feature", "properties": { "内容": "グレースケアあじさい【小規模多機能型居宅介護】岡山県瀬戸内市牛窓町長浜1716-1１階フロア", "url": "https://www.kaigokensaku.mhlw.go.jp/33/index.php?action_kouhyou_detail_004_kani=true&JigyosyoCd=3392400127-00&ServiceCd=730&Type=search", "url2": "http://www.ajisai-s.or.jp/" }, "geometry": { "type": "Point", "coordinates": [ 134.135001147360299, 34.637570515913495 ] } },
{ "type": "Feature", "properties": { "内容": "まごのて村小規模多機能ホーム「うぐいす庵」【小規模多機能型居宅介護】邑久町箕輪656番地１", "url": "https://www.kaigokensaku.mhlw.go.jp/33/index.php?action_kouhyou_detail_004_kani=true&JigyosyoCd=3392400135-00&ServiceCd=730&Type=search", "url2": null }, "geometry": { "type": "Point", "coordinates": [ 134.097289199999977, 34.6938682 ] } },
{ "type": "Feature", "properties": { "内容": "小規模多機能ホーム　夢花【小規模多機能型居宅介護】岡山県瀬戸内市長船町飯井192-1", "url": "https://www.kaigokensaku.mhlw.go.jp/33/index.php?action_kouhyou_detail_004_kani=true&JigyosyoCd=3392400176-00&ServiceCd=730&Type=search", "url2": null }, "geometry": { "type": "Point", "coordinates": [ 134.148537499999946, 34.6884897 ] } },
{ "type": "Feature", "properties": { "内容": "ベリーズホーム　天神の森【小規模多機能型居宅介護】岡山県赤磐市西窪田67", "url": "https://www.kaigokensaku.mhlw.go.jp/33/index.php?action_kouhyou_detail_004_kani=true&JigyosyoCd=3392200071-00&ServiceCd=730&Type=search", "url2": null }, "geometry": { "type": "Point", "coordinates": [ 134.007565099999965, 34.7795346 ] } },
{ "type": "Feature", "properties": { "内容": "小規模多機能型居宅介護キバラ【小規模多機能型居宅介護】岡山県赤磐市松木633-1あかいわハートフル太陽", "url": "https://www.kaigokensaku.mhlw.go.jp/33/index.php?action_kouhyou_detail_004_kani=true&JigyosyoCd=3392200097-00&ServiceCd=730&Type=search", "url2": "http://www.takufukai-group.or.jp/index.html" }, "geometry": { "type": "Point", "coordinates": [ 134.0961304, 34.790526 ] } },
{ "type": "Feature", "properties": { "内容": "両宮の里【小規模多機能型居宅介護】岡山県赤磐市穂崎888番地4", "url": "https://www.kaigokensaku.mhlw.go.jp/33/index.php?action_kouhyou_detail_004_kani=true&JigyosyoCd=3392200030-00&ServiceCd=730&Type=search", "url2": "http://souwa-group.co.jp" }, "geometry": { "type": "Point", "coordinates": [ 134.007389099999955, 34.7365978 ] } },
{ "type": "Feature", "properties": { "内容": "小規模多機能型居宅介護事業所　　ゆったり　あしたり【小規模多機能型居宅介護】岡山県真庭市五名77－1番地", "url": "https://www.kaigokensaku.mhlw.go.jp/33/index.php?action_kouhyou_detail_004_kani=true&JigyosyoCd=3393400084-00&ServiceCd=730&Type=search", "url2": "http://www.asitari.co.jp" }, "geometry": { "type": "Point", "coordinates": [ 133.657959900000037, 34.9744047 ] } },
{ "type": "Feature", "properties": { "内容": "小規模多機能ホーム菜の花【小規模多機能型居宅介護】岡山県真庭市蒜山本茅部11ー１", "url": "https://www.kaigokensaku.mhlw.go.jp/33/index.php?action_kouhyou_detail_004_kani=true&JigyosyoCd=3393400159-00&ServiceCd=730&Type=search", "url2": "http://www.nissyoukai.net/" }, "geometry": { "type": "Point", "coordinates": [ 133.611643299999969, 35.274331 ] } },
{ "type": "Feature", "properties": { "内容": "小規模多機能型居宅介護　高瀬【小規模多機能型居宅介護】岡山県真庭市中島３９３－１", "url": "https://www.kaigokensaku.mhlw.go.jp/33/index.php?action_kouhyou_detail_004_kani=true&JigyosyoCd=3393400100-00&ServiceCd=730&Type=search", "url2": "http://f-keishinkai.jp/" }, "geometry": { "type": "Point", "coordinates": [ 133.749366499999951, 35.0723966 ] } },
{ "type": "Feature", "properties": { "内容": "小規模多機能型居宅介護　つきだ【小規模多機能型居宅介護】月田6831-1", "url": "https://www.kaigokensaku.mhlw.go.jp/33/index.php?action_kouhyou_detail_004_kani=true&JigyosyoCd=3393400290-00&ServiceCd=730&Type=search", "url2": "https://shinmina.care/tsukida" }, "geometry": { "type": "Point", "coordinates": [ 133.6631721, 35.0448463 ] } },
{ "type": "Feature", "properties": { "内容": "小規模多機能型居宅介護　ひつじぐも【小規模多機能型居宅介護】岡山県真庭市下河内312-1", "url": "https://www.kaigokensaku.mhlw.go.jp/33/index.php?action_kouhyou_detail_004_kani=true&JigyosyoCd=3393400282-00&ServiceCd=730&Type=search", "url2": "https://shinmina.care/hitsujigumo" }, "geometry": { "type": "Point", "coordinates": [ 133.783468199999987, 35.036058 ] } },
{ "type": "Feature", "properties": { "内容": "ライフサポートきづな【小規模多機能型居宅介護】岡山県美作市梶並70", "url": "https://www.kaigokensaku.mhlw.go.jp/33/index.php?action_kouhyou_detail_004_kani=true&JigyosyoCd=3393700129-00&ServiceCd=730&Type=search", "url2": "http://life-support.ne.jp/" }, "geometry": { "type": "Point", "coordinates": [ 134.2471769, 35.1181928 ] } },
{ "type": "Feature", "properties": { "内容": "片岡デイサービス憩いの森【小規模多機能型居宅介護】岡山県美作市土居３３１８－５", "url": "https://www.kaigokensaku.mhlw.go.jp/33/index.php?action_kouhyou_detail_004_kani=true&JigyosyoCd=3393700012-00&ServiceCd=730&Type=search", "url2": null }, "geometry": { "type": "Point", "coordinates": [ 134.274823, 34.9885428 ] } },
{ "type": "Feature", "properties": { "内容": "ケアビレッジペルナ【小規模多機能型居宅介護】岡山県美作市栄町４１-４", "url": "https://www.kaigokensaku.mhlw.go.jp/33/index.php?action_kouhyou_detail_004_kani=true&JigyosyoCd=3393700053-00&ServiceCd=730&Type=search", "url2": "https://www.mimasakanagurado.com" }, "geometry": { "type": "Point", "coordinates": [ 134.149397099999987, 35.0096492 ] } },
{ "type": "Feature", "properties": { "内容": "多機能型介護ホームえーる【小規模多機能型居宅介護】美作市川上30-1", "url": "https://www.kaigokensaku.mhlw.go.jp/33/index.php?action_kouhyou_detail_004_kani=true&JigyosyoCd=3393700087-00&ServiceCd=730&Type=search", "url2": "http://happinity.jp/wordpress/" }, "geometry": { "type": "Point", "coordinates": [ 134.295442800000046, 35.0884856 ] } },
{ "type": "Feature", "properties": { "内容": "多機能型介護ホームはーと【小規模多機能型居宅介護】岡山県美作市川上32-1", "url": "https://www.kaigokensaku.mhlw.go.jp/33/index.php?action_kouhyou_detail_004_kani=true&JigyosyoCd=3393700111-00&ServiceCd=730&Type=search", "url2": "http://happinity.jp/wordpress/" }, "geometry": { "type": "Point", "coordinates": [ 134.2965924, 35.1006064 ] } },
{ "type": "Feature", "properties": { "内容": "豊野苑【小規模多機能型居宅介護】岡山県美作市豊野477-2", "url": "https://www.kaigokensaku.mhlw.go.jp/33/index.php?action_kouhyou_detail_004_kani=true&JigyosyoCd=3393700160-00&ServiceCd=730&Type=search", "url2": null }, "geometry": { "type": "Point", "coordinates": [ 134.251387199999954, 35.0349879 ] } },
{ "type": "Feature", "properties": { "内容": "おとなりさんきらり小規模多機能型居宅介護事業所【小規模多機能型居宅介護】岡山県浅口市金光町佐方363-143", "url": "https://www.kaigokensaku.mhlw.go.jp/33/index.php?action_kouhyou_detail_004_kani=true&JigyosyoCd=3392700062-00&ServiceCd=730&Type=search", "url2": "http://hermanayuge.com/" }, "geometry": { "type": "Point", "coordinates": [ 133.6051663, 34.5322392 ] } },
{ "type": "Feature", "properties": { "内容": "ケアビレッジやすらぎ【小規模多機能型居宅介護】岡山県浅口市鴨方町深田５１３－１", "url": "https://www.kaigokensaku.mhlw.go.jp/33/index.php?action_kouhyou_detail_004_kani=true&JigyosyoCd=3392700047-00&ServiceCd=730&Type=search", "url2": "http://www.yasuragihome.jp/" }, "geometry": { "type": "Point", "coordinates": [ 133.580444100000022, 34.5381409 ] } },
{ "type": "Feature", "properties": { "内容": "小規模多機能型居宅介護　和が家【小規模多機能型居宅介護】和気郡和気町和気２６６－１", "url": "https://www.kaigokensaku.mhlw.go.jp/33/index.php?action_kouhyou_detail_004_kani=true&JigyosyoCd=3392300020-00&ServiceCd=730&Type=search", "url2": "http://www.esperance.or.jp/" }, "geometry": { "type": "Point", "coordinates": [ 134.145292700000027, 34.8026461 ] } },
{ "type": "Feature", "properties": { "内容": "小規模多機能型居宅介護支援センターハーモニー【小規模多機能型居宅介護】岡山県和気郡和気町藤野80", "url": "https://www.kaigokensaku.mhlw.go.jp/33/index.php?action_kouhyou_detail_004_kani=true&JigyosyoCd=3392300061-00&ServiceCd=730&Type=search", "url2": null }, "geometry": { "type": "Point", "coordinates": [ 134.175762600000013, 34.8087755 ] } },
{ "type": "Feature", "properties": { "内容": "小規模多機能ホームさんらいふ早島【小規模多機能型居宅介護】都窪郡早島町早島２８６８番地３", "url": "https://www.kaigokensaku.mhlw.go.jp/33/index.php?action_kouhyou_detail_004_kani=true&JigyosyoCd=3372600357-00&ServiceCd=730&Type=search", "url2": "https://suiseikai-group.jp/heiseikai/" }, "geometry": { "type": "Point", "coordinates": [ 133.810523098308749, 34.607799182785953 ] } },
{ "type": "Feature", "properties": { "内容": "トータルケアホームそよかぜ【小規模多機能型居宅介護】岡山県浅口郡里庄町大字新庄2790-2", "url": "https://www.kaigokensaku.mhlw.go.jp/33/index.php?action_kouhyou_detail_004_kani=true&JigyosyoCd=3392700039-00&ServiceCd=730&Type=search", "url2": "https://care-net.biz/33/komorebi-group/" }, "geometry": { "type": "Point", "coordinates": [ 133.55214032142635, 34.507752045336915 ] } },
{ "type": "Feature", "properties": { "内容": "小規模多機能ホームぼちぼち【小規模多機能型居宅介護】岡山県小田郡矢掛町小林２７", "url": "https://www.kaigokensaku.mhlw.go.jp/33/index.php?action_kouhyou_detail_004_kani=true&JigyosyoCd=3392800029-00&ServiceCd=730&Type=search", "url2": "https://kamurado.com/" }, "geometry": { "type": "Point", "coordinates": [ 133.583835051976024, 34.629421815506795 ] } },
{ "type": "Feature", "properties": { "内容": "小規模多機能型居宅介護事業所　さくらの里【小規模多機能型居宅介護】岡山県真庭郡新庄村１９９８－１", "url": "https://www.kaigokensaku.mhlw.go.jp/33/index.php?action_kouhyou_detail_004_kani=true&JigyosyoCd=3393400118-00&ServiceCd=730&Type=search", "url2": "http://www.shinjoshakyo.or.jp/" }, "geometry": { "type": "Point", "coordinates": [ 133.567734299999984, 35.1794575 ] } },
{ "type": "Feature", "properties": { "内容": "小規模多機能型居宅介護　たんぽぽ【小規模多機能型居宅介護】岡山県苫田郡鏡野町上齋原90-3", "url": "https://www.kaigokensaku.mhlw.go.jp/33/index.php?action_kouhyou_detail_004_kani=true&JigyosyoCd=3393500172-00&ServiceCd=730&Type=search", "url2": null }, "geometry": { "type": "Point", "coordinates": [ 133.926297299999987, 35.2756053 ] } },
{ "type": "Feature", "properties": { "内容": "小規模多機能型居宅介護　ひかりハウス【小規模多機能型居宅介護】岡山県苫田郡鏡野町下原1414-1", "url": "https://www.kaigokensaku.mhlw.go.jp/33/index.php?action_kouhyou_detail_004_kani=true&JigyosyoCd=3393500032-00&ServiceCd=730&Type=search", "url2": null }, "geometry": { "type": "Point", "coordinates": [ 133.924302799999964, 35.0680188 ] } },
{ "type": "Feature", "properties": { "内容": "一般財団法人　共愛会小規模多機能型居宅介護　気楽亭【小規模多機能型居宅介護】岡山県苫田郡鏡野町吉原３３６", "url": "https://www.kaigokensaku.mhlw.go.jp/33/index.php?action_kouhyou_detail_004_kani=true&JigyosyoCd=3393500024-00&ServiceCd=730&Type=search", "url2": "http://www.kyouaikai.or.jp" }, "geometry": { "type": "Point", "coordinates": [ 133.936345806359896, 35.071065982432856 ] } },
{ "type": "Feature", "properties": { "内容": "小規模多機能型居宅介護わかば【小規模多機能型居宅介護】岡山県苫田郡鏡野町真経525-1", "url": "https://www.kaigokensaku.mhlw.go.jp/33/index.php?action_kouhyou_detail_004_kani=true&JigyosyoCd=3393500107-00&ServiceCd=730&Type=search", "url2": null }, "geometry": { "type": "Point", "coordinates": [ 133.964183904299148, 35.159264342760586 ] } },
{ "type": "Feature", "properties": { "内容": "片岡デイサービス憩いの森・吉野【小規模多機能型居宅介護】岡山県勝田郡勝央町豊久田183", "url": "https://www.kaigokensaku.mhlw.go.jp/33/index.php?action_kouhyou_detail_004_kani=true&JigyosyoCd=3393600030-00&ServiceCd=730&Type=search", "url2": null }, "geometry": { "type": "Point", "coordinates": [ 134.161821423278781, 35.06459158779942 ] } },
{ "type": "Feature", "properties": { "内容": "小規模多機能型居宅介護事業所　奈義つくし園【小規模多機能型居宅介護】岡山県勝田郡奈義町荒内西82-2", "url": "https://www.kaigokensaku.mhlw.go.jp/33/index.php?action_kouhyou_detail_004_kani=true&JigyosyoCd=3393600014-00&ServiceCd=730&Type=search", "url2": "http://www.jifu-kai.or.jp/" }, "geometry": { "type": "Point", "coordinates": [ 134.1652401, 35.1065896 ] } },
{ "type": "Feature", "properties": { "内容": "小規模多機能ホーム　ひだまり【小規模多機能型居宅介護】岡山県英田郡西粟倉村影石95－1", "url": "https://www.kaigokensaku.mhlw.go.jp/33/index.php?action_kouhyou_detail_004_kani=true&JigyosyoCd=3393700038-00&ServiceCd=730&Type=search", "url2": "http://www.nishiawakura-wel.or.jp/" }, "geometry": { "type": "Point", "coordinates": [ 134.334953400000018, 35.1722639 ] } },
{ "type": "Feature", "properties": { "内容": "小規模多機能ホームひだまり【小規模多機能型居宅介護】岡山県英田郡西粟倉村大字影石95番地1", "url": "https://www.kaigokensaku.mhlw.go.jp/33/index.php?action_kouhyou_detail_004_kani=true&JigyosyoCd=3393700194-00&ServiceCd=730&Type=search", "url2": "https://a-zero.group/service/welfare/" }, "geometry": { "type": "Point", "coordinates": [ 134.3349347, 35.1717193 ] } },
{ "type": "Feature", "properties": { "内容": "白寿荘小規模多機能ホームみさき【小規模多機能型居宅介護】岡山県久米郡美咲町打穴下412-5", "url": "https://www.kaigokensaku.mhlw.go.jp/33/index.php?action_kouhyou_detail_004_kani=true&JigyosyoCd=3393800010-00&ServiceCd=730&Type=search", "url2": "http://www.hakujuso.or.jp/" }, "geometry": { "type": "Point", "coordinates": [ 133.938782800000013, 35.0277324 ] } },
{ "type": "Feature", "properties": { "内容": "さとの家かもがわ【小規模多機能型居宅介護】岡山県加賀郡吉備中央町上加茂５１７－１", "url": "https://www.kaigokensaku.mhlw.go.jp/33/index.php?action_kouhyou_detail_004_kani=true&JigyosyoCd=3393900034-00&ServiceCd=730&Type=search", "url2": "https://makotokai.okayama.jp" }, "geometry": { "type": "Point", "coordinates": [ 133.805160300000011, 34.851115900000011 ] } },
{ "type": "Feature", "properties": { "内容": "賀陽荘和の家【小規模多機能型居宅介護】岡山県加賀郡吉備中央町上竹753", "url": "https://www.kaigokensaku.mhlw.go.jp/33/index.php?action_kouhyou_detail_004_kani=true&JigyosyoCd=3393900075-00&ServiceCd=730&Type=search", "url2": "http://care-net.biz/33/kayousou753/" }, "geometry": { "type": "Point", "coordinates": [ 133.6791771, 34.8539945 ] } }
]
}
