{
"type": "FeatureCollection",
"name": "geo_33_認知症対応型通所介護",
"crs": { "type": "name", "properties": { "name": "urn:ogc:def:crs:OGC:1.3:CRS84" } },
"features": [
{ "type": "Feature", "properties": { "内容": "ﾆﾁｲｹｱｾﾝﾀｰ岡山東古松【認知症対応型通所介護】岡山県岡山市北区東古松512-1", "url": "https://www.kaigokensaku.mhlw.go.jp/33/index.php?action_kouhyou_detail_004_kani=true&JigyosyoCd=3390101636-00&ServiceCd=720&Type=search", "url2": null }, "geometry": { "type": "Point", "coordinates": [ 133.915897099999938, 34.6420026 ] } },
{ "type": "Feature", "properties": { "内容": "ニチイケアセンター岡山平田【認知症対応型通所介護】岡山県岡山市北区平田163-118", "url": "https://www.kaigokensaku.mhlw.go.jp/33/index.php?action_kouhyou_detail_004_kani=true&JigyosyoCd=3390101917-00&ServiceCd=720&Type=search", "url2": "http://www.nichiigakkan.co.jp/" }, "geometry": { "type": "Point", "coordinates": [ 133.886173, 34.6340192 ] } },
{ "type": "Feature", "properties": { "内容": "デイサービスセンター旭ヶ丘【認知症対応型通所介護】岡山県岡山市北区万成東町２－２８", "url": "https://www.kaigokensaku.mhlw.go.jp/33/index.php?action_kouhyou_detail_004_kani=true&JigyosyoCd=3370103446-00&ServiceCd=720&Type=search", "url2": "http://junfuku.jp/index.php" }, "geometry": { "type": "Point", "coordinates": [ 133.896290099999987, 34.6739287 ] } },
{ "type": "Feature", "properties": { "内容": "星の家中央デイサービスセンター【認知症対応型通所介護】岡山市北区奥田二丁目5-20", "url": "https://www.kaigokensaku.mhlw.go.jp/33/index.php?action_kouhyou_detail_004_kani=true&JigyosyoCd=3390101941-00&ServiceCd=720&Type=search", "url2": "http://www.hoshi-home.com" }, "geometry": { "type": "Point", "coordinates": [ 133.921960300000023, 34.6432221 ] } },
{ "type": "Feature", "properties": { "内容": "岡山ケアセンター両備サン・オークス【認知症対応型通所介護】岡山県岡山市中区森下町5番5号", "url": "https://www.kaigokensaku.mhlw.go.jp/33/index.php?action_kouhyou_detail_004_kani=true&JigyosyoCd=3390101255-00&ServiceCd=720&Type=search", "url2": "http://www.ryobi-hc.jp" }, "geometry": { "type": "Point", "coordinates": [ 133.942024400000037, 34.6626125 ] } },
{ "type": "Feature", "properties": { "内容": "福泊カフェ【認知症対応型通所介護】福泊263-1", "url": "https://www.kaigokensaku.mhlw.go.jp/33/index.php?action_kouhyou_detail_004_kani=true&JigyosyoCd=3390101693-00&ServiceCd=720&Type=search", "url2": "http://waraku-f.jp/" }, "geometry": { "type": "Point", "coordinates": [ 133.97390682513128, 34.657734652215971 ] } },
{ "type": "Feature", "properties": { "内容": "星の家きらりデイサービスセンター【認知症対応型通所介護】岡山県岡山市中区倉田５７６－８", "url": "https://www.kaigokensaku.mhlw.go.jp/33/index.php?action_kouhyou_detail_004_kani=true&JigyosyoCd=3390102337-00&ServiceCd=720&Type=search", "url2": "http://hoshi-home.com" }, "geometry": { "type": "Point", "coordinates": [ 133.9563594, 34.632055 ] } },
{ "type": "Feature", "properties": { "内容": "デイサービスセンタ　ハイライフ湊【認知症対応型通所介護】岡山県岡山市中区湊３３５－３", "url": "https://www.kaigokensaku.mhlw.go.jp/33/index.php?action_kouhyou_detail_004_kani=true&JigyosyoCd=3390103020-00&ServiceCd=720&Type=search", "url2": "https://hp.kaipoke.biz/723/168315/index_0018.html" }, "geometry": { "type": "Point", "coordinates": [ 133.9600757, 34.647125 ] } },
{ "type": "Feature", "properties": { "内容": "創心会五感リハビリ倶楽部益野【認知症対応型通所介護】岡山県岡山市東区可知三丁目１７番５３号", "url": "https://www.kaigokensaku.mhlw.go.jp/33/index.php?action_kouhyou_detail_004_kani=true&JigyosyoCd=3390101099-00&ServiceCd=720&Type=search", "url2": "http://www.soushinkai.com/" }, "geometry": { "type": "Point", "coordinates": [ 134.004754300000059, 34.6588727 ] } },
{ "type": "Feature", "properties": { "内容": "ニチイケアセンター岡山豊成【認知症対応型通所介護】岡山県岡山市南区豊成1-2-47", "url": "https://www.kaigokensaku.mhlw.go.jp/33/index.php?action_kouhyou_detail_004_kani=true&JigyosyoCd=3390101644-00&ServiceCd=720&Type=search", "url2": null }, "geometry": { "type": "Point", "coordinates": [ 133.928157, 34.6328291 ] } },
{ "type": "Feature", "properties": { "内容": "デイサービスセンター音色福吉【認知症対応型通所介護】岡山市南区郡728-5", "url": "https://www.kaigokensaku.mhlw.go.jp/33/index.php?action_kouhyou_detail_004_kani=true&JigyosyoCd=3390100505-00&ServiceCd=720&Type=search", "url2": null }, "geometry": { "type": "Point", "coordinates": [ 133.964780440042119, 34.580283856635624 ] } },
{ "type": "Feature", "properties": { "内容": "デイサービスセンター　ふるさと【認知症対応型通所介護】岡山市南区浦安本町182－1", "url": "https://www.kaigokensaku.mhlw.go.jp/33/index.php?action_kouhyou_detail_004_kani=true&JigyosyoCd=3370101937-00&ServiceCd=720&Type=search", "url2": "http://www.fukubunsya.or.jp/" }, "geometry": { "type": "Point", "coordinates": [ 133.92605750000007, 34.6021021 ] } },
{ "type": "Feature", "properties": { "内容": "藤田荘認知症対応型通所介護事業所【認知症対応型通所介護】岡山県岡山市南区藤田2662番地2", "url": "https://www.kaigokensaku.mhlw.go.jp/33/index.php?action_kouhyou_detail_004_kani=true&JigyosyoCd=3390100315-00&ServiceCd=720&Type=search", "url2": "http://fujitasou.syoyokai.com" }, "geometry": { "type": "Point", "coordinates": [ 133.868575599999986, 34.5615406 ] } },
{ "type": "Feature", "properties": { "内容": "創心会五感リハビリ倶楽部岡南【認知症対応型通所介護】岡山市南区浦安西町13-2", "url": "https://www.kaigokensaku.mhlw.go.jp/33/index.php?action_kouhyou_detail_004_kani=true&JigyosyoCd=3390101107-00&ServiceCd=720&Type=search", "url2": "http://www.soushinkai.com" }, "geometry": { "type": "Point", "coordinates": [ 133.9209217, 34.6160836 ] } },
{ "type": "Feature", "properties": { "内容": "デイサービス亀山　和みの園【認知症対応型通所介護】岡山県倉敷市亀山773-1", "url": "https://www.kaigokensaku.mhlw.go.jp/33/index.php?action_kouhyou_detail_004_kani=true&JigyosyoCd=3390201956-00&ServiceCd=720&Type=search", "url2": "https：//kiryukai.com/" }, "geometry": { "type": "Point", "coordinates": [ 133.8023918, 34.5892368 ] } },
{ "type": "Feature", "properties": { "内容": "デイサービス桃の木【認知症対応型通所介護】岡山県倉敷市玉島道口2754番地1", "url": "https://www.kaigokensaku.mhlw.go.jp/33/index.php?action_kouhyou_detail_004_kani=true&JigyosyoCd=3390200057-00&ServiceCd=720&Type=search", "url2": "http://www.tomicare.com" }, "geometry": { "type": "Point", "coordinates": [ 133.651418434393349, 34.566860213955323 ] } },
{ "type": "Feature", "properties": { "内容": "認知症対応型デイサービスセンター庄の里「なごやか」【認知症対応型通所介護】岡山県倉敷市生坂698", "url": "https://www.kaigokensaku.mhlw.go.jp/33/index.php?action_kouhyou_detail_004_kani=true&JigyosyoCd=3390201154-00&ServiceCd=720&Type=search", "url2": "http://www.syounosato.or.jp/" }, "geometry": { "type": "Point", "coordinates": [ 133.789552936862151, 34.622491044998192 ] } },
{ "type": "Feature", "properties": { "内容": "創心会五感リハビリ倶楽部【認知症対応型通所介護】岡山県倉敷市笹沖１１７番地", "url": "https://www.kaigokensaku.mhlw.go.jp/33/index.php?action_kouhyou_detail_004_kani=true&JigyosyoCd=3390200263-00&ServiceCd=720&Type=search", "url2": null }, "geometry": { "type": "Point", "coordinates": [ 133.761382300000037, 34.5731645 ] } },
{ "type": "Feature", "properties": { "内容": "デイサービス香り【認知症対応型通所介護】岡山県倉敷市福田町古新田1051番1", "url": "https://www.kaigokensaku.mhlw.go.jp/33/index.php?action_kouhyou_detail_004_kani=true&JigyosyoCd=3370203535-00&ServiceCd=720&Type=search", "url2": "http://www.wakokai.com/" }, "geometry": { "type": "Point", "coordinates": [ 133.77163280000002, 34.5348945 ] } },
{ "type": "Feature", "properties": { "内容": "星の家ゆうづつデイサービスセンター【認知症対応型通所介護】岡山県倉敷市林471-1", "url": "https://www.kaigokensaku.mhlw.go.jp/33/index.php?action_kouhyou_detail_004_kani=true&JigyosyoCd=3390201758-00&ServiceCd=720&Type=search", "url2": "http://www.hoshi-home.com" }, "geometry": { "type": "Point", "coordinates": [ 133.814944, 34.5413505 ] } },
{ "type": "Feature", "properties": { "内容": "デイサービスセンターのどか宅老所【認知症対応型通所介護】岡山県津山市神戸２６２－１", "url": "https://www.kaigokensaku.mhlw.go.jp/33/index.php?action_kouhyou_detail_004_kani=true&JigyosyoCd=3370300315-00&ServiceCd=720&Type=search", "url2": null }, "geometry": { "type": "Point", "coordinates": [ 133.9451262, 35.0571874 ] } },
{ "type": "Feature", "properties": { "内容": "デイサービス　じーちゃん・ばーちゃんのお家【認知症対応型通所介護】岡山県津山市大谷295－1", "url": "https://www.kaigokensaku.mhlw.go.jp/33/index.php?action_kouhyou_detail_004_kani=true&JigyosyoCd=3390300170-00&ServiceCd=720&Type=search", "url2": "https://gb-house.jp/" }, "geometry": { "type": "Point", "coordinates": [ 133.9993238951065, 35.052307531712685 ] } },
{ "type": "Feature", "properties": { "内容": "デイサービス　こまくさ【認知症対応型通所介護】岡山県玉野市宇野２－１９－１８", "url": "https://www.kaigokensaku.mhlw.go.jp/33/index.php?action_kouhyou_detail_004_kani=true&JigyosyoCd=3390400079-00&ServiceCd=720&Type=search", "url2": null }, "geometry": { "type": "Point", "coordinates": [ 133.940340099999958, 34.4913322 ] } },
{ "type": "Feature", "properties": { "内容": "株式会社アール・ケア　認知症対応型通所介護　葦束【認知症対応型通所介護】岡山県玉野市東高崎２５－２４７", "url": "https://www.kaigokensaku.mhlw.go.jp/33/index.php?action_kouhyou_detail_004_kani=true&JigyosyoCd=3390400020-00&ServiceCd=720&Type=search", "url2": "http://www.rcare.jp" }, "geometry": { "type": "Point", "coordinates": [ 133.895553999275847, 34.534862141558705 ] } },
{ "type": "Feature", "properties": { "内容": "デイサービス　ももの木【認知症対応型通所介護】岡山県笠岡市篠坂226", "url": "https://www.kaigokensaku.mhlw.go.jp/33/index.php?action_kouhyou_detail_004_kani=true&JigyosyoCd=3390500050-00&ServiceCd=720&Type=search", "url2": null }, "geometry": { "type": "Point", "coordinates": [ 133.463938900000016, 34.5342503 ] } },
{ "type": "Feature", "properties": { "内容": "デイサービスセンター　赤い屋根の家　和【認知症対応型通所介護】岡山県笠岡市大井南25-11", "url": "https://www.kaigokensaku.mhlw.go.jp/33/index.php?action_kouhyou_detail_004_kani=true&JigyosyoCd=3370500450-00&ServiceCd=720&Type=search", "url2": "http://www.akaiyanenoie.jp/" }, "geometry": { "type": "Point", "coordinates": [ 133.5071881, 34.5304198 ] } },
{ "type": "Feature", "properties": { "内容": "きのこのデイ【認知症対応型通所介護】岡山県井原市西方町1436番地1", "url": "https://www.kaigokensaku.mhlw.go.jp/33/index.php?action_kouhyou_detail_004_kani=true&JigyosyoCd=3370700126-00&ServiceCd=720&Type=search", "url2": "http://www.kinoko-group.jp/" }, "geometry": { "type": "Point", "coordinates": [ 133.481847497843773, 34.578476492578858 ] } },
{ "type": "Feature", "properties": { "内容": "西部いこいの里通所介護事業所【認知症対応型通所介護】岡山県井原市高屋町４丁目２５番地の２", "url": "https://www.kaigokensaku.mhlw.go.jp/33/index.php?action_kouhyou_detail_004_kani=true&JigyosyoCd=3370700100-00&ServiceCd=720&Type=search", "url2": null }, "geometry": { "type": "Point", "coordinates": [ 133.436445300000059, 34.5803512 ] } },
{ "type": "Feature", "properties": { "内容": "デイサービス　こよし【認知症対応型通所介護】岡山県井原市高屋町３丁目２５番地３０", "url": "https://www.kaigokensaku.mhlw.go.jp/33/index.php?action_kouhyou_detail_004_kani=true&JigyosyoCd=3390700122-00&ServiceCd=720&Type=search", "url2": "//nakayoshi-koyoshi.jimdo.com" }, "geometry": { "type": "Point", "coordinates": [ 133.4321569, 34.5781458 ] } },
{ "type": "Feature", "properties": { "内容": "特別養護老人ホームみずきデイサービスセンター【認知症対応型通所介護】岡山県井原市東江原町1661-1", "url": "https://www.kaigokensaku.mhlw.go.jp/33/index.php?action_kouhyou_detail_004_kani=true&JigyosyoCd=3370700266-00&ServiceCd=720&Type=search", "url2": "https://mizuki-okayama.jp/" }, "geometry": { "type": "Point", "coordinates": [ 133.5135047, 34.5999271 ] } },
{ "type": "Feature", "properties": { "内容": "哲西荘デイサービスセンター【認知症対応型通所介護】岡山県新見市哲西町矢田４３５１", "url": "https://www.kaigokensaku.mhlw.go.jp/33/index.php?action_kouhyou_detail_004_kani=true&JigyosyoCd=3373300270-00&ServiceCd=720&Type=search", "url2": "tesseisou.jp" }, "geometry": { "type": "Point", "coordinates": [ 133.334514, 34.923884 ] } },
{ "type": "Feature", "properties": { "内容": "デイサービスセンターほっと館新見中央【認知症対応型通所介護】岡山県新見市新見７２３－８", "url": "https://www.kaigokensaku.mhlw.go.jp/33/index.php?action_kouhyou_detail_004_kani=true&JigyosyoCd=3391000100-00&ServiceCd=720&Type=search", "url2": null }, "geometry": { "type": "Point", "coordinates": [ 133.4707674, 34.9798993 ] } },
{ "type": "Feature", "properties": { "内容": "デイサービス　げんき【認知症対応型通所介護】新見市下熊谷1357番地", "url": "https://www.kaigokensaku.mhlw.go.jp/33/index.php?action_kouhyou_detail_004_kani=true&JigyosyoCd=3391000126-00&ServiceCd=720&Type=search", "url2": null }, "geometry": { "type": "Point", "coordinates": [ 133.4798184, 35.0095991 ] } },
{ "type": "Feature", "properties": { "内容": "デイサービスセンター　あじさい【認知症対応型通所介護】岡山県瀬戸内市牛窓町長浜1745-1", "url": "https://www.kaigokensaku.mhlw.go.jp/33/index.php?action_kouhyou_detail_004_kani=true&JigyosyoCd=3372400212-00&ServiceCd=720&Type=search", "url2": "http://www.ajisai-s.or.jp" }, "geometry": { "type": "Point", "coordinates": [ 134.133278300000029, 34.6375462 ] } },
{ "type": "Feature", "properties": { "内容": "創心会五感リハビリ倶楽部邑久【認知症対応型通所介護】岡山県瀬戸内市邑久町豊安50-1", "url": "https://www.kaigokensaku.mhlw.go.jp/33/index.php?action_kouhyou_detail_004_kani=true&JigyosyoCd=3392400119-00&ServiceCd=720&Type=search", "url2": "http://www.soushinkai.com/" }, "geometry": { "type": "Point", "coordinates": [ 134.09269310000002, 34.6621124 ] } },
{ "type": "Feature", "properties": { "内容": "グループホーム　ゆばら【認知症対応型通所介護】岡山県真庭市下湯原125-1", "url": "https://www.kaigokensaku.mhlw.go.jp/33/index.php?action_kouhyou_detail_004_kani=true&JigyosyoCd=3393400217-00&ServiceCd=720&Type=search", "url2": null }, "geometry": { "type": "Point", "coordinates": [ 133.733120399999962, 35.1881124 ] } },
{ "type": "Feature", "properties": { "内容": "認知症対応型デイサービス　たんぽぽ【認知症対応型通所介護】岡山県真庭市西河内４２－２", "url": "https://www.kaigokensaku.mhlw.go.jp/33/index.php?action_kouhyou_detail_004_kani=true&JigyosyoCd=3393400068-00&ServiceCd=720&Type=search", "url2": null }, "geometry": { "type": "Point", "coordinates": [ 133.738373333868338, 35.016051447591742 ] } },
{ "type": "Feature", "properties": { "内容": "十字園むつみデイサービスセンター【認知症対応型通所介護】岡山県真庭市下河内２２７５番地", "url": "https://www.kaigokensaku.mhlw.go.jp/33/index.php?action_kouhyou_detail_004_kani=true&JigyosyoCd=3373400302-00&ServiceCd=720&Type=search", "url2": "http://www.jyujikai.or.jp" }, "geometry": { "type": "Point", "coordinates": [ 133.786581800000022, 35.03251 ] } },
{ "type": "Feature", "properties": { "内容": "デイサービスさくら【認知症対応型通所介護】岡山県　真庭市久世2923-1", "url": "https://www.kaigokensaku.mhlw.go.jp/33/index.php?action_kouhyou_detail_004_kani=true&JigyosyoCd=3393400167-00&ServiceCd=720&Type=search", "url2": null }, "geometry": { "type": "Point", "coordinates": [ 133.751863101327416, 35.076611173197705 ] } },
{ "type": "Feature", "properties": { "内容": "指定通所介護施設デイホーム桃の里【認知症対応型通所介護】岡山県真庭市組370番地1", "url": "https://www.kaigokensaku.mhlw.go.jp/33/index.php?action_kouhyou_detail_004_kani=true&JigyosyoCd=3373400385-00&ServiceCd=720&Type=search", "url2": "http://f-keishinkai.jp" }, "geometry": { "type": "Point", "coordinates": [ 133.688932300000033, 35.0955021 ] } },
{ "type": "Feature", "properties": { "内容": "奈義町社会福祉協議会指定認知症対応型通所介護事業所「やまびこ荘デイサービスセンター」【認知症対応型通所介護】岡山県勝田郡奈義町小坂308-2奈義町ひとりぐらし老人等共同生活住宅並びにふれあいセンターやまびこ荘", "url": "https://www.kaigokensaku.mhlw.go.jp/33/index.php?action_kouhyou_detail_004_kani=true&JigyosyoCd=3373600661-00&ServiceCd=720&Type=search", "url2": null }, "geometry": { "type": "Point", "coordinates": [ 134.2154712, 35.1465252 ] } },
{ "type": "Feature", "properties": { "内容": "白寿荘中央デイサービスセンター【認知症対応型通所介護】岡山県久米郡美咲町錦織2357-1", "url": "https://www.kaigokensaku.mhlw.go.jp/33/index.php?action_kouhyou_detail_004_kani=true&JigyosyoCd=3373800105-00&ServiceCd=720&Type=search", "url2": "http://www.hakujuso.or.jp/" }, "geometry": { "type": "Point", "coordinates": [ 133.94433497266084, 35.028733948664126 ] } }
]
}
