{
"type": "FeatureCollection",
"name": "geo_33_特定施設入居者生活介護（軽費老人ホーム）",
"crs": { "type": "name", "properties": { "name": "urn:ogc:def:crs:OGC:1.3:CRS84" } },
"features": [
{ "type": "Feature", "properties": { "内容": "ケアハウス　やよいの里【特定施設入居者生活介護（軽費老人ホーム）】岡山県岡山市北区国体町3-12", "url": "https://www.kaigokensaku.mhlw.go.jp/33/index.php?action_kouhyou_detail_004_kani=true&JigyosyoCd=3370108569-00&ServiceCd=332&Type=search", "url2": "okasaisei.life@vega.ocn.ne.jp" }, "geometry": { "type": "Point", "coordinates": [ 133.920442900000012, 34.6734989 ] } },
{ "type": "Feature", "properties": { "内容": "ケアハウス　たけべの里【特定施設入居者生活介護（軽費老人ホーム）】岡山県岡山市北区建部町建部上５５７－２", "url": "https://www.kaigokensaku.mhlw.go.jp/33/index.php?action_kouhyou_detail_004_kani=true&JigyosyoCd=3372100408-00&ServiceCd=332&Type=search", "url2": "http://www.hoyukai.co.jp/" }, "geometry": { "type": "Point", "coordinates": [ 133.905918299999939, 34.8621766 ] } },
{ "type": "Feature", "properties": { "内容": "ケアハウス夕なぎ苑【特定施設入居者生活介護（軽費老人ホーム）】岡山県岡山市東区宿毛７４５―３", "url": "https://www.kaigokensaku.mhlw.go.jp/33/index.php?action_kouhyou_detail_004_kani=true&JigyosyoCd=3370108577-00&ServiceCd=332&Type=search", "url2": "http://www.yunagi.jp" }, "geometry": { "type": "Point", "coordinates": [ 134.08533030000001, 34.6230071 ] } },
{ "type": "Feature", "properties": { "内容": "ケアハウスあかね【特定施設入居者生活介護（軽費老人ホーム）】岡山県岡山市東区吉原222", "url": "https://www.kaigokensaku.mhlw.go.jp/33/index.php?action_kouhyou_detail_004_kani=true&JigyosyoCd=3370105052-00&ServiceCd=332&Type=search", "url2": "http://www16.ocn.ne.jp/~kensei/" }, "geometry": { "type": "Point", "coordinates": [ 134.032359600000063, 34.6720522 ] } },
{ "type": "Feature", "properties": { "内容": "ケアハウス　アミティ瀬戸内【特定施設入居者生活介護（軽費老人ホーム）】岡山県岡山市南区北浦１００", "url": "https://www.kaigokensaku.mhlw.go.jp/33/index.php?action_kouhyou_detail_004_kani=true&JigyosyoCd=3370104378-00&ServiceCd=332&Type=search", "url2": "http://ww3.tiki.ne.jp/~kenjukai/" }, "geometry": { "type": "Point", "coordinates": [ 133.963036, 34.5871411 ] } },
{ "type": "Feature", "properties": { "内容": "ケアハウス　パラジェネシス【特定施設入居者生活介護（軽費老人ホーム）】岡山県岡山市南区東畦768", "url": "https://www.kaigokensaku.mhlw.go.jp/33/index.php?action_kouhyou_detail_004_kani=true&JigyosyoCd=3370102950-00&ServiceCd=332&Type=search", "url2": "http://www.keiyuu-kai.or.jp/top.html" }, "geometry": { "type": "Point", "coordinates": [ 133.881339900000057, 34.6044116 ] } },
{ "type": "Feature", "properties": { "内容": "ケアハウス　パラジェネシスII【特定施設入居者生活介護（軽費老人ホーム）】岡山県岡山市南区藤田1732-2", "url": "https://www.kaigokensaku.mhlw.go.jp/33/index.php?action_kouhyou_detail_004_kani=true&JigyosyoCd=3370102943-00&ServiceCd=332&Type=search", "url2": "http://www.keiyuu-kai.or.jp/top.html" }, "geometry": { "type": "Point", "coordinates": [ 133.894875400000046, 34.5846362 ] } },
{ "type": "Feature", "properties": { "内容": "ケアハウスあいの泉【特定施設入居者生活介護（軽費老人ホーム）】岡山県倉敷市玉島１７１９番地", "url": "https://www.kaigokensaku.mhlw.go.jp/33/index.php?action_kouhyou_detail_004_kani=true&JigyosyoCd=3370204715-00&ServiceCd=332&Type=search", "url2": "http://www.sinkura-hsp.com/carehouse/" }, "geometry": { "type": "Point", "coordinates": [ 133.681110774205081, 34.553977518370203 ] } },
{ "type": "Feature", "properties": { "内容": "ケアハウスロイヤルウイング【特定施設入居者生活介護（軽費老人ホーム）】岡山県倉敷市児島下の町5丁目2番15号", "url": "https://www.kaigokensaku.mhlw.go.jp/33/index.php?action_kouhyou_detail_004_kani=true&JigyosyoCd=3370203618-00&ServiceCd=332&Type=search", "url2": "http://www.ohji.ne.jp" }, "geometry": { "type": "Point", "coordinates": [ 133.822293700000046, 34.4772991 ] } },
{ "type": "Feature", "properties": { "内容": "軽費老人ホーム　イーエスガーデン【特定施設入居者生活介護（軽費老人ホーム）】岡山県津山市津山口307", "url": "https://www.kaigokensaku.mhlw.go.jp/33/index.php?action_kouhyou_detail_004_kani=true&JigyosyoCd=3370301081-00&ServiceCd=332&Type=search", "url2": "http://www.esgarden.jp/" }, "geometry": { "type": "Point", "coordinates": [ 133.981695874868791, 35.056224643740592 ] } },
{ "type": "Feature", "properties": { "内容": "ケアハウス上河原【特定施設入居者生活介護（軽費老人ホーム）】岡山県津山市上河原３４４番地１", "url": "https://www.kaigokensaku.mhlw.go.jp/33/index.php?action_kouhyou_detail_004_kani=true&JigyosyoCd=3370301172-00&ServiceCd=332&Type=search", "url2": "http://www.fukuaikai.jp" }, "geometry": { "type": "Point", "coordinates": [ 134.004392100000018, 35.0858496 ] } },
{ "type": "Feature", "properties": { "内容": "ケアハウス　オークパーク【特定施設入居者生活介護（軽費老人ホーム）】津山市一方２１６－３", "url": "https://www.kaigokensaku.mhlw.go.jp/33/index.php?action_kouhyou_detail_004_kani=true&JigyosyoCd=3370301602-00&ServiceCd=332&Type=search", "url2": "http://www.eharakeimeikai.jp/carehouse/oakpark/index.html" }, "geometry": { "type": "Point", "coordinates": [ 133.980126033729562, 35.05655196136162 ] } },
{ "type": "Feature", "properties": { "内容": "軽費老人ホームサンシティーうぐいす【特定施設入居者生活介護（軽費老人ホーム）】岡山県津山市国分寺988-1", "url": "https://www.kaigokensaku.mhlw.go.jp/33/index.php?action_kouhyou_detail_004_kani=true&JigyosyoCd=3370301677-00&ServiceCd=332&Type=search", "url2": "http://www.uguisuen.jp/" }, "geometry": { "type": "Point", "coordinates": [ 134.042423538623098, 35.043482559691121 ] } },
{ "type": "Feature", "properties": { "内容": "ケアハウス四季が丘【特定施設入居者生活介護（軽費老人ホーム）】岡山県井原市上出部町四季が丘２０番地７", "url": "https://www.kaigokensaku.mhlw.go.jp/33/index.php?action_kouhyou_detail_004_kani=true&JigyosyoCd=3370700563-00&ServiceCd=332&Type=search", "url2": "http://kyouwa.or.jp" }, "geometry": { "type": "Point", "coordinates": [ 133.467853699999978, 34.5848677 ] } },
{ "type": "Feature", "properties": { "内容": "ケアハウスつむぎ【特定施設入居者生活介護（軽費老人ホーム）】岡山県井原市下出部町7番地1", "url": "https://www.kaigokensaku.mhlw.go.jp/33/index.php?action_kouhyou_detail_004_kani=true&JigyosyoCd=3370700886-00&ServiceCd=332&Type=search", "url2": "http：//fukujyu-shinseikai.com" }, "geometry": { "type": "Point", "coordinates": [ 133.4516688, 34.5900226 ] } },
{ "type": "Feature", "properties": { "内容": "軽費老人ホームケアハウスちかのり荘【特定施設入居者生活介護（軽費老人ホーム）】岡山県高梁市落合町近似1324-2", "url": "https://www.kaigokensaku.mhlw.go.jp/33/index.php?action_kouhyou_detail_004_kani=true&JigyosyoCd=3370900692-00&ServiceCd=332&Type=search", "url2": "http://www.fukumikai.or.jp" }, "geometry": { "type": "Point", "coordinates": [ 133.609296699999959, 34.7965079 ] } },
{ "type": "Feature", "properties": { "内容": "ケアポート生き活き館　新見【特定施設入居者生活介護（軽費老人ホーム）】岡山県新見市上熊谷810-1", "url": "https://www.kaigokensaku.mhlw.go.jp/33/index.php?action_kouhyou_detail_004_kani=true&JigyosyoCd=3371000278-00&ServiceCd=332&Type=search", "url2": "http://kokoro-net.org/" }, "geometry": { "type": "Point", "coordinates": [ 133.524283500000024, 35.0301616 ] } },
{ "type": "Feature", "properties": { "内容": "ケアハウス「あおさぎ」【特定施設入居者生活介護（軽費老人ホーム）】岡山県備前市日生町日生８０１", "url": "https://www.kaigokensaku.mhlw.go.jp/33/index.php?action_kouhyou_detail_004_kani=true&JigyosyoCd=3372300412-00&ServiceCd=332&Type=search", "url2": "http://www.keiyuu-kai.or.jp" }, "geometry": { "type": "Point", "coordinates": [ 134.271405299999969, 34.7289039 ] } },
{ "type": "Feature", "properties": { "内容": "ケアハウス楽々園【特定施設入居者生活介護（軽費老人ホーム）】岡山県瀬戸内市邑久町北池169番地ケアハウス楽々園", "url": "https://www.kaigokensaku.mhlw.go.jp/33/index.php?action_kouhyou_detail_004_kani=true&JigyosyoCd=3372401145-00&ServiceCd=332&Type=search", "url2": "http://c-oka.org/" }, "geometry": { "type": "Point", "coordinates": [ 134.1131852, 34.6818324 ] } },
{ "type": "Feature", "properties": { "内容": "ケアハウス桃香【特定施設入居者生活介護（軽費老人ホーム）】岡山県赤磐市熊崎278-2", "url": "https://www.kaigokensaku.mhlw.go.jp/33/index.php?action_kouhyou_detail_004_kani=true&JigyosyoCd=3372201529-00&ServiceCd=332&Type=search", "url2": "https://kyokusuikai-momoka.com/" }, "geometry": { "type": "Point", "coordinates": [ 134.011207190737906, 34.756324257008124 ] } },
{ "type": "Feature", "properties": { "内容": "ケアハウスローズガーデン【特定施設入居者生活介護（軽費老人ホーム）】岡山県赤磐市塩木10-1ケアハウスローズガーデン", "url": "https://www.kaigokensaku.mhlw.go.jp/33/index.php?action_kouhyou_detail_004_kani=true&JigyosyoCd=3372201461-00&ServiceCd=332&Type=search", "url2": "http://www.eharakeimeikai.jp/." }, "geometry": { "type": "Point", "coordinates": [ 134.06462197237795, 34.891679878082115 ] } },
{ "type": "Feature", "properties": { "内容": "ケアハウスライラック久世【特定施設入居者生活介護（軽費老人ホーム）】岡山県真庭市久世540番地3", "url": "https://www.kaigokensaku.mhlw.go.jp/33/index.php?action_kouhyou_detail_004_kani=true&JigyosyoCd=3373400740-00&ServiceCd=332&Type=search", "url2": "http://www.jyujikai.or.jp" }, "geometry": { "type": "Point", "coordinates": [ 133.7509963, 35.0897419 ] } },
{ "type": "Feature", "properties": { "内容": "ケアハウスかつた【特定施設入居者生活介護（軽費老人ホーム）】岡山県美作市大町１７２７番地", "url": "https://www.kaigokensaku.mhlw.go.jp/33/index.php?action_kouhyou_detail_004_kani=true&JigyosyoCd=3373600380-00&ServiceCd=332&Type=search", "url2": "http://ns.nihonbara.or.jp/" }, "geometry": { "type": "Point", "coordinates": [ 134.198626800000056, 35.0712163 ] } },
{ "type": "Feature", "properties": { "内容": "軽費老人ホーム　ケアハウス百壽【特定施設入居者生活介護（軽費老人ホーム）】岡山県久米郡美咲町書副１９２－３", "url": "https://www.kaigokensaku.mhlw.go.jp/33/index.php?action_kouhyou_detail_004_kani=true&JigyosyoCd=3373800303-00&ServiceCd=332&Type=search", "url2": "https://uguisuen.jp/" }, "geometry": { "type": "Point", "coordinates": [ 134.050563300000022, 34.9905856 ] } }
]
}
