{
"type": "FeatureCollection",
"name": "geo_33_4",
"crs": { "type": "name", "properties": { "name": "urn:ogc:def:crs:OGC:1.3:CRS84" } },
"features": [
{ "type": "Feature", "properties": { "ID": 3344320240525, "正式名称": "Ｍｏｔｈｅｒ’ｓ　ｈｏｕｓｅ　つぼみ", "機関区分": 4, "都道府県コード": 33, "市区町村コード": 202, "所在地": "岡山県倉敷市加須山７５－１", "緯度": 34.586371, "経度": 133.796824, "url": "https://www.iryou.teikyouseido.mhlw.go.jp/znk-web/juminkanja/S2430/initialize?prefCd=33&kikanCd=4320240525&kikanKbn=4", "url2": null, "内容": "Ｍｏｔｈｅｒ’ｓ　ｈｏｕｓｅ　つぼみ【4:助産院】岡山県倉敷市加須山７５－１" }, "geometry": { "type": "Point", "coordinates": [ 133.796824, 34.586371 ] } },
{ "type": "Feature", "properties": { "ID": 3344330000050, "正式名称": "おかやま母乳育児相談室", "機関区分": 4, "都道府県コード": 33, "市区町村コード": 101, "所在地": "岡山県岡山市北区東古松五丁目１２－２５", "緯度": 34.64511, "経度": 133.916072, "url": "https://www.iryou.teikyouseido.mhlw.go.jp/znk-web/juminkanja/S2430/initialize?prefCd=33&kikanCd=4330000050&kikanKbn=4", "url2": "https://okayamabonyuikujisoudanshitsu.jimdofree.com", "内容": "おかやま母乳育児相談室【4:助産院】岡山県岡山市北区東古松五丁目１２－２５" }, "geometry": { "type": "Point", "coordinates": [ 133.916072, 34.64511 ] } },
{ "type": "Feature", "properties": { "ID": 3344330000080, "正式名称": "助産院ミントハウス", "機関区分": 4, "都道府県コード": 33, "市区町村コード": 103, "所在地": "岡山県岡山市東区下阿知８８９", "緯度": 34.625208, "経度": 134.098553, "url": "https://www.iryou.teikyouseido.mhlw.go.jp/znk-web/juminkanja/S2430/initialize?prefCd=33&kikanCd=4330000080&kikanKbn=4", "url2": "http://www4.plala.or.jp/minto-house", "内容": "助産院ミントハウス【4:助産院】岡山県岡山市東区下阿知８８９" }, "geometry": { "type": "Point", "coordinates": [ 134.098553, 34.625208 ] } },
{ "type": "Feature", "properties": { "ID": 3344330000120, "正式名称": "有理助産院", "機関区分": 4, "都道府県コード": 33, "市区町村コード": 104, "所在地": "岡山県岡山市南区新福１－６－２２", "緯度": 34.629082, "経度": 133.934284, "url": "https://www.iryou.teikyouseido.mhlw.go.jp/znk-web/juminkanja/S2430/initialize?prefCd=33&kikanCd=4330000120&kikanKbn=4", "url2": "http://yuuri-jyosanin.jimdo.com/", "内容": "有理助産院【4:助産院】岡山県岡山市南区新福１－６－２２" }, "geometry": { "type": "Point", "coordinates": [ 133.934284, 34.629082 ] } },
{ "type": "Feature", "properties": { "ID": 3344330000130, "正式名称": "倉敷マタニティサービス　かねこ助産院", "機関区分": 4, "都道府県コード": 33, "市区町村コード": 202, "所在地": "岡山県倉敷市広江８－１８－１", "緯度": 34.528788, "経度": 133.791279, "url": "https://www.iryou.teikyouseido.mhlw.go.jp/znk-web/juminkanja/S2430/initialize?prefCd=33&kikanCd=4330000130&kikanKbn=4", "url2": null, "内容": "倉敷マタニティサービス　かねこ助産院【4:助産院】岡山県倉敷市広江８－１８－１" }, "geometry": { "type": "Point", "coordinates": [ 133.791279, 34.528788 ] } },
{ "type": "Feature", "properties": { "ID": 3344330000140, "正式名称": "倉敷医療生活協同組合さくらんぼ助産院", "機関区分": 4, "都道府県コード": 33, "市区町村コード": 202, "所在地": "岡山県倉敷市水島南春日町２番２８号", "緯度": 34.542173, "経度": 133.741816, "url": "https://www.iryou.teikyouseido.mhlw.go.jp/znk-web/juminkanja/S2430/initialize?prefCd=33&kikanCd=4330000140&kikanKbn=4", "url2": "http://sakuranbo6.exblog.jp/", "内容": "倉敷医療生活協同組合さくらんぼ助産院【4:助産院】岡山県倉敷市水島南春日町２番２８号" }, "geometry": { "type": "Point", "coordinates": [ 133.741816, 34.542173 ] } },
{ "type": "Feature", "properties": { "ID": 3344330000150, "正式名称": "たんぽぽ助産院", "機関区分": 4, "都道府県コード": 33, "市区町村コード": 202, "所在地": "岡山県倉敷市中帯江２４番地１１", "緯度": 34.595181, "経度": 133.802598, "url": "https://www.iryou.teikyouseido.mhlw.go.jp/znk-web/juminkanja/S2430/initialize?prefCd=33&kikanCd=4330000150&kikanKbn=4", "url2": "https://www.tanpopo-net.gr.jp/", "内容": "たんぽぽ助産院【4:助産院】岡山県倉敷市中帯江２４番地１１" }, "geometry": { "type": "Point", "coordinates": [ 133.802598, 34.595181 ] } },
{ "type": "Feature", "properties": { "ID": 3344330000160, "正式名称": "ノノハナ母乳育児相談室", "機関区分": 4, "都道府県コード": 33, "市区町村コード": 202, "所在地": "岡山県倉敷市水江１－４３エステート・ピア１０５号室", "緯度": 34.602398, "経度": 133.745222, "url": "https://www.iryou.teikyouseido.mhlw.go.jp/znk-web/juminkanja/S2430/initialize?prefCd=33&kikanCd=4330000160&kikanKbn=4", "url2": null, "内容": "ノノハナ母乳育児相談室【4:助産院】岡山県倉敷市水江１－４３エステート・ピア１０５号室" }, "geometry": { "type": "Point", "coordinates": [ 133.745222, 34.602398 ] } },
{ "type": "Feature", "properties": { "ID": 3344330000170, "正式名称": "花田助産院", "機関区分": 4, "都道府県コード": 33, "市区町村コード": 202, "所在地": "岡山県倉敷市真備町川辺９８－１", "緯度": 34.639561, "経度": 133.715211, "url": "https://www.iryou.teikyouseido.mhlw.go.jp/znk-web/juminkanja/S2430/initialize?prefCd=33&kikanCd=4330000170&kikanKbn=4", "url2": "http://www3.kct.ne.jp/~mama_baby", "内容": "花田助産院【4:助産院】岡山県倉敷市真備町川辺９８－１" }, "geometry": { "type": "Point", "coordinates": [ 133.715211, 34.639561 ] } },
{ "type": "Feature", "properties": { "ID": 3344330000190, "正式名称": "母乳と子育て支援のまみ・みーるーむ", "機関区分": 4, "都道府県コード": 33, "市区町村コード": 346, "所在地": "岡山県和気郡和気町尺所２０８－１", "緯度": 34.800066, "経度": 134.161505, "url": "https://www.iryou.teikyouseido.mhlw.go.jp/znk-web/juminkanja/S2430/initialize?prefCd=33&kikanCd=4330000190&kikanKbn=4", "url2": "http://yuttari.iku4.com/", "内容": "母乳と子育て支援のまみ・みーるーむ【4:助産院】岡山県和気郡和気町尺所２０８－１" }, "geometry": { "type": "Point", "coordinates": [ 134.161505, 34.800066 ] } },
{ "type": "Feature", "properties": { "ID": 3344330000200, "正式名称": "くにさだ助産院", "機関区分": 4, "都道府県コード": 33, "市区町村コード": 205, "所在地": "岡山県笠岡市新賀３３１０", "緯度": 34.55547, "経度": 133.505731, "url": "https://www.iryou.teikyouseido.mhlw.go.jp/znk-web/juminkanja/S2430/initialize?prefCd=33&kikanCd=4330000200&kikanKbn=4", "url2": "http://kunisada.jyosanin.jp", "内容": "くにさだ助産院【4:助産院】岡山県笠岡市新賀３３１０" }, "geometry": { "type": "Point", "coordinates": [ 133.505731, 34.55547 ] } },
{ "type": "Feature", "properties": { "ID": 3344330000220, "正式名称": "みな母乳育児相談室", "機関区分": 4, "都道府県コード": 33, "市区町村コード": 203, "所在地": "岡山県津山市田熊１１８０－４", "緯度": 35.069997, "経度": 134.09247, "url": "https://www.iryou.teikyouseido.mhlw.go.jp/znk-web/juminkanja/S2430/initialize?prefCd=33&kikanCd=4330000220&kikanKbn=4", "url2": null, "内容": "みな母乳育児相談室【4:助産院】岡山県津山市田熊１１８０－４" }, "geometry": { "type": "Point", "coordinates": [ 134.09247, 35.069997 ] } },
{ "type": "Feature", "properties": { "ID": 3344330000300, "正式名称": "マル助産院", "機関区分": 4, "都道府県コード": 33, "市区町村コード": 101, "所在地": "岡山県岡山市北区丸の内２－５－３", "緯度": 34.662762, "経度": 133.936247, "url": "https://www.iryou.teikyouseido.mhlw.go.jp/znk-web/juminkanja/S2430/initialize?prefCd=33&kikanCd=4330000300&kikanKbn=4", "url2": "https://www.marumidwiferyhome.com", "内容": "マル助産院【4:助産院】岡山県岡山市北区丸の内２－５－３" }, "geometry": { "type": "Point", "coordinates": [ 133.936247, 34.662762 ] } },
{ "type": "Feature", "properties": { "ID": 3344330000310, "正式名称": "ももぷりん助産院", "機関区分": 4, "都道府県コード": 33, "市区町村コード": 101, "所在地": "岡山県岡山市北区楢津", "緯度": 34.68543, "経度": 133.87799, "url": "https://www.iryou.teikyouseido.mhlw.go.jp/znk-web/juminkanja/S2430/initialize?prefCd=33&kikanCd=4330000310&kikanKbn=4", "url2": "https://momopurin.jimdosite.com/", "内容": "ももぷりん助産院【4:助産院】岡山県岡山市北区楢津" }, "geometry": { "type": "Point", "coordinates": [ 133.87799, 34.68543 ] } },
{ "type": "Feature", "properties": { "ID": 3344330000320, "正式名称": "母と子の健康相談室　にしお", "機関区分": 4, "都道府県コード": 33, "市区町村コード": 202, "所在地": "岡山県倉敷市真備町箭田６９６－８８", "緯度": 34.632753, "経度": 133.69219, "url": "https://www.iryou.teikyouseido.mhlw.go.jp/znk-web/juminkanja/S2430/initialize?prefCd=33&kikanCd=4330000320&kikanKbn=4", "url2": null, "内容": "母と子の健康相談室　にしお【4:助産院】岡山県倉敷市真備町箭田６９６－８８" }, "geometry": { "type": "Point", "coordinates": [ 133.69219, 34.632753 ] } },
{ "type": "Feature", "properties": { "ID": 3344330000330, "正式名称": "マザーズホームななほし助産院", "機関区分": 4, "都道府県コード": 33, "市区町村コード": 101, "所在地": "岡山県岡山市北区下伊福２丁目２－１８", "緯度": 34.66545, "経度": 133.906154, "url": "https://www.iryou.teikyouseido.mhlw.go.jp/znk-web/juminkanja/S2430/initialize?prefCd=33&kikanCd=4330000330&kikanKbn=4", "url2": "http://amaguriru.wixsite.com/nanahoshi", "内容": "マザーズホームななほし助産院【4:助産院】岡山県岡山市北区下伊福２丁目２－１８" }, "geometry": { "type": "Point", "coordinates": [ 133.906154, 34.66545 ] } },
{ "type": "Feature", "properties": { "ID": 3344330000340, "正式名称": "みちくさ助産院。", "機関区分": 4, "都道府県コード": 33, "市区町村コード": 101, "所在地": "岡山県岡山市北区中仙道二丁目３３－２５", "緯度": 34.647513, "経度": 133.882166, "url": "https://www.iryou.teikyouseido.mhlw.go.jp/znk-web/juminkanja/S2430/initialize?prefCd=33&kikanCd=4330000340&kikanKbn=4", "url2": "http://michikusajyosanin,jimdo.com", "内容": "みちくさ助産院。【4:助産院】岡山県岡山市北区中仙道二丁目３３－２５" }, "geometry": { "type": "Point", "coordinates": [ 133.882166, 34.647513 ] } },
{ "type": "Feature", "properties": { "ID": 3344330000370, "正式名称": "咲月助産院", "機関区分": 4, "都道府県コード": 33, "市区町村コード": 214, "所在地": "岡山県真庭市見尾１４１", "緯度": 35.129435, "経度": 133.707454, "url": "https://www.iryou.teikyouseido.mhlw.go.jp/znk-web/juminkanja/S2430/initialize?prefCd=33&kikanCd=4330000370&kikanKbn=4", "url2": "https://satsukijosanin.amebaownd.com", "内容": "咲月助産院【4:助産院】岡山県真庭市見尾１４１" }, "geometry": { "type": "Point", "coordinates": [ 133.707454, 35.129435 ] } },
{ "type": "Feature", "properties": { "ID": 3344330000380, "正式名称": "うちかど助産院", "機関区分": 4, "都道府県コード": 33, "市区町村コード": 202, "所在地": "岡山県倉敷市児島下の町１０丁目３７６－６８", "緯度": 34.473052, "経度": 133.829864, "url": "https://www.iryou.teikyouseido.mhlw.go.jp/znk-web/juminkanja/S2430/initialize?prefCd=33&kikanCd=4330000380&kikanKbn=4", "url2": "http://uchikado-josanin.com/", "内容": "うちかど助産院【4:助産院】岡山県倉敷市児島下の町１０丁目３７６－６８" }, "geometry": { "type": "Point", "coordinates": [ 133.829864, 34.473052 ] } },
{ "type": "Feature", "properties": { "ID": 3344330000400, "正式名称": "産前産後サロン助産院あいのわ", "機関区分": 4, "都道府県コード": 33, "市区町村コード": 202, "所在地": "岡山県倉敷市西岡１５８４－４", "緯度": 34.618228, "経度": 133.764622, "url": "https://www.iryou.teikyouseido.mhlw.go.jp/znk-web/juminkanja/S2430/initialize?prefCd=33&kikanCd=4330000400&kikanKbn=4", "url2": "https://barbakaorimama.wixsite.com/ainowa", "内容": "産前産後サロン助産院あいのわ【4:助産院】岡山県倉敷市西岡１５８４－４" }, "geometry": { "type": "Point", "coordinates": [ 133.764622, 34.618228 ] } }
]
}
