{
"type": "FeatureCollection",
"name": "geo_33_介護医療院",
"crs": { "type": "name", "properties": { "name": "urn:ogc:def:crs:OGC:1.3:CRS84" } },
"features": [
{ "type": "Feature", "properties": { "内容": "介護医療院　ふくしま【介護医療院】岡山県岡山市北区清心町3番18号", "url": "https://www.kaigokensaku.mhlw.go.jp/33/index.php?action_kouhyou_detail_004_kani=true&JigyosyoCd=33B0100021-00&ServiceCd=550&Type=search", "url2": "https://ivorycobra9.sakura.ne.jp/" }, "geometry": { "type": "Point", "coordinates": [ 133.9183021, 34.6728394 ] } },
{ "type": "Feature", "properties": { "内容": "一般財団法人志清会岡山紀念病院介護医療院【介護医療院】岡山県岡山市北区清輝本町７番２２号", "url": "https://www.kaigokensaku.mhlw.go.jp/33/index.php?action_kouhyou_detail_004_kani=true&JigyosyoCd=33B0100039-00&ServiceCd=550&Type=search", "url2": "http://www.okayamakinen.or.jp" }, "geometry": { "type": "Point", "coordinates": [ 133.9263207, 34.6514733 ] } },
{ "type": "Feature", "properties": { "内容": "介護医療院　みくに【介護医療院】岡山県岡山市中区江崎456-2", "url": "https://www.kaigokensaku.mhlw.go.jp/33/index.php?action_kouhyou_detail_004_kani=true&JigyosyoCd=33B0100013-00&ServiceCd=550&Type=search", "url2": "https://www.okayama-hakuaikai.or.jp/hakuaikai/mikuni/" }, "geometry": { "type": "Point", "coordinates": [ 133.964458799999989, 34.6243075 ] } },
{ "type": "Feature", "properties": { "内容": "介護医療院　ちとせ【介護医療院】岡山県岡山市東区西大寺中野498‐1林　病院・202号室・203号室・303号室・305号室", "url": "https://www.kaigokensaku.mhlw.go.jp/33/index.php?action_kouhyou_detail_004_kani=true&JigyosyoCd=33B0100047-00&ServiceCd=550&Type=search", "url2": "http://hayashi-hsp.com" }, "geometry": { "type": "Point", "coordinates": [ 134.0269463, 34.6558093 ] } },
{ "type": "Feature", "properties": { "内容": "玉島病院介護医療院【介護医療院】玉島乙島4030", "url": "https://www.kaigokensaku.mhlw.go.jp/33/index.php?action_kouhyou_detail_004_kani=true&JigyosyoCd=33B0200029-00&ServiceCd=550&Type=search", "url2": "http://tamashimahosp.or.jp" }, "geometry": { "type": "Point", "coordinates": [ 133.680491, 34.5416241 ] } },
{ "type": "Feature", "properties": { "内容": "介護医療院　おうじ【介護医療院】岡山県倉敷市児島下の町5丁目2番17号", "url": "https://www.kaigokensaku.mhlw.go.jp/33/index.php?action_kouhyou_detail_004_kani=true&JigyosyoCd=33B0200037-00&ServiceCd=550&Type=search", "url2": "http://www.ohji-nouge.or.jp" }, "geometry": { "type": "Point", "coordinates": [ 133.8217678, 34.4775601 ] } },
{ "type": "Feature", "properties": { "内容": "介護医療院　みずいちリハビリ苑【介護医療院】岡山県倉敷市神田２丁目３番３３号", "url": "https://www.kaigokensaku.mhlw.go.jp/33/index.php?action_kouhyou_detail_004_kani=true&JigyosyoCd=33B0200011-00&ServiceCd=550&Type=search", "url2": "https://suiseikai-group.jp/suiseikai/care/mizuichi/" }, "geometry": { "type": "Point", "coordinates": [ 133.739066258335896, 34.542059986345592 ] } },
{ "type": "Feature", "properties": { "内容": "柴田病院介護医療院【介護医療院】玉島乙島6108-1", "url": "https://www.kaigokensaku.mhlw.go.jp/33/index.php?action_kouhyou_detail_004_kani=true&JigyosyoCd=33B0200045-00&ServiceCd=550&Type=search", "url2": "https://shibata-h.jp/" }, "geometry": { "type": "Point", "coordinates": [ 133.6930573, 34.5532957 ] } },
{ "type": "Feature", "properties": { "内容": "介護医療院サンホームつやま【介護医療院】岡山県津山市田町２７", "url": "https://www.kaigokensaku.mhlw.go.jp/33/index.php?action_kouhyou_detail_004_kani=true&JigyosyoCd=33B0300019-00&ServiceCd=550&Type=search", "url2": "http://www.nishishita-hp.or.jp/" }, "geometry": { "type": "Point", "coordinates": [ 133.999764300000038, 35.0636702 ] } },
{ "type": "Feature", "properties": { "内容": "介護医療院かもの郷【介護医療院】岡山県津山市加茂町中原６１番地", "url": "https://www.kaigokensaku.mhlw.go.jp/33/index.php?action_kouhyou_detail_004_kani=true&JigyosyoCd=33B0300027-00&ServiceCd=550&Type=search", "url2": "https://www.jikeikai-net.or.jp" }, "geometry": { "type": "Point", "coordinates": [ 134.052070118385274, 35.176323658842755 ] } },
{ "type": "Feature", "properties": { "内容": "きのこエスポアール介護医療院【介護医療院】岡山県笠岡市東大戸2908", "url": "https://www.kaigokensaku.mhlw.go.jp/33/index.php?action_kouhyou_detail_004_kani=true&JigyosyoCd=33B0500014-00&ServiceCd=550&Type=search", "url2": "http://www.kinoko-group.jp/" }, "geometry": { "type": "Point", "coordinates": [ 133.502424499999989, 34.5527966 ] } },
{ "type": "Feature", "properties": { "内容": "介護医療院くじば苑【介護医療院】岡山県笠岡市笠岡5102-15", "url": "https://www.kaigokensaku.mhlw.go.jp/33/index.php?action_kouhyou_detail_004_kani=true&JigyosyoCd=33B0500022-00&ServiceCd=550&Type=search", "url2": "http://midorijujikai.or.jp/index.html" }, "geometry": { "type": "Point", "coordinates": [ 133.5074239, 34.5117928 ] } },
{ "type": "Feature", "properties": { "内容": "医療法人社団　菅病院　介護医療院【介護医療院】岡山県井原市井原町124", "url": "https://www.kaigokensaku.mhlw.go.jp/33/index.php?action_kouhyou_detail_004_kani=true&JigyosyoCd=33B0700010-00&ServiceCd=550&Type=search", "url2": "https://sugahospital.jp/" }, "geometry": { "type": "Point", "coordinates": [ 133.4637324, 34.5976994 ] } },
{ "type": "Feature", "properties": { "内容": "医療法人慶真会大杉病院介護医療院【介護医療院】岡山県高梁市柿木町28-1", "url": "https://www.kaigokensaku.mhlw.go.jp/33/index.php?action_kouhyou_detail_004_kani=true&JigyosyoCd=33B0900016-00&ServiceCd=550&Type=search", "url2": "http://www.oosugi-hospital.or.jp/" }, "geometry": { "type": "Point", "coordinates": [ 133.6173944, 34.796078 ] } },
{ "type": "Feature", "properties": { "内容": "高梁中央介護医療院【介護医療院】岡山県高梁市南町53", "url": "https://www.kaigokensaku.mhlw.go.jp/33/index.php?action_kouhyou_detail_004_kani=true&JigyosyoCd=33B0900024-00&ServiceCd=550&Type=search", "url2": "http://seiryoukai.jp" }, "geometry": { "type": "Point", "coordinates": [ 133.612275899999986, 34.7878245 ] } },
{ "type": "Feature", "properties": { "内容": "介護医療院わたぼうし【介護医療院】岡山県真庭市本郷1819番地", "url": "https://www.kaigokensaku.mhlw.go.jp/33/index.php?action_kouhyou_detail_004_kani=true&JigyosyoCd=33B3400030-00&ServiceCd=550&Type=search", "url2": "http://www.katsuyama⁻hp.or.jp" }, "geometry": { "type": "Point", "coordinates": [ 133.689051400000011, 35.0838291 ] } },
{ "type": "Feature", "properties": { "内容": "介護医療院clinicSHIRO【介護医療院】岡山県真庭市下河内3142-2", "url": "https://www.kaigokensaku.mhlw.go.jp/33/index.php?action_kouhyou_detail_004_kani=true&JigyosyoCd=33B3400048-00&ServiceCd=550&Type=search", "url2": null }, "geometry": { "type": "Point", "coordinates": [ 133.786061499999988, 35.0308679 ] } },
{ "type": "Feature", "properties": { "内容": "介護医療院　わかば【介護医療院】岡山県真庭市下河内314-2", "url": "https://www.kaigokensaku.mhlw.go.jp/33/index.php?action_kouhyou_detail_004_kani=true&JigyosyoCd=33B3400055-00&ServiceCd=550&Type=search", "url2": null }, "geometry": { "type": "Point", "coordinates": [ 133.7826935, 35.036079600000015 ] } },
{ "type": "Feature", "properties": { "内容": "介護医療院田尻病院【介護医療院】岡山県美作市明見550番地の1", "url": "https://www.kaigokensaku.mhlw.go.jp/33/index.php?action_kouhyou_detail_004_kani=true&JigyosyoCd=33B3700025-00&ServiceCd=550&Type=search", "url2": "https://www.tajirihp.or.jp" }, "geometry": { "type": "Point", "coordinates": [ 134.145879600000029, 35.015831800000022 ] } },
{ "type": "Feature", "properties": { "内容": "介護医療院美作中央病院【介護医療院】明見357-1", "url": "https://www.kaigokensaku.mhlw.go.jp/33/index.php?action_kouhyou_detail_004_kani=true&JigyosyoCd=33B3700017-00&ServiceCd=550&Type=search", "url2": null }, "geometry": { "type": "Point", "coordinates": [ 134.146764, 35.0133597 ] } },
{ "type": "Feature", "properties": { "内容": "北川病院介護医療院【介護医療院】岡山県和気郡和気町和気277", "url": "https://www.kaigokensaku.mhlw.go.jp/33/index.php?action_kouhyou_detail_004_kani=true&JigyosyoCd=33B2300017-00&ServiceCd=550&Type=search", "url2": "http://www.kitagawa-hp.jp/" }, "geometry": { "type": "Point", "coordinates": [ 134.144210199999947, 34.80216020000001 ] } },
{ "type": "Feature", "properties": { "内容": "医療法人木村医院【介護医療院】岡山県都窪郡早島町早島1469番地1", "url": "https://www.kaigokensaku.mhlw.go.jp/33/index.php?action_kouhyou_detail_004_kani=true&JigyosyoCd=33B2600010-00&ServiceCd=550&Type=search", "url2": null }, "geometry": { "type": "Point", "coordinates": [ 133.8253325, 34.6024098 ] } },
{ "type": "Feature", "properties": { "内容": "国定病院介護医療院【介護医療院】岡山県浅口郡里庄町大字浜中９３番地１４１", "url": "https://www.kaigokensaku.mhlw.go.jp/33/index.php?action_kouhyou_detail_004_kani=true&JigyosyoCd=33B2700018-00&ServiceCd=550&Type=search", "url2": "https://hoseikai.jp/" }, "geometry": { "type": "Point", "coordinates": [ 133.5322327, 34.496838400000023 ] } },
{ "type": "Feature", "properties": { "内容": "介護医療院ルミエール【介護医療院】岡山県加賀郡吉備中央町宮地３３３６番地１５吉備高原ルミエール病院", "url": "https://www.kaigokensaku.mhlw.go.jp/33/index.php?action_kouhyou_detail_004_kani=true&JigyosyoCd=33B3900013-00&ServiceCd=550&Type=search", "url2": "http://www.kibi.ne.jp/~rumihp/" }, "geometry": { "type": "Point", "coordinates": [ 133.680066200000027, 34.77325 ] } }
]
}
