{
"type": "FeatureCollection",
"name": "geo_33_短期入所療養介護（介護老人保健施設）",
"crs": { "type": "name", "properties": { "name": "urn:ogc:def:crs:OGC:1.3:CRS84" } },
"features": [
{ "type": "Feature", "properties": { "内容": "介護老人保健施設　葵の園・岡山福渡【短期入所療養介護（介護老人保健施設）】岡山県岡山市北区建部町福渡408-1", "url": "https://www.kaigokensaku.mhlw.go.jp/33/index.php?action_kouhyou_detail_004_kani=true&JigyosyoCd=3350180224-00&ServiceCd=220&Type=search", "url2": "http://www.aoikai.jp/" }, "geometry": { "type": "Point", "coordinates": [ 133.904978148934902, 34.86931492402551 ] } },
{ "type": "Feature", "properties": { "内容": "介護老人保健施設ハートフルかがやき荘【短期入所療養介護（介護老人保健施設）】岡山県岡山市楢津500-5", "url": "https://www.kaigokensaku.mhlw.go.jp/33/index.php?action_kouhyou_detail_004_kani=true&JigyosyoCd=3350180240-00&ServiceCd=220&Type=search", "url2": "http://www.okayama-junshinkai.co.jp/" }, "geometry": { "type": "Point", "coordinates": [ 133.8829442, 34.6787389 ] } },
{ "type": "Feature", "properties": { "内容": "介護老人保健施設　ハートフルきらめき荘【短期入所療養介護（介護老人保健施設）】岡山県岡山市北区楢津305", "url": "https://www.kaigokensaku.mhlw.go.jp/33/index.php?action_kouhyou_detail_004_kani=true&JigyosyoCd=3350180034-00&ServiceCd=220&Type=search", "url2": "https://www.okyama-junshinkai.co.jp/" }, "geometry": { "type": "Point", "coordinates": [ 133.88403550000001, 34.6849869 ] } },
{ "type": "Feature", "properties": { "内容": "介護老人保健施設たちばな苑【短期入所療養介護（介護老人保健施設）】岡山県岡山市北区国体町3番12号", "url": "https://www.kaigokensaku.mhlw.go.jp/33/index.php?action_kouhyou_detail_004_kani=true&JigyosyoCd=3350180182-00&ServiceCd=220&Type=search", "url2": "http://www.okasaisei-life.jp/" }, "geometry": { "type": "Point", "coordinates": [ 133.9203769, 34.673783 ] } },
{ "type": "Feature", "properties": { "内容": "老人保健施設　マスカット苑【短期入所療養介護（介護老人保健施設）】岡山県岡山市北区菅野4281-1", "url": "https://www.kaigokensaku.mhlw.go.jp/33/index.php?action_kouhyou_detail_004_kani=true&JigyosyoCd=3350180158-00&ServiceCd=220&Type=search", "url2": "http://www.isto.or.jp" }, "geometry": { "type": "Point", "coordinates": [ 133.886408500000016, 34.7420001 ] } },
{ "type": "Feature", "properties": { "内容": "介護老人保健施設　光生リハビリ苑【短期入所療養介護（介護老人保健施設）】岡山県岡山市北区厚生町３丁目８番３５号", "url": "https://www.kaigokensaku.mhlw.go.jp/33/index.php?action_kouhyou_detail_004_kani=true&JigyosyoCd=3350180125-00&ServiceCd=220&Type=search", "url2": "http://www.kousei-hp.or.jp/" }, "geometry": { "type": "Point", "coordinates": [ 133.910936200000037, 34.6558786 ] } },
{ "type": "Feature", "properties": { "内容": "介護老人保健施設なでしこ苑【短期入所療養介護（介護老人保健施設）】岡山県岡山市北区国体町３番１２号", "url": "https://www.kaigokensaku.mhlw.go.jp/33/index.php?action_kouhyou_detail_004_kani=true&JigyosyoCd=3350180166-00&ServiceCd=220&Type=search", "url2": "http://www.okasaisei-life.jp" }, "geometry": { "type": "Point", "coordinates": [ 133.9203769, 34.673783 ] } },
{ "type": "Feature", "properties": { "内容": "介護老人保健施設　高松アクティブホーム【短期入所療養介護（介護老人保健施設）】岡山県岡山市北区立田５８７番地", "url": "https://www.kaigokensaku.mhlw.go.jp/33/index.php?action_kouhyou_detail_004_kani=true&JigyosyoCd=3350180174-00&ServiceCd=220&Type=search", "url2": "aku_k@ikenaga-group.ne.jp" }, "geometry": { "type": "Point", "coordinates": [ 133.829867799999988, 34.6843457 ] } },
{ "type": "Feature", "properties": { "内容": "老人保健施設　岡山リハビリテーションホーム【短期入所療養介護（介護老人保健施設）】岡山県岡山市北区谷万成1-6-5", "url": "https://www.kaigokensaku.mhlw.go.jp/33/index.php?action_kouhyou_detail_004_kani=true&JigyosyoCd=3350180042-00&ServiceCd=220&Type=search", "url2": "https//mannari.or.jp" }, "geometry": { "type": "Point", "coordinates": [ 133.8983227, 34.6762139 ] } },
{ "type": "Feature", "properties": { "内容": "介護老人保健施設　備中荘【短期入所療養介護（介護老人保健施設）】岡山県岡山市北区高松原古才６００－５", "url": "https://www.kaigokensaku.mhlw.go.jp/33/index.php?action_kouhyou_detail_004_kani=true&JigyosyoCd=3350180208-00&ServiceCd=220&Type=search", "url2": "https://www.okasaisei-life.jp/facility-list/corp-bicchuso" }, "geometry": { "type": "Point", "coordinates": [ 133.825845800000025, 34.6832736 ] } },
{ "type": "Feature", "properties": { "内容": "老人保健施設ももたろうリハビリセンター【短期入所療養介護（介護老人保健施設）】岡山県岡山市北区下足守1852-1", "url": "https://www.kaigokensaku.mhlw.go.jp/33/index.php?action_kouhyou_detail_004_kani=true&JigyosyoCd=3350180117-00&ServiceCd=220&Type=search", "url2": "http://sdada.juno.bindsite.jp/index.html" }, "geometry": { "type": "Point", "coordinates": [ 133.802216899999962, 34.7171701 ] } },
{ "type": "Feature", "properties": { "内容": "老人保健施設ももたろうリハビリセンター（ユニット）【短期入所療養介護（介護老人保健施設）】岡山県岡山市北区下足守1852-1", "url": "https://www.kaigokensaku.mhlw.go.jp/33/index.php?action_kouhyou_detail_004_kani=true&JigyosyoCd=3350180216-00&ServiceCd=220&Type=search", "url2": "http://sdada.juno.hindsite:jp/rg" }, "geometry": { "type": "Point", "coordinates": [ 133.802251399999989, 34.7171888 ] } },
{ "type": "Feature", "properties": { "内容": "介護老人保健施設　藤崎苑【短期入所療養介護（介護老人保健施設）】岡山県岡山市中区藤崎463", "url": "https://www.kaigokensaku.mhlw.go.jp/33/index.php?action_kouhyou_detail_004_kani=true&JigyosyoCd=3350180067-00&ServiceCd=220&Type=search", "url2": "http://www.ryoyukai.or.jp/" }, "geometry": { "type": "Point", "coordinates": [ 133.971539600000028, 34.6186709 ] } },
{ "type": "Feature", "properties": { "内容": "介護老人保健施設　　恵風苑【短期入所療養介護（介護老人保健施設）】岡山県岡山市中区今在家304-6", "url": "https://www.kaigokensaku.mhlw.go.jp/33/index.php?action_kouhyou_detail_004_kani=true&JigyosyoCd=3350180018-00&ServiceCd=220&Type=search", "url2": "https://www.keifuukai.or.jp/keifuen" }, "geometry": { "type": "Point", "coordinates": [ 133.949532873016324, 34.689486947496079 ] } },
{ "type": "Feature", "properties": { "内容": "介護老人保健施設　日立養力センター【短期入所療養介護（介護老人保健施設）】岡山県岡山市東区吉原247-1", "url": "https://www.kaigokensaku.mhlw.go.jp/33/index.php?action_kouhyou_detail_004_kani=true&JigyosyoCd=3350180091-00&ServiceCd=220&Type=search", "url2": "http://www.saidaiji-hp.or.jp/roken/" }, "geometry": { "type": "Point", "coordinates": [ 134.031304200000022, 34.673316 ] } },
{ "type": "Feature", "properties": { "内容": "介護老人保健施設　はるか【短期入所療養介護（介護老人保健施設）】岡山県岡山市東区西大寺北941", "url": "https://www.kaigokensaku.mhlw.go.jp/33/index.php?action_kouhyou_detail_004_kani=true&JigyosyoCd=3350180232-00&ServiceCd=220&Type=search", "url2": "www.rouken-haruka.or.jp" }, "geometry": { "type": "Point", "coordinates": [ 134.0386231, 34.6631837 ] } },
{ "type": "Feature", "properties": { "内容": "老人保健施設さくら苑リハビリセンター【短期入所療養介護（介護老人保健施設）】岡山県岡山市東区西大寺浜261", "url": "https://www.kaigokensaku.mhlw.go.jp/33/index.php?action_kouhyou_detail_004_kani=true&JigyosyoCd=3350180109-00&ServiceCd=220&Type=search", "url2": "http://www.chuo-fukushikai.jp/sakura/" }, "geometry": { "type": "Point", "coordinates": [ 134.03877609999995, 34.646541 ] } },
{ "type": "Feature", "properties": { "内容": "介護老人保健施設　夕なぎケアセンター【短期入所療養介護（介護老人保健施設）】岡山県岡山市東区宿毛745-1", "url": "https://www.kaigokensaku.mhlw.go.jp/33/index.php?action_kouhyou_detail_004_kani=true&JigyosyoCd=3350180133-00&ServiceCd=220&Type=search", "url2": "https://www.yunagi.jp" }, "geometry": { "type": "Point", "coordinates": [ 134.08533030000001, 34.6230071 ] } },
{ "type": "Feature", "properties": { "内容": "老人保健施設　アルテピアせと【短期入所療養介護（介護老人保健施設）】岡山県岡山市東区瀬戸町江尻711", "url": "https://www.kaigokensaku.mhlw.go.jp/33/index.php?action_kouhyou_detail_004_kani=true&JigyosyoCd=3352280014-00&ServiceCd=220&Type=search", "url2": "http://iwadou.or.jp/" }, "geometry": { "type": "Point", "coordinates": [ 134.0550187, 34.7260029 ] } },
{ "type": "Feature", "properties": { "内容": "老人保健施設　古都の森【短期入所療養介護（介護老人保健施設）】岡山市東区古都南方2815-1", "url": "https://www.kaigokensaku.mhlw.go.jp/33/index.php?action_kouhyou_detail_004_kani=true&JigyosyoCd=3350180141-00&ServiceCd=220&Type=search", "url2": "http://www.mc-mirai.or.jp" }, "geometry": { "type": "Point", "coordinates": [ 134.0186354, 34.68711 ] } },
{ "type": "Feature", "properties": { "内容": "老人保健施設　南岡山ナ－シングホ－ム【短期入所療養介護（介護老人保健施設）】岡山県岡山市南区東畦772-10", "url": "https://www.kaigokensaku.mhlw.go.jp/33/index.php?action_kouhyou_detail_004_kani=true&JigyosyoCd=3350180190-00&ServiceCd=220&Type=search", "url2": "http://www.keiyuu-kai.or.jp" }, "geometry": { "type": "Point", "coordinates": [ 133.881751, 34.6049227 ] } },
{ "type": "Feature", "properties": { "内容": "介護老人保健施設　若宮老人保健センター【短期入所療養介護（介護老人保健施設）】岡山県　岡山市　南区　箕島　3566-１", "url": "https://www.kaigokensaku.mhlw.go.jp/33/index.php?action_kouhyou_detail_004_kani=true&JigyosyoCd=3350180000-00&ServiceCd=220&Type=search", "url2": "https://junfuku.jp/" }, "geometry": { "type": "Point", "coordinates": [ 133.835485, 34.6159934 ] } },
{ "type": "Feature", "properties": { "内容": "老人保健施設やすらぎ【短期入所療養介護（介護老人保健施設）】岡山県岡山市南区築港栄町2-13", "url": "https://www.kaigokensaku.mhlw.go.jp/33/index.php?action_kouhyou_detail_004_kani=true&JigyosyoCd=3350180026-00&ServiceCd=220&Type=search", "url2": "http://www.sato-hp.com" }, "geometry": { "type": "Point", "coordinates": [ 133.944775599999957, 34.6075937 ] } },
{ "type": "Feature", "properties": { "内容": "老人保健施設　ゆめの里【短期入所療養介護（介護老人保健施設）】岡山県岡山市南区川張１２６７", "url": "https://www.kaigokensaku.mhlw.go.jp/33/index.php?action_kouhyou_detail_004_kani=true&JigyosyoCd=3352580017-00&ServiceCd=220&Type=search", "url2": "http://yumeno-sato.com/" }, "geometry": { "type": "Point", "coordinates": [ 133.8605652, 34.5450012 ] } },
{ "type": "Feature", "properties": { "内容": "介護老人保健施設　あいの里リハビリ苑【短期入所療養介護（介護老人保健施設）】岡山県岡山市南区大福950-6", "url": "https://www.kaigokensaku.mhlw.go.jp/33/index.php?action_kouhyou_detail_004_kani=true&JigyosyoCd=3350180083-00&ServiceCd=220&Type=search", "url2": "https://rihabirien.jp" }, "geometry": { "type": "Point", "coordinates": [ 133.891130800000042, 34.6193379 ] } },
{ "type": "Feature", "properties": { "内容": "老健いこいの家【短期入所療養介護（介護老人保健施設）】岡山県倉敷市児島小川9-1-46", "url": "https://www.kaigokensaku.mhlw.go.jp/33/index.php?action_kouhyou_detail_004_kani=true&JigyosyoCd=3350280131-00&ServiceCd=220&Type=search", "url2": "http://tajimanaika.com/06_roukenikoinoie.htm" }, "geometry": { "type": "Point", "coordinates": [ 133.800364122615065, 34.48890539503882 ] } },
{ "type": "Feature", "properties": { "内容": "介護老人保健施設ニューエルダーセンター【短期入所療養介護（介護老人保健施設）】岡山県倉敷市玉島１３３４－１", "url": "https://www.kaigokensaku.mhlw.go.jp/33/index.php?action_kouhyou_detail_004_kani=true&JigyosyoCd=3350280016-00&ServiceCd=220&Type=search", "url2": "http://www.newelder" }, "geometry": { "type": "Point", "coordinates": [ 133.682440499999984, 34.5485417 ] } },
{ "type": "Feature", "properties": { "内容": "介護老人保健施設　グリーンピース【短期入所療養介護（介護老人保健施設）】岡山県倉敷市新田２７９１－４", "url": "https://www.kaigokensaku.mhlw.go.jp/33/index.php?action_kouhyou_detail_004_kani=true&JigyosyoCd=3350280123-00&ServiceCd=220&Type=search", "url2": "http://www.mutu.jp/" }, "geometry": { "type": "Point", "coordinates": [ 133.777017399999977, 34.5758337 ] } },
{ "type": "Feature", "properties": { "内容": "介護老人保健施設　亀龍園【短期入所療養介護（介護老人保健施設）】岡山県倉敷市亀山６７９－１", "url": "https://www.kaigokensaku.mhlw.go.jp/33/index.php?action_kouhyou_detail_004_kani=true&JigyosyoCd=3350280065-00&ServiceCd=220&Type=search", "url2": "http://www.touzankai.or.jp" }, "geometry": { "type": "Point", "coordinates": [ 133.8022373, 34.5884163 ] } },
{ "type": "Feature", "properties": { "内容": "玉島中央老健施設秀明荘【短期入所療養介護（介護老人保健施設）】岡山県倉敷市玉島中央町１－４－８", "url": "https://www.kaigokensaku.mhlw.go.jp/33/index.php?action_kouhyou_detail_004_kani=true&JigyosyoCd=3350280057-00&ServiceCd=220&Type=search", "url2": "http://www.tamashima-ch.or.jp" }, "geometry": { "type": "Point", "coordinates": [ 133.672972100000038, 34.5466113 ] } },
{ "type": "Feature", "properties": { "内容": "介護老人保健施設　和光園【短期入所療養介護（介護老人保健施設）】岡山県倉敷市東塚５丁目４番５０号", "url": "https://www.kaigokensaku.mhlw.go.jp/33/index.php?action_kouhyou_detail_004_kani=true&JigyosyoCd=3350280107-00&ServiceCd=220&Type=search", "url2": "http://www.wakokai.com" }, "geometry": { "type": "Point", "coordinates": [ 133.763327900000036, 34.5311476 ] } },
{ "type": "Feature", "properties": { "内容": "介護老人保健施設サンライフ倉敷【短期入所療養介護（介護老人保健施設）】岡山県倉敷市下庄700-1", "url": "https://www.kaigokensaku.mhlw.go.jp/33/index.php?action_kouhyou_detail_004_kani=true&JigyosyoCd=3350280099-00&ServiceCd=220&Type=search", "url2": "https://suiseikai-group.jp/heiseikai/" }, "geometry": { "type": "Point", "coordinates": [ 133.823852699999946, 34.6368004 ] } },
{ "type": "Feature", "properties": { "内容": "老人保健施設　老健あかね【短期入所療養介護（介護老人保健施設）】岡山県倉敷市水島東千鳥町１番６０号", "url": "https://www.kaigokensaku.mhlw.go.jp/33/index.php?action_kouhyou_detail_004_kani=true&JigyosyoCd=3350280073-00&ServiceCd=220&Type=search", "url2": "http://coopreha.jp/" }, "geometry": { "type": "Point", "coordinates": [ 133.740114281614751, 34.528629464357437 ] } },
{ "type": "Feature", "properties": { "内容": "介護老人保健施設　倉敷あいあいえん【短期入所療養介護（介護老人保健施設）】岡山県倉敷市串田６６０番地", "url": "https://www.kaigokensaku.mhlw.go.jp/33/index.php?action_kouhyou_detail_004_kani=true&JigyosyoCd=3350280081-00&ServiceCd=220&Type=search", "url2": "http://www.warakukai.com/aiaien01.htm" }, "geometry": { "type": "Point", "coordinates": [ 133.812907900000027, 34.5433056 ] } },
{ "type": "Feature", "properties": { "内容": "介護老人保健施設　　福寿荘【短期入所療養介護（介護老人保健施設）】岡山県倉敷市中島831", "url": "https://www.kaigokensaku.mhlw.go.jp/33/index.php?action_kouhyou_detail_004_kani=true&JigyosyoCd=3350280024-00&ServiceCd=220&Type=search", "url2": "http://www.seiwakai-net.or.jp/fukuju/index.html" }, "geometry": { "type": "Point", "coordinates": [ 133.73986622631989, 34.5791028 ] } },
{ "type": "Feature", "properties": { "内容": "介護老人保健施設　エスポアール城西【短期入所療養介護（介護老人保健施設）】岡山県津山市田町151－5－1", "url": "https://www.kaigokensaku.mhlw.go.jp/33/index.php?action_kouhyou_detail_004_kani=true&JigyosyoCd=3350380006-00&ServiceCd=220&Type=search", "url2": "http://tokufuu.or.jp/jyousai" }, "geometry": { "type": "Point", "coordinates": [ 133.995919889813194, 35.063644904386138 ] } },
{ "type": "Feature", "properties": { "内容": "老人保健施設　のぞみ苑【短期入所療養介護（介護老人保健施設）】岡山県津山市川崎554-5", "url": "https://www.kaigokensaku.mhlw.go.jp/33/index.php?action_kouhyou_detail_004_kani=true&JigyosyoCd=3350380014-00&ServiceCd=220&Type=search", "url2": "http://www.toukou.or.jp/nozomi.htm" }, "geometry": { "type": "Point", "coordinates": [ 134.025111795605085, 35.062660566613744 ] } },
{ "type": "Feature", "properties": { "内容": "介護老人保健施設　津山ナーシングホーム【短期入所療養介護（介護老人保健施設）】岡山県津山市野介代1656-1", "url": "https://www.kaigokensaku.mhlw.go.jp/33/index.php?action_kouhyou_detail_004_kani=true&JigyosyoCd=3350380022-00&ServiceCd=220&Type=search", "url2": "http://www.nihonbara.or.jp/" }, "geometry": { "type": "Point", "coordinates": [ 134.036109, 35.0781487 ] } },
{ "type": "Feature", "properties": { "内容": "介護老人保健施設ケアガーデン津山【短期入所療養介護（介護老人保健施設）】岡山県津山市河辺３３２－１", "url": "https://www.kaigokensaku.mhlw.go.jp/33/index.php?action_kouhyou_detail_004_kani=true&JigyosyoCd=3350380030-00&ServiceCd=220&Type=search", "url2": "http://www.ranwakai.or.jp" }, "geometry": { "type": "Point", "coordinates": [ 134.052296899999988, 35.0614038 ] } },
{ "type": "Feature", "properties": { "内容": "介護老人保健施設おとなの学校岡山校【短期入所療養介護（介護老人保健施設）】岡山県津山市日本原３５２", "url": "https://www.kaigokensaku.mhlw.go.jp/33/index.php?action_kouhyou_detail_004_kani=true&JigyosyoCd=3353680014-00&ServiceCd=220&Type=search", "url2": "http;//www.nihonbara.com" }, "geometry": { "type": "Point", "coordinates": [ 134.132151300000032, 35.11113 ] } },
{ "type": "Feature", "properties": { "内容": "岡山赤十字老人保健施設　玉野マリンホーム【短期入所療養介護（介護老人保健施設）】岡山県玉野市築港5丁目16番25号", "url": "https://www.kaigokensaku.mhlw.go.jp/33/index.php?action_kouhyou_detail_004_kani=true&JigyosyoCd=3350480012-00&ServiceCd=220&Type=search", "url2": "https://www.okaseki-tamano.jrc.or.jp/" }, "geometry": { "type": "Point", "coordinates": [ 133.958755600000018, 34.4985459 ] } },
{ "type": "Feature", "properties": { "内容": "短期入所療養介護笠岡すみれ苑【短期入所療養介護（介護老人保健施設）】岡山県笠岡市笠岡1080-1", "url": "https://www.kaigokensaku.mhlw.go.jp/33/index.php?action_kouhyou_detail_004_kani=true&JigyosyoCd=3370501011-00&ServiceCd=220&Type=search", "url2": "http://spx.or.jp/" }, "geometry": { "type": "Point", "coordinates": [ 133.519006206745871, 34.509325145570543 ] } },
{ "type": "Feature", "properties": { "内容": "介護老人保健施設　瀬戸いこい苑【短期入所療養介護（介護老人保健施設）】岡山県笠岡市横島1944-1", "url": "https://www.kaigokensaku.mhlw.go.jp/33/index.php?action_kouhyou_detail_004_kani=true&JigyosyoCd=3350580050-00&ServiceCd=220&Type=search", "url2": "http://www.kasaoka-d-hp.or.jp" }, "geometry": { "type": "Point", "coordinates": [ 133.519846599999937, 34.4785581 ] } },
{ "type": "Feature", "properties": { "内容": "こうのしま介護老人保健施設【短期入所療養介護（介護老人保健施設）】岡山県笠岡市神島3628-3", "url": "https://www.kaigokensaku.mhlw.go.jp/33/index.php?action_kouhyou_detail_004_kani=true&JigyosyoCd=3350580035-00&ServiceCd=220&Type=search", "url2": "http://www.tenjinkai.org/" }, "geometry": { "type": "Point", "coordinates": [ 133.509061510450749, 34.471796859269737 ] } },
{ "type": "Feature", "properties": { "内容": "介護老人保健施設　ナーシングホーム大樹【短期入所療養介護（介護老人保健施設）】岡山県総社市黒尾232", "url": "https://www.kaigokensaku.mhlw.go.jp/33/index.php?action_kouhyou_detail_004_kani=true&JigyosyoCd=3350880013-00&ServiceCd=220&Type=search", "url2": "http://www.koudou-kai.or.jp" }, "geometry": { "type": "Point", "coordinates": [ 133.771283499999981, 34.6953219 ] } },
{ "type": "Feature", "properties": { "内容": "介護老人保健施設泉リハビリセンター【短期入所療養介護（介護老人保健施設）】岡山県総社市小寺９９５番地の１", "url": "https://www.kaigokensaku.mhlw.go.jp/33/index.php?action_kouhyou_detail_004_kani=true&JigyosyoCd=3350880005-00&ServiceCd=220&Type=search", "url2": "http://kyk-mc.or.jp/" }, "geometry": { "type": "Point", "coordinates": [ 133.74648590000001, 34.6878698 ] } },
{ "type": "Feature", "properties": { "内容": "高梁市国民健康保険成羽病院附属介護老人保健施設ひだまり苑【短期入所療養介護（介護老人保健施設）】岡山県高梁市川上町2337-1", "url": "https://www.kaigokensaku.mhlw.go.jp/33/index.php?action_kouhyou_detail_004_kani=true&JigyosyoCd=3353280013-00&ServiceCd=220&Type=search", "url2": null }, "geometry": { "type": "Point", "coordinates": [ 133.6168529, 34.7910378 ] } },
{ "type": "Feature", "properties": { "内容": "老人保健施設ゆうゆう村【短期入所療養介護（介護老人保健施設）】岡山県高梁市東町１８６６番地の３", "url": "https://www.kaigokensaku.mhlw.go.jp/33/index.php?action_kouhyou_detail_004_kani=true&JigyosyoCd=3350980003-00&ServiceCd=220&Type=search", "url2": "http://seiryoukai.jp/yuyu/index.html" }, "geometry": { "type": "Point", "coordinates": [ 133.61533529999997, 34.7922114 ] } },
{ "type": "Feature", "properties": { "内容": "介護老人保健施設くろかみ【短期入所療養介護（介護老人保健施設）】岡山県新見市高尾２３０６－５", "url": "https://www.kaigokensaku.mhlw.go.jp/33/index.php?action_kouhyou_detail_004_kani=true&JigyosyoCd=3351080001-00&ServiceCd=220&Type=search", "url2": "http://www.kurokami.jp/" }, "geometry": { "type": "Point", "coordinates": [ 133.447087900000042, 34.9936833 ] } },
{ "type": "Feature", "properties": { "内容": "哲多町介護老人保健施設すずらん【短期入所療養介護（介護老人保健施設）】新見市哲多町本郷１２２３－３", "url": "https://www.kaigokensaku.mhlw.go.jp/33/index.php?action_kouhyou_detail_004_kani=true&JigyosyoCd=3371000377-00&ServiceCd=220&Type=search", "url2": "http://www.miic.ac.jp" }, "geometry": { "type": "Point", "coordinates": [ 133.442785299999969, 34.9365762 ] } },
{ "type": "Feature", "properties": { "内容": "介護老人保健施設　備前閑谷苑【短期入所療養介護（介護老人保健施設）】岡山県備前市木谷217-1", "url": "https://www.kaigokensaku.mhlw.go.jp/33/index.php?action_kouhyou_detail_004_kani=true&JigyosyoCd=3351180017-00&ServiceCd=220&Type=search", "url2": "http//www.mycaregarden.jp/sizutanien/pc" }, "geometry": { "type": "Point", "coordinates": [ 134.222163799999947, 34.7627268 ] } },
{ "type": "Feature", "properties": { "内容": "備前市介護老人保健施設備前さつき苑【短期入所療養介護（介護老人保健施設）】岡山県備前市伊部２２３１－１", "url": "https://www.kaigokensaku.mhlw.go.jp/33/index.php?action_kouhyou_detail_004_kani=true&JigyosyoCd=3351180025-00&ServiceCd=220&Type=search", "url2": "http://www.city.bizen.okayama.jp/shimin/shisetsu/bizenhospital/satsukien/satsukien.jsp" }, "geometry": { "type": "Point", "coordinates": [ 134.155218699999978, 34.7395731 ] } },
{ "type": "Feature", "properties": { "内容": "老人保健施設　邑久ナーシングホーム　短期入所療養介護【短期入所療養介護（介護老人保健施設）】岡山県瀬戸内市邑久町箕輪266-1", "url": "https://www.kaigokensaku.mhlw.go.jp/33/index.php?action_kouhyou_detail_004_kani=true&JigyosyoCd=3352480002-00&ServiceCd=220&Type=search", "url2": null }, "geometry": { "type": "Point", "coordinates": [ 134.090935350926173, 34.68436071074575 ] } },
{ "type": "Feature", "properties": { "内容": "医療法人睦会　老人保健施設ひかり苑【短期入所療養介護（介護老人保健施設）】岡山県赤磐市長尾161", "url": "https://www.kaigokensaku.mhlw.go.jp/33/index.php?action_kouhyou_detail_004_kani=true&JigyosyoCd=3352280006-00&ServiceCd=220&Type=search", "url2": "http://www.akaiwa-hikarien.jp" }, "geometry": { "type": "Point", "coordinates": [ 134.017609, 34.7335083 ] } },
{ "type": "Feature", "properties": { "内容": "介護老人保健施設ゆうあい【短期入所療養介護（介護老人保健施設）】岡山県真庭市勝山１０７０", "url": "https://www.kaigokensaku.mhlw.go.jp/33/index.php?action_kouhyou_detail_004_kani=true&JigyosyoCd=3353480035-00&ServiceCd=220&Type=search", "url2": "https://www.maniwa.tch.or.jp/rokenyuai/" }, "geometry": { "type": "Point", "coordinates": [ 133.697556800000029, 35.0842948 ] } },
{ "type": "Feature", "properties": { "内容": "老人保健施設　白梅の丘【短期入所療養介護（介護老人保健施設）】岡山県真庭市上市瀬３６８番地", "url": "https://www.kaigokensaku.mhlw.go.jp/33/index.php?action_kouhyou_detail_004_kani=true&JigyosyoCd=3353480027-00&ServiceCd=220&Type=search", "url2": "http://shiraume-hill.jp/" }, "geometry": { "type": "Point", "coordinates": [ 133.744291241000354, 35.029265258674158 ] } },
{ "type": "Feature", "properties": { "内容": "老人保健施設　信愛苑【短期入所療養介護（介護老人保健施設）】岡山県真庭市下河内314-2", "url": "https://www.kaigokensaku.mhlw.go.jp/33/index.php?action_kouhyou_detail_004_kani=true&JigyosyoCd=3353480076-00&ServiceCd=220&Type=search", "url2": "https://shinmina.care/" }, "geometry": { "type": "Point", "coordinates": [ 133.7826935, 35.0360796 ] } },
{ "type": "Feature", "properties": { "内容": "美作市立作東老人保健施設【短期入所療養介護（介護老人保健施設）】岡山県美作市江見２８０", "url": "https://www.kaigokensaku.mhlw.go.jp/33/index.php?action_kouhyou_detail_004_kani=true&JigyosyoCd=3353780004-00&ServiceCd=220&Type=search", "url2": "http://www.city.mimasaka.lg.jp" }, "geometry": { "type": "Point", "coordinates": [ 134.22530329999995, 35.0133252 ] } },
{ "type": "Feature", "properties": { "内容": "介護老人保健施設　美作リハビリテーションホーム【短期入所療養介護（介護老人保健施設）】岡山県美作市豊国原1057-1", "url": "https://www.kaigokensaku.mhlw.go.jp/33/index.php?action_kouhyou_detail_004_kani=true&JigyosyoCd=3353780012-00&ServiceCd=220&Type=search", "url2": "https://houkai.jp/" }, "geometry": { "type": "Point", "coordinates": [ 134.1595298, 35.02128 ] } },
{ "type": "Feature", "properties": { "内容": "介護老人保健施設サンパレス桃花【短期入所療養介護（介護老人保健施設）】岡山県浅口市鴨方町六条院中1329", "url": "https://www.kaigokensaku.mhlw.go.jp/33/index.php?action_kouhyou_detail_004_kani=true&JigyosyoCd=3352780021-00&ServiceCd=220&Type=search", "url2": "httpｓ://www.sunpalacetouka2.com/." }, "geometry": { "type": "Point", "coordinates": [ 133.578430499999968, 34.5214482 ] } },
{ "type": "Feature", "properties": { "内容": "岡山県浅口市金光町占見新田７４０番地【短期入所療養介護（介護老人保健施設）】岡山県浅口市金光町占見新田７４０", "url": "https://www.kaigokensaku.mhlw.go.jp/33/index.php?action_kouhyou_detail_004_kani=true&JigyosyoCd=3352780062-00&ServiceCd=220&Type=search", "url2": "https://konkohp.jp/" }, "geometry": { "type": "Point", "coordinates": [ 133.626536100000067, 34.5421424 ] } },
{ "type": "Feature", "properties": { "内容": "介護老人保健施設いるかの家リハビリテーションセンター（ユニット型）【短期入所療養介護（介護老人保健施設）】岡山県浅口市寄島町１６０８９－１６", "url": "https://www.kaigokensaku.mhlw.go.jp/33/index.php?action_kouhyou_detail_004_kani=true&JigyosyoCd=3372701106-00&ServiceCd=220&Type=search", "url2": "http://iruka.or.jp/" }, "geometry": { "type": "Point", "coordinates": [ 133.5865854, 34.4762926 ] } },
{ "type": "Feature", "properties": { "内容": "介護老人保健施設いるかの家リハビリテーションセンター【短期入所療養介護（介護老人保健施設）】寄島町１６０８９－１６", "url": "https://www.kaigokensaku.mhlw.go.jp/33/index.php?action_kouhyou_detail_004_kani=true&JigyosyoCd=3352780039-00&ServiceCd=220&Type=search", "url2": "http://www.iruka.or.jp/" }, "geometry": { "type": "Point", "coordinates": [ 133.586397577246089, 34.476312355440285 ] } },
{ "type": "Feature", "properties": { "内容": "老人保健施設エスペランスわけ【短期入所療養介護（介護老人保健施設）】岡山県和気郡和気町和気２６５", "url": "https://www.kaigokensaku.mhlw.go.jp/33/index.php?action_kouhyou_detail_004_kani=true&JigyosyoCd=3352380004-00&ServiceCd=220&Type=search", "url2": "http://esperance.or.jp/" }, "geometry": { "type": "Point", "coordinates": [ 134.145214900000042, 34.8029016 ] } },
{ "type": "Feature", "properties": { "内容": "里庄町介護老人保健施設里見川荘　短期入所療養介護【短期入所療養介護（介護老人保健施設）】岡山県浅口郡里庄町大字里見７３５０番地", "url": "https://www.kaigokensaku.mhlw.go.jp/33/index.php?action_kouhyou_detail_004_kani=true&JigyosyoCd=3372701072-00&ServiceCd=220&Type=search", "url2": "http://hoseikai.jp/?page_id=1362" }, "geometry": { "type": "Point", "coordinates": [ 133.565881600000012, 34.5242228 ] } },
{ "type": "Feature", "properties": { "内容": "介護老人保健施設　リハヴィラ　ポルソ矢掛【短期入所療養介護（介護老人保健施設）】岡山県小田郡矢掛町横谷1497番地", "url": "https://www.kaigokensaku.mhlw.go.jp/33/index.php?action_kouhyou_detail_004_kani=true&JigyosyoCd=3352880011-00&ServiceCd=220&Type=search", "url2": "https://polso-yakage.jimdofree.com/" }, "geometry": { "type": "Point", "coordinates": [ 133.625236291946294, 34.606870917074545 ] } },
{ "type": "Feature", "properties": { "内容": "矢掛町介護老人保健施設たかつま荘【短期入所療養介護（介護老人保健施設）】岡山県小田郡矢掛町矢掛２６９５－２", "url": "https://www.kaigokensaku.mhlw.go.jp/33/index.php?action_kouhyou_detail_004_kani=true&JigyosyoCd=3352880003-00&ServiceCd=220&Type=search", "url2": null }, "geometry": { "type": "Point", "coordinates": [ 133.5871297, 34.6287819 ] } },
{ "type": "Feature", "properties": { "内容": "一般財団法人　共愛会　老人保健施設　虹【短期入所療養介護（介護老人保健施設）】岡山県苫田郡鏡野町古川1406", "url": "https://www.kaigokensaku.mhlw.go.jp/33/index.php?action_kouhyou_detail_004_kani=true&JigyosyoCd=3353580024-00&ServiceCd=220&Type=search", "url2": "http://www.kyouaikai.or.jp" }, "geometry": { "type": "Point", "coordinates": [ 133.9360739, 35.0723187 ] } },
{ "type": "Feature", "properties": { "内容": "老人保健施設勝央苑【短期入所療養介護（介護老人保健施設）】岡山県勝田郡勝央町平242-1", "url": "https://www.kaigokensaku.mhlw.go.jp/33/index.php?action_kouhyou_detail_004_kani=true&JigyosyoCd=3353680030-00&ServiceCd=220&Type=search", "url2": "http://www.bloominglife.or.jp/" }, "geometry": { "type": "Point", "coordinates": [ 134.115370718910157, 35.043172665637357 ] } },
{ "type": "Feature", "properties": { "内容": "さとう記念病院老人保健施設【短期入所療養介護（介護老人保健施設）】岡山県勝田郡勝央町黒土45", "url": "https://www.kaigokensaku.mhlw.go.jp/33/index.php?action_kouhyou_detail_004_kani=true&JigyosyoCd=3353680022-00&ServiceCd=220&Type=search", "url2": "http://www.satoukinen.or.jp/" }, "geometry": { "type": "Point", "coordinates": [ 134.127451299999962, 35.0283719 ] } },
{ "type": "Feature", "properties": { "内容": "医療法人　三憲会　介護老人保健施設　エリシウム柵原【短期入所療養介護（介護老人保健施設）】岡山県久米郡美咲町吉ヶ原981-1", "url": "https://www.kaigokensaku.mhlw.go.jp/33/index.php?action_kouhyou_detail_004_kani=true&JigyosyoCd=3353880002-00&ServiceCd=220&Type=search", "url2": "elysiumyanahara.jp" }, "geometry": { "type": "Point", "coordinates": [ 134.072329200000013, 34.9443083 ] } },
{ "type": "Feature", "properties": { "内容": "老人保健施設ルミエール【短期入所療養介護（介護老人保健施設）】岡山県加賀郡吉備中央町宮地３３３６－８", "url": "https://www.kaigokensaku.mhlw.go.jp/33/index.php?action_kouhyou_detail_004_kani=true&JigyosyoCd=3353180007-00&ServiceCd=220&Type=search", "url2": null }, "geometry": { "type": "Point", "coordinates": [ 133.681022200000029, 34.7731167 ] } },
{ "type": "Feature", "properties": { "内容": "吉備高原総合福祉センター　介護老人保健施設つつじ苑【短期入所療養介護（介護老人保健施設）】岡山県加賀郡吉備中央町吉川7531", "url": "https://www.kaigokensaku.mhlw.go.jp/33/index.php?action_kouhyou_detail_004_kani=true&JigyosyoCd=3353980000-00&ServiceCd=220&Type=search", "url2": "https://momotarogroup.com/" }, "geometry": { "type": "Point", "coordinates": [ 133.763061099999959, 34.8443465 ] } }
]
}
