{
"type": "FeatureCollection",
"name": "geo_33_訪問看護",
"crs": { "type": "name", "properties": { "name": "urn:ogc:def:crs:OGC:1.3:CRS84" } },
"features": [
{ "type": "Feature", "properties": { "内容": "きらめき訪問看護ステーション【訪問看護】岡山県岡山市北区楢津３１０－１", "url": "https://www.kaigokensaku.mhlw.go.jp/33/index.php?action_kouhyou_detail_004_kani=true&JigyosyoCd=3360190049-00&ServiceCd=130&Type=search", "url2": "http://www.okayama-junshinkai.co.jp" }, "geometry": { "type": "Point", "coordinates": [ 133.8869436, 34.6797583 ] } },
{ "type": "Feature", "properties": { "内容": "のぞみ訪問看護ステーション【訪問看護】岡山市北区神田町1丁目9-46", "url": "https://www.kaigokensaku.mhlw.go.jp/33/index.php?action_kouhyou_detail_004_kani=true&JigyosyoCd=3360190916-00&ServiceCd=130&Type=search", "url2": "http://nozomi-cl.or.jp/" }, "geometry": { "type": "Point", "coordinates": [ 133.920189848410018, 34.639730159700953 ] } },
{ "type": "Feature", "properties": { "内容": "岡山市久米南町組合立訪問看護ステーション【訪問看護】岡山県岡山市北区建部町福渡1003-5", "url": "https://www.kaigokensaku.mhlw.go.jp/33/index.php?action_kouhyou_detail_004_kani=true&JigyosyoCd=3362190013-00&ServiceCd=130&Type=search", "url2": null }, "geometry": { "type": "Point", "coordinates": [ 133.906481900000017, 34.8653679 ] } },
{ "type": "Feature", "properties": { "内容": "渡辺医院【訪問看護】岡山県岡山市北区吉備津1022-6", "url": "https://www.kaigokensaku.mhlw.go.jp/33/index.php?action_kouhyou_detail_004_kani=true&JigyosyoCd=3310114222-00&ServiceCd=130&Type=search", "url2": "http://www.myclinic.ne.jp/wata_clinic" }, "geometry": { "type": "Point", "coordinates": [ 133.845123400000034, 34.6733109 ] } },
{ "type": "Feature", "properties": { "内容": "ホームナーシング月夜【訪問看護】牟佐７７０－６", "url": "https://www.kaigokensaku.mhlw.go.jp/33/index.php?action_kouhyou_detail_004_kani=true&JigyosyoCd=3360190791-00&ServiceCd=130&Type=search", "url2": "http://hn-tsukiyo.jimdo.com/" }, "geometry": { "type": "Point", "coordinates": [ 133.981900399999972, 34.7223455 ] } },
{ "type": "Feature", "properties": { "内容": "訪問看護ステーション伴【訪問看護】岡山市北区清輝橋1丁目4−174F", "url": "https://www.kaigokensaku.mhlw.go.jp/33/index.php?action_kouhyou_detail_004_kani=true&JigyosyoCd=3360191179-00&ServiceCd=130&Type=search", "url2": "Http://j-feel.co.jp" }, "geometry": { "type": "Point", "coordinates": [ 133.9255494, 34.6517155 ] } },
{ "type": "Feature", "properties": { "内容": "アーク訪問看護ステーション中仙道店【訪問看護】岡山県岡山市北区中仙道２丁目２７－１中仙道ウエストビル", "url": "https://www.kaigokensaku.mhlw.go.jp/33/index.php?action_kouhyou_detail_004_kani=true&JigyosyoCd=3360191385-00&ServiceCd=130&Type=search", "url2": null }, "geometry": { "type": "Point", "coordinates": [ 133.882418182482468, 34.645640484286126 ] } },
{ "type": "Feature", "properties": { "内容": "あおぞら訪問看護ステーション岡山大安寺【訪問看護】高柳西町１３－１２饗のまち大安寺", "url": "https://www.kaigokensaku.mhlw.go.jp/33/index.php?action_kouhyou_detail_004_kani=true&JigyosyoCd=3360191476-00&ServiceCd=130&Type=search", "url2": null }, "geometry": { "type": "Point", "coordinates": [ 133.8942173, 34.6612038 ] } },
{ "type": "Feature", "properties": { "内容": "訪問看護ステーション　ウェルメ【訪問看護】北区厚生町1丁目12-6", "url": "https://www.kaigokensaku.mhlw.go.jp/33/index.php?action_kouhyou_detail_004_kani=true&JigyosyoCd=3360191559-00&ServiceCd=130&Type=search", "url2": null }, "geometry": { "type": "Point", "coordinates": [ 133.914807599999989, 34.6543731 ] } },
{ "type": "Feature", "properties": { "内容": "医心館訪問看護ステーション岡山【訪問看護】岡山県岡山市北区北長瀬表町三丁目15番22号", "url": "https://www.kaigokensaku.mhlw.go.jp/33/index.php?action_kouhyou_detail_004_kani=true&JigyosyoCd=3360191666-00&ServiceCd=130&Type=search", "url2": null }, "geometry": { "type": "Point", "coordinates": [ 133.882692600000013, 34.6499136 ] } },
{ "type": "Feature", "properties": { "内容": "あさがお訪問看護ステーション【訪問看護】岡山県岡山市北区奥田二丁目2番6-102号", "url": "https://www.kaigokensaku.mhlw.go.jp/33/index.php?action_kouhyou_detail_004_kani=true&JigyosyoCd=3360190528-00&ServiceCd=130&Type=search", "url2": null }, "geometry": { "type": "Point", "coordinates": [ 133.921119194834802, 34.644360177939205 ] } },
{ "type": "Feature", "properties": { "内容": "岡山市北区富町2-14-14　RKスタジオA【訪問看護】富町2-14-14RKスタジオA", "url": "https://www.kaigokensaku.mhlw.go.jp/33/index.php?action_kouhyou_detail_004_kani=true&JigyosyoCd=3360191773-00&ServiceCd=130&Type=search", "url2": null }, "geometry": { "type": "Point", "coordinates": [ 133.9083757, 34.66467560000001 ] } },
{ "type": "Feature", "properties": { "内容": "岡山水清会病院訪問看護ステーション【訪問看護】岡山市北区平野1000-3", "url": "https://www.kaigokensaku.mhlw.go.jp/33/index.php?action_kouhyou_detail_004_kani=true&JigyosyoCd=3360191567-00&ServiceCd=130&Type=search", "url2": "https://suiseikai-group.jp" }, "geometry": { "type": "Point", "coordinates": [ 133.857312, 34.6473031 ] } },
{ "type": "Feature", "properties": { "内容": "医療法人正善会今井医院【訪問看護】岡山市北区西辛川２６９番地１", "url": "https://www.kaigokensaku.mhlw.go.jp/33/index.php?action_kouhyou_detail_004_kani=true&JigyosyoCd=3310111491-00&ServiceCd=130&Type=search", "url2": "https://www.seizenkai-imai-clinic.com" }, "geometry": { "type": "Point", "coordinates": [ 133.863474200000041, 34.68076580000001 ] } },
{ "type": "Feature", "properties": { "内容": "同仁病院【訪問看護】岡山市北区下伊福上町15-7", "url": "https://www.kaigokensaku.mhlw.go.jp/33/index.php?action_kouhyou_detail_004_kani=true&JigyosyoCd=3310112911-00&ServiceCd=130&Type=search", "url2": "http://oozorakai.com/dojin/" }, "geometry": { "type": "Point", "coordinates": [ 133.903122899999971, 34.6679185 ] } },
{ "type": "Feature", "properties": { "内容": "はだ医院【訪問看護】岡山県岡山市北区大元上町12-10", "url": "https://www.kaigokensaku.mhlw.go.jp/33/index.php?action_kouhyou_detail_004_kani=true&JigyosyoCd=3310115666-00&ServiceCd=130&Type=search", "url2": "http://www.hada-clinic.com/" }, "geometry": { "type": "Point", "coordinates": [ 133.900040600000011, 34.6473404 ] } },
{ "type": "Feature", "properties": { "内容": "難波医院訪問看護【訪問看護】岡山県岡山市北区御津金川983", "url": "https://www.kaigokensaku.mhlw.go.jp/33/index.php?action_kouhyou_detail_004_kani=true&JigyosyoCd=3312110145-00&ServiceCd=130&Type=search", "url2": "http://okayama.my.coocan.jp/" }, "geometry": { "type": "Point", "coordinates": [ 133.935082200000011, 34.7979845 ] } },
{ "type": "Feature", "properties": { "内容": "たけべクリニック【訪問看護】岡山県岡山市北区建部町建部上325-1", "url": "https://www.kaigokensaku.mhlw.go.jp/33/index.php?action_kouhyou_detail_004_kani=true&JigyosyoCd=3312110194-00&ServiceCd=130&Type=search", "url2": "https://takebe-clinic.com/" }, "geometry": { "type": "Point", "coordinates": [ 133.902268899999967, 34.8564217 ] } },
{ "type": "Feature", "properties": { "内容": "岡山市医師会訪問看護ステーション【訪問看護】岡山県岡山市北区東中央町３番１４号", "url": "https://www.kaigokensaku.mhlw.go.jp/33/index.php?action_kouhyou_detail_004_kani=true&JigyosyoCd=3360190064-00&ServiceCd=130&Type=search", "url2": "https://www.ocma.or.jp/" }, "geometry": { "type": "Point", "coordinates": [ 133.927367699999962, 34.654802823612968 ] } },
{ "type": "Feature", "properties": { "内容": "岡山済生会訪問看護ステーション【訪問看護】岡山県岡山市北区伊福町１丁目17-18岡山済生会外来センター病院管理棟1階", "url": "https://www.kaigokensaku.mhlw.go.jp/33/index.php?action_kouhyou_detail_004_kani=true&JigyosyoCd=3360190098-00&ServiceCd=130&Type=search", "url2": "https://www.okayamasaiseikai.or.jp/in-home-nurse/" }, "geometry": { "type": "Point", "coordinates": [ 133.917120371712372, 34.670443220423245 ] } },
{ "type": "Feature", "properties": { "内容": "あしもり訪問看護ステーション【訪問看護】岡山県岡山市北区高松原古才４９７－１６", "url": "https://www.kaigokensaku.mhlw.go.jp/33/index.php?action_kouhyou_detail_004_kani=true&JigyosyoCd=3360190130-00&ServiceCd=130&Type=search", "url2": "ashimori_hokan@ikenaga-group.jp" }, "geometry": { "type": "Point", "coordinates": [ 133.823868, 34.6849206 ] } },
{ "type": "Feature", "properties": { "内容": "訪問看護ステーション旭川荘【訪問看護】岡山県岡山市北区祇園８６６", "url": "https://www.kaigokensaku.mhlw.go.jp/33/index.php?action_kouhyou_detail_004_kani=true&JigyosyoCd=3360190171-00&ServiceCd=130&Type=search", "url2": "https://www.asahigawasou.or.jp/szaikai/concept1.html" }, "geometry": { "type": "Point", "coordinates": [ 133.95785879999994, 34.7079489 ] } },
{ "type": "Feature", "properties": { "内容": "訪問看護ステーション　とみまち【訪問看護】岡山県岡山市北区富町２丁目１６－２７", "url": "https://www.kaigokensaku.mhlw.go.jp/33/index.php?action_kouhyou_detail_004_kani=true&JigyosyoCd=3360190288-00&ServiceCd=130&Type=search", "url2": null }, "geometry": { "type": "Point", "coordinates": [ 133.909008399999948, 34.6637331 ] } },
{ "type": "Feature", "properties": { "内容": "訪問看護ステーション　ラポール【訪問看護】岡山県岡山市北区厚生町3丁目8-35社会医療法人光生病院", "url": "https://www.kaigokensaku.mhlw.go.jp/33/index.php?action_kouhyou_detail_004_kani=true&JigyosyoCd=3360190338-00&ServiceCd=130&Type=search", "url2": "http://www.kousei-hp.or.jp" }, "geometry": { "type": "Point", "coordinates": [ 133.91095051747439, 34.655730587818887 ] } },
{ "type": "Feature", "properties": { "内容": "オリーブ訪問看護ステーション【訪問看護】岡山市北区津島東１-３-３", "url": "https://www.kaigokensaku.mhlw.go.jp/33/index.php?action_kouhyou_detail_004_kani=true&JigyosyoCd=3360190502-00&ServiceCd=130&Type=search", "url2": null }, "geometry": { "type": "Point", "coordinates": [ 133.928118512268412, 34.68731929174708 ] } },
{ "type": "Feature", "properties": { "内容": "ナーシングアイル【訪問看護】岡山県岡山市北区野田3-16-1下電開発ビル2Ｆ", "url": "https://www.kaigokensaku.mhlw.go.jp/33/index.php?action_kouhyou_detail_004_kani=true&JigyosyoCd=3360190569-00&ServiceCd=130&Type=search", "url2": "http://www.morenet.co.jp/" }, "geometry": { "type": "Point", "coordinates": [ 133.90091080000002, 34.6541512 ] } },
{ "type": "Feature", "properties": { "内容": "ニチイケアセンター岡山南訪問看護ステーション【訪問看護】岡山県岡山市北区下中野324番地118", "url": "https://www.kaigokensaku.mhlw.go.jp/33/index.php?action_kouhyou_detail_004_kani=true&JigyosyoCd=3360190619-00&ServiceCd=130&Type=search", "url2": "http://www.nichiigakkan.co.jp/" }, "geometry": { "type": "Point", "coordinates": [ 133.908098099999961, 34.6408553 ] } },
{ "type": "Feature", "properties": { "内容": "アイリーフ訪問看護ステーション【訪問看護】岡山県岡山市北区横井上93-2欅の森ハイツⅢ　401", "url": "https://www.kaigokensaku.mhlw.go.jp/33/index.php?action_kouhyou_detail_004_kani=true&JigyosyoCd=3360190726-00&ServiceCd=130&Type=search", "url2": "http://www.ilief.jp/" }, "geometry": { "type": "Point", "coordinates": [ 133.903459183374366, 34.699794880484077 ] } },
{ "type": "Feature", "properties": { "内容": "ココファンナーシング岡山【訪問看護】岡山県岡山市北区西長瀬1207-3", "url": "https://www.kaigokensaku.mhlw.go.jp/33/index.php?action_kouhyou_detail_004_kani=true&JigyosyoCd=3360190759-00&ServiceCd=130&Type=search", "url2": "http://www.cocofump.co.jp" }, "geometry": { "type": "Point", "coordinates": [ 133.87862758352108, 34.649598115004714 ] } },
{ "type": "Feature", "properties": { "内容": "訪問看護ステーション晴【訪問看護】岡山県岡山市北区表町三丁目17番25号Highstop表町1階", "url": "https://www.kaigokensaku.mhlw.go.jp/33/index.php?action_kouhyou_detail_004_kani=true&JigyosyoCd=3360190775-00&ServiceCd=130&Type=search", "url2": "http://machinokangoshi-haru.co.jp" }, "geometry": { "type": "Point", "coordinates": [ 133.927701253373016, 34.65694623861139 ] } },
{ "type": "Feature", "properties": { "内容": "スマイルらいふ訪問看護ステーション岡山【訪問看護】下中野364-108", "url": "https://www.kaigokensaku.mhlw.go.jp/33/index.php?action_kouhyou_detail_004_kani=true&JigyosyoCd=3360190908-00&ServiceCd=130&Type=search", "url2": "https://kk-connect.net" }, "geometry": { "type": "Point", "coordinates": [ 133.899214199999989, 34.639576499999976 ] } },
{ "type": "Feature", "properties": { "内容": "ピーチおかやま訪問看護ステーション【訪問看護】岡山県岡山市北区西古松1丁目24番地6号", "url": "https://www.kaigokensaku.mhlw.go.jp/33/index.php?action_kouhyou_detail_004_kani=true&JigyosyoCd=3360190924-00&ServiceCd=130&Type=search", "url2": "https://peach-okayama.co.jp/" }, "geometry": { "type": "Point", "coordinates": [ 133.9073237, 34.6500401 ] } },
{ "type": "Feature", "properties": { "内容": "訪問看護ステーションみつや岡山【訪問看護】田町1-2-10ゴフェルビル４階　403", "url": "https://www.kaigokensaku.mhlw.go.jp/33/index.php?action_kouhyou_detail_004_kani=true&JigyosyoCd=3360190965-00&ServiceCd=130&Type=search", "url2": "http://www.onewish-mitsuya.com/" }, "geometry": { "type": "Point", "coordinates": [ 133.925337099999979, 34.6623311 ] } },
{ "type": "Feature", "properties": { "内容": "訪問看護リハビリステーション　そら【訪問看護】岡山県岡山市北区下中野348-102KARIYABIL2階北", "url": "https://www.kaigokensaku.mhlw.go.jp/33/index.php?action_kouhyou_detail_004_kani=true&JigyosyoCd=3360190999-00&ServiceCd=130&Type=search", "url2": "https://houmonkango-sora.com/" }, "geometry": { "type": "Point", "coordinates": [ 133.902957099999981, 34.6386221 ] } },
{ "type": "Feature", "properties": { "内容": "あなぶきケアサービス岡山訪問看護ステーション【訪問看護】岡山家岡山市北区昭和町11番21号アルファリビング岡山駅西内", "url": "https://www.kaigokensaku.mhlw.go.jp/33/index.php?action_kouhyou_detail_004_kani=true&JigyosyoCd=3360191021-00&ServiceCd=130&Type=search", "url2": null }, "geometry": { "type": "Point", "coordinates": [ 133.911679, 34.6652753 ] } },
{ "type": "Feature", "properties": { "内容": "朝日医療訪問看護ステーション【訪問看護】岡山市北区伊福町4丁目4-3", "url": "https://www.kaigokensaku.mhlw.go.jp/33/index.php?action_kouhyou_detail_004_kani=true&JigyosyoCd=3360191054-00&ServiceCd=130&Type=search", "url2": "https://ash-ic.jp/kango/" }, "geometry": { "type": "Point", "coordinates": [ 133.9110781, 34.6718747 ] } },
{ "type": "Feature", "properties": { "内容": "訪問看護ステーションかわさき【訪問看護】中山下二丁目1番80号川崎医科大学高齢者医療センター内", "url": "https://www.kaigokensaku.mhlw.go.jp/33/index.php?action_kouhyou_detail_004_kani=true&JigyosyoCd=3360191070-00&ServiceCd=130&Type=search", "url2": "g.kawasaki-m.ac.jp/" }, "geometry": { "type": "Point", "coordinates": [ 133.926907421951285, 34.661157479101036 ] } },
{ "type": "Feature", "properties": { "内容": "ともに訪問看護ステーション【訪問看護】岡山県岡山市北区今5丁目5番16号", "url": "https://www.kaigokensaku.mhlw.go.jp/33/index.php?action_kouhyou_detail_004_kani=true&JigyosyoCd=3360191088-00&ServiceCd=130&Type=search", "url2": "https://tomoni-care.jp" }, "geometry": { "type": "Point", "coordinates": [ 133.8981119, 34.6441289 ] } },
{ "type": "Feature", "properties": { "内容": "グッドライフ指定訪問看護ステーション【訪問看護】岡山県岡山市北区津高696-2", "url": "https://www.kaigokensaku.mhlw.go.jp/33/index.php?action_kouhyou_detail_004_kani=true&JigyosyoCd=3360191112-00&ServiceCd=130&Type=search", "url2": "https://goodlife-okayama.p-kit.com" }, "geometry": { "type": "Point", "coordinates": [ 133.9079016, 34.696618 ] } },
{ "type": "Feature", "properties": { "内容": "岡山済生会きび訪問看護ステーション【訪問看護】岡山県岡山市北区高松原古才584-1", "url": "https://www.kaigokensaku.mhlw.go.jp/33/index.php?action_kouhyou_detail_004_kani=true&JigyosyoCd=3360191187-00&ServiceCd=130&Type=search", "url2": "http://www.saiseikaikibi.jp/" }, "geometry": { "type": "Point", "coordinates": [ 133.8254052, 34.6838547 ] } },
{ "type": "Feature", "properties": { "内容": "訪問看護リハビリステーションスリーライフ【訪問看護】岡山県岡山市北区辰巳42-101パサージュビル101ビル　301", "url": "https://www.kaigokensaku.mhlw.go.jp/33/index.php?action_kouhyou_detail_004_kani=true&JigyosyoCd=3360191195-00&ServiceCd=130&Type=search", "url2": "https://three-life.com/" }, "geometry": { "type": "Point", "coordinates": [ 133.8877094, 34.6392779 ] } },
{ "type": "Feature", "properties": { "内容": "創心会訪問看護リハビリステーション大安寺【訪問看護】岡山県岡山市北区日吉町14－3", "url": "https://www.kaigokensaku.mhlw.go.jp/33/index.php?action_kouhyou_detail_004_kani=true&JigyosyoCd=3360191310-00&ServiceCd=130&Type=search", "url2": "https://www.soushinkai.com/" }, "geometry": { "type": "Point", "coordinates": [ 133.8783655, 34.6559181 ] } },
{ "type": "Feature", "properties": { "内容": "ユナイテッド訪問看護ステーション【訪問看護】清輝橋２丁目２番４号", "url": "https://www.kaigokensaku.mhlw.go.jp/33/index.php?action_kouhyou_detail_004_kani=true&JigyosyoCd=3360191468-00&ServiceCd=130&Type=search", "url2": "https://unitedkango.jimdofree.com/" }, "geometry": { "type": "Point", "coordinates": [ 133.924748519368706, 34.651397040965634 ] } },
{ "type": "Feature", "properties": { "内容": "あおえ訪問看護ステーション【訪問看護】青江5-1-15", "url": "https://www.kaigokensaku.mhlw.go.jp/33/index.php?action_kouhyou_detail_004_kani=true&JigyosyoCd=3360191633-00&ServiceCd=130&Type=search", "url2": "kob-med@tenseikai-aoe.or.jp" }, "geometry": { "type": "Point", "coordinates": [ 133.922658, 34.630878 ] } },
{ "type": "Feature", "properties": { "内容": "みつ訪問看護ステーション看護協会【訪問看護】岡山県岡山市北区御津金川969-4", "url": "https://www.kaigokensaku.mhlw.go.jp/33/index.php?action_kouhyou_detail_004_kani=true&JigyosyoCd=3362190005-00&ServiceCd=130&Type=search", "url2": "http://www.nurse.okayama.okayama.jp/" }, "geometry": { "type": "Point", "coordinates": [ 133.935101600000053, 34.7986872 ] } },
{ "type": "Feature", "properties": { "内容": "サンウェルズ岡山辰巳訪問看護ステーション【訪問看護】辰巳11-103", "url": "https://www.kaigokensaku.mhlw.go.jp/33/index.php?action_kouhyou_detail_004_kani=true&JigyosyoCd=3360191815-00&ServiceCd=130&Type=search", "url2": "https://sunwels.jp/pdh/facility/pdhouse-okayamatatsumi/" }, "geometry": { "type": "Point", "coordinates": [ 133.888297, 34.639769 ] } },
{ "type": "Feature", "properties": { "内容": "訪問看護ステーションソレイユ【訪問看護】岡山市北区野田3丁目1-18", "url": "https://www.kaigokensaku.mhlw.go.jp/33/index.php?action_kouhyou_detail_004_kani=true&JigyosyoCd=3360191690-00&ServiceCd=130&Type=search", "url2": "https://www.hikasa.jp/" }, "geometry": { "type": "Point", "coordinates": [ 133.9018992, 34.6531328 ] } },
{ "type": "Feature", "properties": { "内容": "訪問看護リハステーション　よつばケアプライド【訪問看護】岡山県岡山市北区下伊福上町14-3", "url": "https://www.kaigokensaku.mhlw.go.jp/33/index.php?action_kouhyou_detail_004_kani=true&JigyosyoCd=3360191427-00&ServiceCd=130&Type=search", "url2": null }, "geometry": { "type": "Point", "coordinates": [ 133.9009108, 34.6679309 ] } },
{ "type": "Feature", "properties": { "内容": "訪問看護ステーション　ミレイ【訪問看護】岡山市北区奥田１丁目９－５パインヒル奥田２０１号室", "url": "https://www.kaigokensaku.mhlw.go.jp/33/index.php?action_kouhyou_detail_004_kani=true&JigyosyoCd=3360191856-00&ServiceCd=130&Type=search", "url2": null }, "geometry": { "type": "Point", "coordinates": [ 133.924836488360597, 34.644638254010914 ] } },
{ "type": "Feature", "properties": { "内容": "訪問看護ナーシングプラス土屋岡山【訪問看護】西古松1丁目18-8ベンハウス大元駅前205号", "url": "https://www.kaigokensaku.mhlw.go.jp/33/index.php?action_kouhyou_detail_004_kani=true&JigyosyoCd=3360191872-00&ServiceCd=130&Type=search", "url2": "https://tcy.co.jp/" }, "geometry": { "type": "Point", "coordinates": [ 133.9076406, 34.6478864 ] } },
{ "type": "Feature", "properties": { "内容": "訪問看護ステーションエール【訪問看護】今6丁目5-23", "url": "https://www.kaigokensaku.mhlw.go.jp/33/index.php?action_kouhyou_detail_004_kani=true&JigyosyoCd=3360190809-00&ServiceCd=130&Type=search", "url2": "yell-oka.com" }, "geometry": { "type": "Point", "coordinates": [ 133.898337393122517, 34.642046166380446 ] } },
{ "type": "Feature", "properties": { "内容": "みさお山訪問看護ステーション【訪問看護】岡山県岡山市中区浜472", "url": "https://www.kaigokensaku.mhlw.go.jp/33/index.php?action_kouhyou_detail_004_kani=true&JigyosyoCd=3360190239-00&ServiceCd=130&Type=search", "url2": null }, "geometry": { "type": "Point", "coordinates": [ 133.942807499999958, 34.6735002 ] } },
{ "type": "Feature", "properties": { "内容": "訪問看護ステーションココエル　岡山【訪問看護】岡山県岡山市中区平井6-8-17", "url": "https://www.kaigokensaku.mhlw.go.jp/33/index.php?action_kouhyou_detail_004_kani=true&JigyosyoCd=3360191401-00&ServiceCd=130&Type=search", "url2": "http://わらく.com" }, "geometry": { "type": "Point", "coordinates": [ 133.9402513, 34.6377088 ] } },
{ "type": "Feature", "properties": { "内容": "訪問看護ステーション　ナースウイング【訪問看護】岡山市中区新京橋二丁目9番28号", "url": "https://www.kaigokensaku.mhlw.go.jp/33/index.php?action_kouhyou_detail_004_kani=true&JigyosyoCd=3360190858-00&ServiceCd=130&Type=search", "url2": "http://www.hns-nw.com" }, "geometry": { "type": "Point", "coordinates": [ 133.937523079596019, 34.654261764252475 ] } },
{ "type": "Feature", "properties": { "内容": "訪問看護ステーションりゅうそう【訪問看護】岡山県岡山市中区藤原21-1", "url": "https://www.kaigokensaku.mhlw.go.jp/33/index.php?action_kouhyou_detail_004_kani=true&JigyosyoCd=3360191450-00&ServiceCd=130&Type=search", "url2": "https://www.ryusoh.or.jp/" }, "geometry": { "type": "Point", "coordinates": [ 133.959704499999987, 34.6754668 ] } },
{ "type": "Feature", "properties": { "内容": "訪問看護ステーションとわ【訪問看護】岡山県岡山市中区福泊168-4福泊グリーンパーク102", "url": "https://www.kaigokensaku.mhlw.go.jp/33/index.php?action_kouhyou_detail_004_kani=true&JigyosyoCd=3360191500-00&ServiceCd=130&Type=search", "url2": null }, "geometry": { "type": "Point", "coordinates": [ 133.9787781, 34.6525815 ] } },
{ "type": "Feature", "properties": { "内容": "訪問看護ステーションRITA【訪問看護】岡山県岡山市中区円山404-1", "url": "https://www.kaigokensaku.mhlw.go.jp/33/index.php?action_kouhyou_detail_004_kani=true&JigyosyoCd=3360191526-00&ServiceCd=130&Type=search", "url2": "https://www.rita-fukushi.co.jp/" }, "geometry": { "type": "Point", "coordinates": [ 133.9641746, 34.655337 ] } },
{ "type": "Feature", "properties": { "内容": "訪問看護ステーション　サマリア【訪問看護】岡山県岡山市中区さくら住座10番1号２階", "url": "https://www.kaigokensaku.mhlw.go.jp/33/index.php?action_kouhyou_detail_004_kani=true&JigyosyoCd=3360190387-00&ServiceCd=130&Type=search", "url2": "http:www.okayama-hakuaikai.or.jp/" }, "geometry": { "type": "Point", "coordinates": [ 133.933627683189343, 34.651686417422617 ] } },
{ "type": "Feature", "properties": { "内容": "看護クラーク岡山【訪問看護】中区平井六丁目19番12号", "url": "https://www.kaigokensaku.mhlw.go.jp/33/index.php?action_kouhyou_detail_004_kani=true&JigyosyoCd=3360191732-00&ServiceCd=130&Type=search", "url2": "https://cuc-hospice.com/" }, "geometry": { "type": "Point", "coordinates": [ 133.944097199999987, 34.6369124 ] } },
{ "type": "Feature", "properties": { "内容": "岡山訪問看護ステーション看護協会【訪問看護】岡山県岡山市中区竹田155-7", "url": "https://www.kaigokensaku.mhlw.go.jp/33/index.php?action_kouhyou_detail_004_kani=true&JigyosyoCd=3360190031-00&ServiceCd=130&Type=search", "url2": "http://www.nurse.okayama.okayama.jp/" }, "geometry": { "type": "Point", "coordinates": [ 133.9411076, 34.6814823 ] } },
{ "type": "Feature", "properties": { "内容": "恵風会訪問看護ステーションくにとみ【訪問看護】岡山県岡山市中区国富７３９－１レジデンスめぐみ", "url": "https://www.kaigokensaku.mhlw.go.jp/33/index.php?action_kouhyou_detail_004_kani=true&JigyosyoCd=3360190189-00&ServiceCd=130&Type=search", "url2": null }, "geometry": { "type": "Point", "coordinates": [ 133.945173658197064, 34.66638428982322 ] } },
{ "type": "Feature", "properties": { "内容": "公益財団法人操風会　訪問看護リハビリステーションたんぽぽ【訪問看護】岡山県岡山市中区倉田５６７－１岡山極東病院内", "url": "https://www.kaigokensaku.mhlw.go.jp/33/index.php?action_kouhyou_detail_004_kani=true&JigyosyoCd=3360190247-00&ServiceCd=130&Type=search", "url2": "http://www.kyokuto.or.jp" }, "geometry": { "type": "Point", "coordinates": [ 133.955172499999946, 34.6318481 ] } },
{ "type": "Feature", "properties": { "内容": "訪問看護ステーション　さくらんぼ【訪問看護】岡山県岡山市中区赤坂本町８番１０号岡山協立病院　6階", "url": "https://www.kaigokensaku.mhlw.go.jp/33/index.php?action_kouhyou_detail_004_kani=true&JigyosyoCd=3360190353-00&ServiceCd=130&Type=search", "url2": "www.okayama-health.coop" }, "geometry": { "type": "Point", "coordinates": [ 133.9375973, 34.651205099999984 ] } },
{ "type": "Feature", "properties": { "内容": "さいわい訪問看護ステーション【訪問看護】岡山県岡山市中区高屋３４３", "url": "https://www.kaigokensaku.mhlw.go.jp/33/index.php?action_kouhyou_detail_004_kani=true&JigyosyoCd=3360190361-00&ServiceCd=130&Type=search", "url2": "http://www.okayama-daiichi.jp/" }, "geometry": { "type": "Point", "coordinates": [ 133.96909370000003, 34.6748008 ] } },
{ "type": "Feature", "properties": { "内容": "あーくす訪問看護リハビリステーション【訪問看護】岡山市中区江崎42番地10", "url": "https://www.kaigokensaku.mhlw.go.jp/33/index.php?action_kouhyou_detail_004_kani=true&JigyosyoCd=3360190593-00&ServiceCd=130&Type=search", "url2": "a-cus-houkan.com" }, "geometry": { "type": "Point", "coordinates": [ 133.957815200000027, 34.6265918 ] } },
{ "type": "Feature", "properties": { "内容": "訪問看護ステーション　シエル【訪問看護】岡山県岡山市中区海吉1794-3", "url": "https://www.kaigokensaku.mhlw.go.jp/33/index.php?action_kouhyou_detail_004_kani=true&JigyosyoCd=3360190817-00&ServiceCd=130&Type=search", "url2": "https://nursing-happyfarm.jp/" }, "geometry": { "type": "Point", "coordinates": [ 133.985602264298223, 34.658394819489139 ] } },
{ "type": "Feature", "properties": { "内容": "訪問看護ステーションやすらぎ【訪問看護】岡山県岡山市中区中島75－1", "url": "https://www.kaigokensaku.mhlw.go.jp/33/index.php?action_kouhyou_detail_004_kani=true&JigyosyoCd=3360191005-00&ServiceCd=130&Type=search", "url2": "http://www.takufukai-group.or.jp/" }, "geometry": { "type": "Point", "coordinates": [ 133.945048899999961, 34.6858652 ] } },
{ "type": "Feature", "properties": { "内容": "訪問看護リハビリステーションてく・とこ　そあん【訪問看護】岡山県岡山市中区西川原138", "url": "https://www.kaigokensaku.mhlw.go.jp/33/index.php?action_kouhyou_detail_004_kani=true&JigyosyoCd=3360191104-00&ServiceCd=130&Type=search", "url2": null }, "geometry": { "type": "Point", "coordinates": [ 133.9582676, 34.6757187 ] } },
{ "type": "Feature", "properties": { "内容": "訪問看護ステーションプラチナ【訪問看護】岡山県中区今在家131-1", "url": "https://www.kaigokensaku.mhlw.go.jp/33/index.php?action_kouhyou_detail_004_kani=true&JigyosyoCd=3360191302-00&ServiceCd=130&Type=search", "url2": null }, "geometry": { "type": "Point", "coordinates": [ 133.953762300000022, 34.6924721 ] } },
{ "type": "Feature", "properties": { "内容": "訪問看護ステーションONE【訪問看護】山崎264-27", "url": "https://www.kaigokensaku.mhlw.go.jp/33/index.php?action_kouhyou_detail_004_kani=true&JigyosyoCd=3360191328-00&ServiceCd=130&Type=search", "url2": null }, "geometry": { "type": "Point", "coordinates": [ 133.976075, 34.649131 ] } },
{ "type": "Feature", "properties": { "内容": "ライフサポート訪問看護ステーション【訪問看護】岡山県岡山市中区浜367番", "url": "https://www.kaigokensaku.mhlw.go.jp/33/index.php?action_kouhyou_detail_004_kani=true&JigyosyoCd=3360191542-00&ServiceCd=130&Type=search", "url2": "http://life-support.ne.jp/" }, "geometry": { "type": "Point", "coordinates": [ 133.9409033, 34.6712751 ] } },
{ "type": "Feature", "properties": { "内容": "訪問看護ステーションりゅうそう【訪問看護】岡山県岡山市中区藤原21-1", "url": "https://www.kaigokensaku.mhlw.go.jp/33/index.php?action_kouhyou_detail_004_kani=true&JigyosyoCd=3360191674-00&ServiceCd=130&Type=search", "url2": "http://www.ryusoh.or.jp/." }, "geometry": { "type": "Point", "coordinates": [ 133.959704499999987, 34.6754668 ] } },
{ "type": "Feature", "properties": { "内容": "訪問看護ステーション　想空【訪問看護】岡山県岡山市中区平井5丁目7番47-3号", "url": "https://www.kaigokensaku.mhlw.go.jp/33/index.php?action_kouhyou_detail_004_kani=true&JigyosyoCd=3360191583-00&ServiceCd=130&Type=search", "url2": "http://sora-okayama.com" }, "geometry": { "type": "Point", "coordinates": [ 133.9435215, 34.6379706 ] } },
{ "type": "Feature", "properties": { "内容": "訪問看護ステーション　はぐはぐの家【訪問看護】藤原光町1丁目9-8", "url": "https://www.kaigokensaku.mhlw.go.jp/33/index.php?action_kouhyou_detail_004_kani=true&JigyosyoCd=3360191849-00&ServiceCd=130&Type=search", "url2": "https://halo-care.jp/" }, "geometry": { "type": "Point", "coordinates": [ 133.9546819, 34.6764743 ] } },
{ "type": "Feature", "properties": { "内容": "訪問看護ステーション　ママック城東【訪問看護】岡山県岡山市中区長利317-1", "url": "https://www.kaigokensaku.mhlw.go.jp/33/index.php?action_kouhyou_detail_004_kani=true&JigyosyoCd=3360191484-00&ServiceCd=130&Type=search", "url2": "https://www.rcare.jp/" }, "geometry": { "type": "Point", "coordinates": [ 133.9990427, 34.6725225 ] } },
{ "type": "Feature", "properties": { "内容": "訪問看護ステーション　望満【訪問看護】新京橋2丁目9-29", "url": "https://www.kaigokensaku.mhlw.go.jp/33/index.php?action_kouhyou_detail_004_kani=true&JigyosyoCd=3360191898-00&ServiceCd=130&Type=search", "url2": null }, "geometry": { "type": "Point", "coordinates": [ 133.9372491, 34.6543286 ] } },
{ "type": "Feature", "properties": { "内容": "医療法人　長光会　長島病院【訪問看護】岡山県岡山市東区瀬戸町瀬戸４０－１", "url": "https://www.kaigokensaku.mhlw.go.jp/33/index.php?action_kouhyou_detail_004_kani=true&JigyosyoCd=3312210309-00&ServiceCd=130&Type=search", "url2": "http://www.nagashimahp.or.jp" }, "geometry": { "type": "Point", "coordinates": [ 134.037983700000041, 34.7332907 ] } },
{ "type": "Feature", "properties": { "内容": "アップルウッド訪問看護ステーション【訪問看護】金岡東町１丁目１番３８号", "url": "https://www.kaigokensaku.mhlw.go.jp/33/index.php?action_kouhyou_detail_004_kani=true&JigyosyoCd=3360190643-00&ServiceCd=130&Type=search", "url2": "https://applewood.jp/" }, "geometry": { "type": "Point", "coordinates": [ 134.028822177384882, 34.648588907910074 ] } },
{ "type": "Feature", "properties": { "内容": "訪問看護リハビリステーションglad【訪問看護】岡山県岡山市東区瀬戸町沖240-1", "url": "https://www.kaigokensaku.mhlw.go.jp/33/index.php?action_kouhyou_detail_004_kani=true&JigyosyoCd=3360191625-00&ServiceCd=130&Type=search", "url2": "https://bringjoy2023.com/" }, "geometry": { "type": "Point", "coordinates": [ 134.046338201835084, 34.721437577047283 ] } },
{ "type": "Feature", "properties": { "内容": "訪問看護ステーション　ル・リアン【訪問看護】岡山県岡山市東区松新町206-1", "url": "https://www.kaigokensaku.mhlw.go.jp/33/index.php?action_kouhyou_detail_004_kani=true&JigyosyoCd=3360191682-00&ServiceCd=130&Type=search", "url2": "https://lily-bell.jp/" }, "geometry": { "type": "Point", "coordinates": [ 134.0060106, 34.6547456 ] } },
{ "type": "Feature", "properties": { "内容": "ブルーデージーながしま訪問看護ステーション【訪問看護】瀬戸町瀬戸40-1", "url": "https://www.kaigokensaku.mhlw.go.jp/33/index.php?action_kouhyou_detail_004_kani=true&JigyosyoCd=3360191096-00&ServiceCd=130&Type=search", "url2": "https://www.nagashimahp.or.jp" }, "geometry": { "type": "Point", "coordinates": [ 134.038038199999988, 34.7333391 ] } },
{ "type": "Feature", "properties": { "内容": "株式会社ACTIPEX【訪問看護】西大寺中野517-9", "url": "https://www.kaigokensaku.mhlw.go.jp/33/index.php?action_kouhyou_detail_004_kani=true&JigyosyoCd=3360191294-00&ServiceCd=130&Type=search", "url2": "https://plus-act-oka.com/" }, "geometry": { "type": "Point", "coordinates": [ 134.0255886, 34.655682 ] } },
{ "type": "Feature", "properties": { "内容": "ひかり訪問看護ステーション【訪問看護】岡山県岡山市東区西大寺中2丁目3-5", "url": "https://www.kaigokensaku.mhlw.go.jp/33/index.php?action_kouhyou_detail_004_kani=true&JigyosyoCd=3360191443-00&ServiceCd=130&Type=search", "url2": "http://hikariph.co.jp" }, "geometry": { "type": "Point", "coordinates": [ 134.031823984655745, 34.655018814493523 ] } },
{ "type": "Feature", "properties": { "内容": "西大寺訪問看護サービスセンター【訪問看護】岡山県岡山市東区西大寺中野本町7番32号", "url": "https://www.kaigokensaku.mhlw.go.jp/33/index.php?action_kouhyou_detail_004_kani=true&JigyosyoCd=3360190114-00&ServiceCd=130&Type=search", "url2": "http://www.saidaiji-hp.or.jp/" }, "geometry": { "type": "Point", "coordinates": [ 134.027617755560186, 34.65426337217675 ] } },
{ "type": "Feature", "properties": { "内容": "しんしあ訪問看護リハビリステーション【訪問看護】岡山県岡山市東区瀬戸町下9-4", "url": "https://www.kaigokensaku.mhlw.go.jp/33/index.php?action_kouhyou_detail_004_kani=true&JigyosyoCd=3360191013-00&ServiceCd=130&Type=search", "url2": "https://sincerecnseto.wixsite.com/top-page" }, "geometry": { "type": "Point", "coordinates": [ 134.041214099999934, 34.7251527 ] } },
{ "type": "Feature", "properties": { "内容": "サンズナースステーション【訪問看護】岡山県東区西大寺中野本町7-31", "url": "https://www.kaigokensaku.mhlw.go.jp/33/index.php?action_kouhyou_detail_004_kani=true&JigyosyoCd=3360191260-00&ServiceCd=130&Type=search", "url2": "https://carefree-okayama.studio.site/" }, "geometry": { "type": "Point", "coordinates": [ 134.027603973541289, 34.654240158226266 ] } },
{ "type": "Feature", "properties": { "内容": "城本クリニック訪問看護ステーション【訪問看護】岡山県岡山市東区松新町65-4", "url": "https://www.kaigokensaku.mhlw.go.jp/33/index.php?action_kouhyou_detail_004_kani=true&JigyosyoCd=3360191799-00&ServiceCd=130&Type=search", "url2": "https://www.shiromoto-s.or.jp" }, "geometry": { "type": "Point", "coordinates": [ 134.0095766, 34.6583633 ] } },
{ "type": "Feature", "properties": { "内容": "あさかわ訪問看護ステーション【訪問看護】岡山県岡山市東区浅川520-28", "url": "https://www.kaigokensaku.mhlw.go.jp/33/index.php?action_kouhyou_detail_004_kani=true&JigyosyoCd=3360190395-00&ServiceCd=130&Type=search", "url2": null }, "geometry": { "type": "Point", "coordinates": [ 134.06948090000003, 34.7094576 ] } },
{ "type": "Feature", "properties": { "内容": "訪問看護ステーション　ママック西大寺【訪問看護】岡山県岡山市東区西大寺東3丁目8番27号", "url": "https://www.kaigokensaku.mhlw.go.jp/33/index.php?action_kouhyou_detail_004_kani=true&JigyosyoCd=3360190437-00&ServiceCd=130&Type=search", "url2": "http://www.rcare.jp" }, "geometry": { "type": "Point", "coordinates": [ 134.049758099999963, 34.6601617 ] } },
{ "type": "Feature", "properties": { "内容": "医療法人　洸和会　井上内科小児科医院【訪問看護】岡山県岡山市東区東平島921番地１", "url": "https://www.kaigokensaku.mhlw.go.jp/33/index.php?action_kouhyou_detail_004_kani=true&JigyosyoCd=3310115039-00&ServiceCd=130&Type=search", "url2": "https://www.inouecl.com/" }, "geometry": { "type": "Point", "coordinates": [ 134.050694, 34.7198618 ] } },
{ "type": "Feature", "properties": { "内容": "愛光訪問看護ステーション【訪問看護】新保６７７番地１０Ｂｅ・ＮＥＸＴビル１階", "url": "https://www.kaigokensaku.mhlw.go.jp/33/index.php?action_kouhyou_detail_004_kani=true&JigyosyoCd=3360190700-00&ServiceCd=130&Type=search", "url2": null }, "geometry": { "type": "Point", "coordinates": [ 133.908731499999931, 34.6302093 ] } },
{ "type": "Feature", "properties": { "内容": "まりな訪問看護ステーション【訪問看護】岡山市南区妹尾2348-14", "url": "https://www.kaigokensaku.mhlw.go.jp/33/index.php?action_kouhyou_detail_004_kani=true&JigyosyoCd=3360190866-00&ServiceCd=130&Type=search", "url2": "http://hp.kaipoke.biz/rat/" }, "geometry": { "type": "Point", "coordinates": [ 133.8581237, 34.60855040000002 ] } },
{ "type": "Feature", "properties": { "内容": "訪問看護ステーション絆【訪問看護】岡山県岡山市南区妹尾869-3", "url": "https://www.kaigokensaku.mhlw.go.jp/33/index.php?action_kouhyou_detail_004_kani=true&JigyosyoCd=3360190551-00&ServiceCd=130&Type=search", "url2": "houmonkango-kizuna@tmail.plala.or.jp" }, "geometry": { "type": "Point", "coordinates": [ 133.863671699999941, 34.6102741 ] } },
{ "type": "Feature", "properties": { "内容": "かわい訪問看護ステーション【訪問看護】岡山県岡山市南区豊浜町1-20", "url": "https://www.kaigokensaku.mhlw.go.jp/33/index.php?action_kouhyou_detail_004_kani=true&JigyosyoCd=3360191039-00&ServiceCd=130&Type=search", "url2": "https://isshinkai.jp/" }, "geometry": { "type": "Point", "coordinates": [ 133.93128874536896, 34.634160468132329 ] } },
{ "type": "Feature", "properties": { "内容": "アーク訪問看護ステーション福成【訪問看護】福成1丁目１６７番地1", "url": "https://www.kaigokensaku.mhlw.go.jp/33/index.php?action_kouhyou_detail_004_kani=true&JigyosyoCd=3360191591-00&ServiceCd=130&Type=search", "url2": "https://www.okayama-nijiiro-clinic.com/" }, "geometry": { "type": "Point", "coordinates": [ 133.9321584, 34.6162067 ] } },
{ "type": "Feature", "properties": { "内容": "訪問看護ステーション　ちゃいむ【訪問看護】岡山県岡山市南区築港栄町2-25", "url": "https://www.kaigokensaku.mhlw.go.jp/33/index.php?action_kouhyou_detail_004_kani=true&JigyosyoCd=3360190155-00&ServiceCd=130&Type=search", "url2": "http://www.sato-hp.com" }, "geometry": { "type": "Point", "coordinates": [ 133.944403400000027, 34.60761040000002 ] } },
{ "type": "Feature", "properties": { "内容": "セントケア訪問看護ステーション岡山南【訪問看護】岡山県岡山市南区三浜町1丁目1-20", "url": "https://www.kaigokensaku.mhlw.go.jp/33/index.php?action_kouhyou_detail_004_kani=true&JigyosyoCd=3360191369-00&ServiceCd=130&Type=search", "url2": "https://care-net.biz/33/okayama/" }, "geometry": { "type": "Point", "coordinates": [ 133.9472788, 34.6176608 ] } },
{ "type": "Feature", "properties": { "内容": "特定非営利活動法人ほがらか西市【訪問看護】岡山市南区西市１００－５ケアセンターほがらか", "url": "https://www.kaigokensaku.mhlw.go.jp/33/index.php?action_kouhyou_detail_004_kani=true&JigyosyoCd=3360190403-00&ServiceCd=130&Type=search", "url2": "http://www.hogaraka-npo.com" }, "geometry": { "type": "Point", "coordinates": [ 133.90345990000003, 34.6325617 ] } },
{ "type": "Feature", "properties": { "内容": "ほうもんかんごすてーしょん　ほまれ【訪問看護】岡山県岡山市南区西市148-1アトリオB棟102", "url": "https://www.kaigokensaku.mhlw.go.jp/33/index.php?action_kouhyou_detail_004_kani=true&JigyosyoCd=3360191708-00&ServiceCd=130&Type=search", "url2": null }, "geometry": { "type": "Point", "coordinates": [ 133.8997108, 34.6288857 ] } },
{ "type": "Feature", "properties": { "内容": "池田医院【訪問看護】岡山市南区彦崎2801-1", "url": "https://www.kaigokensaku.mhlw.go.jp/33/index.php?action_kouhyou_detail_004_kani=true&JigyosyoCd=3312510047-00&ServiceCd=130&Type=search", "url2": "https://ikedaiinn.or.jp" }, "geometry": { "type": "Point", "coordinates": [ 133.83666310000001, 34.5523517 ] } },
{ "type": "Feature", "properties": { "内容": "訪問看護ステーションまいんど【訪問看護】岡山県岡山市南区並木町2丁目27番5号", "url": "https://www.kaigokensaku.mhlw.go.jp/33/index.php?action_kouhyou_detail_004_kani=true&JigyosyoCd=3360190007-00&ServiceCd=130&Type=search", "url2": "http://www.kato-namiki.or.jp/08mind.html" }, "geometry": { "type": "Point", "coordinates": [ 133.938947399999989, 34.6101526 ] } },
{ "type": "Feature", "properties": { "内容": "こうなん訪問看護ステーション【訪問看護】岡山県岡山市南区東畦651-19", "url": "https://www.kaigokensaku.mhlw.go.jp/33/index.php?action_kouhyou_detail_004_kani=true&JigyosyoCd=3360190015-00&ServiceCd=130&Type=search", "url2": "https://www.kounan-kangost.jp/" }, "geometry": { "type": "Point", "coordinates": [ 133.880792700000029, 34.6056142 ] } },
{ "type": "Feature", "properties": { "内容": "あいの里訪問看護ステーション【訪問看護】岡山県岡山市南区大福950番地6", "url": "https://www.kaigokensaku.mhlw.go.jp/33/index.php?action_kouhyou_detail_004_kani=true&JigyosyoCd=3360190056-00&ServiceCd=130&Type=search", "url2": "http://www.aino-sato.jp/vns/" }, "geometry": { "type": "Point", "coordinates": [ 133.891433831157002, 34.619306713145875 ] } },
{ "type": "Feature", "properties": { "内容": "マスカット訪問看護ステーション【訪問看護】岡山県岡山市南区泉田４１８－２５", "url": "https://www.kaigokensaku.mhlw.go.jp/33/index.php?action_kouhyou_detail_004_kani=true&JigyosyoCd=3360190254-00&ServiceCd=130&Type=search", "url2": "https://www.isto.or.jp" }, "geometry": { "type": "Point", "coordinates": [ 133.906444601341292, 34.626063425237454 ] } },
{ "type": "Feature", "properties": { "内容": "岡山しげい訪問看護ステーション【訪問看護】岡山県岡山市南区山田2117番地18", "url": "https://www.kaigokensaku.mhlw.go.jp/33/index.php?action_kouhyou_detail_004_kani=true&JigyosyoCd=3360190262-00&ServiceCd=130&Type=search", "url2": "http://www.shigei.or.jp/snss_oka/" }, "geometry": { "type": "Point", "coordinates": [ 133.84872, 34.619664 ] } },
{ "type": "Feature", "properties": { "内容": "アーク訪問看護ステーション新保店【訪問看護】岡山県岡山市南区新保1314-2ディアリオＢ", "url": "https://www.kaigokensaku.mhlw.go.jp/33/index.php?action_kouhyou_detail_004_kani=true&JigyosyoCd=3360190692-00&ServiceCd=130&Type=search", "url2": null }, "geometry": { "type": "Point", "coordinates": [ 133.9105396, 34.6366642 ] } },
{ "type": "Feature", "properties": { "内容": "アネシスライフ訪問看護ステーション【訪問看護】岡山県岡山市南区妹尾1878番地中島病院", "url": "https://www.kaigokensaku.mhlw.go.jp/33/index.php?action_kouhyou_detail_004_kani=true&JigyosyoCd=3360190767-00&ServiceCd=130&Type=search", "url2": "http：//www.anesislife.jp" }, "geometry": { "type": "Point", "coordinates": [ 133.873094379762279, 34.615704729625421 ] } },
{ "type": "Feature", "properties": { "内容": "アミューズ富永　訪問看護ステーション岡山南【訪問看護】岡山県岡山市南区福富西3-8-36　2階", "url": "https://www.kaigokensaku.mhlw.go.jp/33/index.php?action_kouhyou_detail_004_kani=true&JigyosyoCd=3360190783-00&ServiceCd=130&Type=search", "url2": "http://www.kusuriya.jp/" }, "geometry": { "type": "Point", "coordinates": [ 133.927082104665232, 34.622354099944509 ] } },
{ "type": "Feature", "properties": { "内容": "訪問看護ステーションちから【訪問看護】岡山県岡山市南区大福310-1-202", "url": "https://www.kaigokensaku.mhlw.go.jp/33/index.php?action_kouhyou_detail_004_kani=true&JigyosyoCd=3360191120-00&ServiceCd=130&Type=search", "url2": "https://okayama03.wixsite.com/chikara" }, "geometry": { "type": "Point", "coordinates": [ 133.876349964813755, 34.620833200705874 ] } },
{ "type": "Feature", "properties": { "内容": "訪問看護ステーションDAN【訪問看護】岡山県岡山市南区西紅陽台2丁目58-612", "url": "https://www.kaigokensaku.mhlw.go.jp/33/index.php?action_kouhyou_detail_004_kani=true&JigyosyoCd=3360191138-00&ServiceCd=130&Type=search", "url2": "https://houkan-dan.com/" }, "geometry": { "type": "Point", "coordinates": [ 133.8844458, 34.5505949 ] } },
{ "type": "Feature", "properties": { "内容": "訪問看護ステーション癒安楽(ゆあら)【訪問看護】岡山市南区藤田654番地11MNステイツビル3F", "url": "https://www.kaigokensaku.mhlw.go.jp/33/index.php?action_kouhyou_detail_004_kani=true&JigyosyoCd=3360191229-00&ServiceCd=130&Type=search", "url2": "https://www.ra-nursess.co.jp/" }, "geometry": { "type": "Point", "coordinates": [ 133.9045571, 34.611753 ] } },
{ "type": "Feature", "properties": { "内容": "Lifecare訪問看護ステーション【訪問看護】岡山市南区藤田566-226藤田テナントⅠ－Ⅰ", "url": "https://www.kaigokensaku.mhlw.go.jp/33/index.php?action_kouhyou_detail_004_kani=true&JigyosyoCd=3360191336-00&ServiceCd=130&Type=search", "url2": "https://s-and-k-okayama.wixsite.com/life-care-service" }, "geometry": { "type": "Point", "coordinates": [ 133.89949390000001, 34.60322 ] } },
{ "type": "Feature", "properties": { "内容": "訪問看護リハビリステーション　てぃーだ【訪問看護】岡山県岡山市南区妹尾３３３２−５冨岡コーポ１０２", "url": "https://www.kaigokensaku.mhlw.go.jp/33/index.php?action_kouhyou_detail_004_kani=true&JigyosyoCd=3360191351-00&ServiceCd=130&Type=search", "url2": "https://www.houkan-ti-da-nextinnovation.com" }, "geometry": { "type": "Point", "coordinates": [ 133.868815500000011, 34.6207067 ] } },
{ "type": "Feature", "properties": { "内容": "はちみつ訪問看護ステーション【訪問看護】岡山県岡山市南区新保771-4201", "url": "https://www.kaigokensaku.mhlw.go.jp/33/index.php?action_kouhyou_detail_004_kani=true&JigyosyoCd=3360191393-00&ServiceCd=130&Type=search", "url2": "https://www.hachimitsu-houmonkango.com" }, "geometry": { "type": "Point", "coordinates": [ 133.907966155273584, 34.633072068819764 ] } },
{ "type": "Feature", "properties": { "内容": "訪問看護ステーション　らん【訪問看護】岡山県岡山市南区三浜町1-8-4", "url": "https://www.kaigokensaku.mhlw.go.jp/33/index.php?action_kouhyou_detail_004_kani=true&JigyosyoCd=3360191435-00&ServiceCd=130&Type=search", "url2": "www.orchid-houmonkango-ran.com" }, "geometry": { "type": "Point", "coordinates": [ 133.946837499999987, 34.6151355 ] } },
{ "type": "Feature", "properties": { "内容": "ナースステーション　ウェルメ岡山【訪問看護】岡山県岡山市南区あけぼの町10-17", "url": "https://www.kaigokensaku.mhlw.go.jp/33/index.php?action_kouhyou_detail_004_kani=true&JigyosyoCd=3360191609-00&ServiceCd=130&Type=search", "url2": null }, "geometry": { "type": "Point", "coordinates": [ 133.9406332, 34.6077486 ] } },
{ "type": "Feature", "properties": { "内容": "ゆめの里訪問看護ステーション【訪問看護】岡山県岡山市南区川張1267", "url": "https://www.kaigokensaku.mhlw.go.jp/33/index.php?action_kouhyou_detail_004_kani=true&JigyosyoCd=3362590006-00&ServiceCd=130&Type=search", "url2": "https://yumeno-sato.com/" }, "geometry": { "type": "Point", "coordinates": [ 133.860098495631405, 34.545142594106458 ] } },
{ "type": "Feature", "properties": { "内容": "訪問看護ステーションはーとらいふ岡山【訪問看護】岡山県岡山市南区妹尾2629-1メゾンフルール1号棟101メゾンフルール1号棟101", "url": "https://www.kaigokensaku.mhlw.go.jp/33/index.php?action_kouhyou_detail_004_kani=true&JigyosyoCd=3360191823-00&ServiceCd=130&Type=search", "url2": null }, "geometry": { "type": "Point", "coordinates": [ 133.86537340000001, 34.6170184 ] } },
{ "type": "Feature", "properties": { "内容": "創心会　訪問看護リハビリステーション岡山【訪問看護】岡山県岡山市南区築港新町1-6-7", "url": "https://www.kaigokensaku.mhlw.go.jp/33/index.php?action_kouhyou_detail_004_kani=true&JigyosyoCd=3360190486-00&ServiceCd=130&Type=search", "url2": "http://www.soushinkai.com" }, "geometry": { "type": "Point", "coordinates": [ 133.937082084733561, 34.607114614455021 ] } },
{ "type": "Feature", "properties": { "内容": "訪問看護ステーションのわ岡山【訪問看護】福富西１丁目２０－７村川コーポ７号室", "url": "https://www.kaigokensaku.mhlw.go.jp/33/index.php?action_kouhyou_detail_004_kani=true&JigyosyoCd=3360191781-00&ServiceCd=130&Type=search", "url2": null }, "geometry": { "type": "Point", "coordinates": [ 133.930645125794996, 34.624787042989091 ] } },
{ "type": "Feature", "properties": { "内容": "訪問看護ステーション優【訪問看護】岡山市南区西市273-4２階", "url": "https://www.kaigokensaku.mhlw.go.jp/33/index.php?action_kouhyou_detail_004_kani=true&JigyosyoCd=3360191278-00&ServiceCd=130&Type=search", "url2": "https://select-life.co.jp" }, "geometry": { "type": "Point", "coordinates": [ 133.902919437434377, 34.634831879353683 ] } },
{ "type": "Feature", "properties": { "内容": "王子脳神経外科医院【訪問看護】児島下の町5-2-17", "url": "https://www.kaigokensaku.mhlw.go.jp/33/index.php?action_kouhyou_detail_004_kani=true&JigyosyoCd=3310211465-00&ServiceCd=130&Type=search", "url2": "harada@ohji-nouge.or.jp" }, "geometry": { "type": "Point", "coordinates": [ 133.821486680950926, 34.477551534247084 ] } },
{ "type": "Feature", "properties": { "内容": "かもい胃腸科内科医院【訪問看護】岡山県倉敷市船穂町船穂39-11", "url": "https://www.kaigokensaku.mhlw.go.jp/33/index.php?action_kouhyou_detail_004_kani=true&JigyosyoCd=3312710183-00&ServiceCd=130&Type=search", "url2": null }, "geometry": { "type": "Point", "coordinates": [ 133.710708899999986, 34.5860828 ] } },
{ "type": "Feature", "properties": { "内容": "訪問看護ステーション　デューン倉敷西【訪問看護】岡山県倉敷市笹沖1261番地５白神テナント１階", "url": "https://www.kaigokensaku.mhlw.go.jp/33/index.php?action_kouhyou_detail_004_kani=true&JigyosyoCd=3360290534-00&ServiceCd=130&Type=search", "url2": null }, "geometry": { "type": "Point", "coordinates": [ 133.769397700000013, 34.5803475 ] } },
{ "type": "Feature", "properties": { "内容": "訪問看護ステーション翡翠【訪問看護】茶屋町03-11", "url": "https://www.kaigokensaku.mhlw.go.jp/33/index.php?action_kouhyou_detail_004_kani=true&JigyosyoCd=3360290567-00&ServiceCd=130&Type=search", "url2": "http://www.fukujyu.or.jp/fukujyukai" }, "geometry": { "type": "Point", "coordinates": [ 135.499857799999972, 34.7074576 ] } },
{ "type": "Feature", "properties": { "内容": "訪問看護ステーション　デューン新倉敷【訪問看護】岡山県倉敷市玉島爪崎446MK北ビル203号室", "url": "https://www.kaigokensaku.mhlw.go.jp/33/index.php?action_kouhyou_detail_004_kani=true&JigyosyoCd=3360290476-00&ServiceCd=130&Type=search", "url2": null }, "geometry": { "type": "Point", "coordinates": [ 133.677674199999956, 34.5668484 ] } },
{ "type": "Feature", "properties": { "内容": "医療法人　昭和会　倉敷北病院【訪問看護】岡山県倉敷市宮前41-2", "url": "https://www.kaigokensaku.mhlw.go.jp/33/index.php?action_kouhyou_detail_004_kani=true&JigyosyoCd=3310212398-00&ServiceCd=130&Type=search", "url2": "http://www.kurakita.or.jp" }, "geometry": { "type": "Point", "coordinates": [ 133.7618675, 34.6106417 ] } },
{ "type": "Feature", "properties": { "内容": "訪問看護ステーションももたろう【訪問看護】倉敷市新倉敷駅前1丁目60-1", "url": "https://www.kaigokensaku.mhlw.go.jp/33/index.php?action_kouhyou_detail_004_kani=true&JigyosyoCd=3360290609-00&ServiceCd=130&Type=search", "url2": "https://momotaro-kaigo.com/" }, "geometry": { "type": "Point", "coordinates": [ 133.6766073, 34.5633879 ] } },
{ "type": "Feature", "properties": { "内容": "渡辺胃腸科外科病院【訪問看護】岡山県倉敷市玉島上成５３９－５", "url": "https://www.kaigokensaku.mhlw.go.jp/33/index.php?action_kouhyou_detail_004_kani=true&JigyosyoCd=3310210863-00&ServiceCd=130&Type=search", "url2": "http://watanabe.or.jp/" }, "geometry": { "type": "Point", "coordinates": [ 133.686748299999977, 34.5626876 ] } },
{ "type": "Feature", "properties": { "内容": "訪問看護ステーション児島【訪問看護】岡山県倉敷市児島味野一丁目4番23号", "url": "https://www.kaigokensaku.mhlw.go.jp/33/index.php?action_kouhyou_detail_004_kani=true&JigyosyoCd=3360290443-00&ServiceCd=130&Type=search", "url2": null }, "geometry": { "type": "Point", "coordinates": [ 133.80541740000001, 34.4697803 ] } },
{ "type": "Feature", "properties": { "内容": "いなだ医院【訪問看護】岡山県倉敷市玉島柏島920-106", "url": "https://www.kaigokensaku.mhlw.go.jp/33/index.php?action_kouhyou_detail_004_kani=true&JigyosyoCd=3310212208-00&ServiceCd=130&Type=search", "url2": null }, "geometry": { "type": "Point", "coordinates": [ 133.662246699999969, 34.5326818 ] } },
{ "type": "Feature", "properties": { "内容": "よつ葉訪問看護ステーション【訪問看護】岡山県倉敷市下庄458-1", "url": "https://www.kaigokensaku.mhlw.go.jp/33/index.php?action_kouhyou_detail_004_kani=true&JigyosyoCd=3360290112-00&ServiceCd=130&Type=search", "url2": "http://www.ensako.or.jp" }, "geometry": { "type": "Point", "coordinates": [ 133.823061776721261, 34.64039043739642 ] } },
{ "type": "Feature", "properties": { "内容": "訪問看護ステーションみつや倉敷【訪問看護】岡山県倉敷市北畝5-5-11", "url": "https://www.kaigokensaku.mhlw.go.jp/33/index.php?action_kouhyou_detail_004_kani=true&JigyosyoCd=3360290435-00&ServiceCd=130&Type=search", "url2": "www.onewish-mitsuya.com" }, "geometry": { "type": "Point", "coordinates": [ 133.754439400000024, 34.538038 ] } },
{ "type": "Feature", "properties": { "内容": "創心会訪問看護リハビリステーション中洲【訪問看護】岡山県倉敷市水江1510-1", "url": "https://www.kaigokensaku.mhlw.go.jp/33/index.php?action_kouhyou_detail_004_kani=true&JigyosyoCd=3360290583-00&ServiceCd=130&Type=search", "url2": "https://www.soushinkai-group.com/" }, "geometry": { "type": "Point", "coordinates": [ 133.743702364418027, 34.592865308369042 ] } },
{ "type": "Feature", "properties": { "内容": "訪問看護ステーションデューン倉敷北【訪問看護】岡山県倉敷市川入795-15川入事務所1階", "url": "https://www.kaigokensaku.mhlw.go.jp/33/index.php?action_kouhyou_detail_004_kani=true&JigyosyoCd=3360290690-00&ServiceCd=130&Type=search", "url2": null }, "geometry": { "type": "Point", "coordinates": [ 133.758387699999986, 34.6072843 ] } },
{ "type": "Feature", "properties": { "内容": "医心館訪問看護ステーション倉敷【訪問看護】岡山県倉敷市西中新田25番3", "url": "https://www.kaigokensaku.mhlw.go.jp/33/index.php?action_kouhyou_detail_004_kani=true&JigyosyoCd=3360290724-00&ServiceCd=130&Type=search", "url2": null }, "geometry": { "type": "Point", "coordinates": [ 133.760938900000014, 34.5822543 ] } },
{ "type": "Feature", "properties": { "内容": "ツクイ倉敷訪問看護ステーション【訪問看護】岡山県倉敷市昭和２丁目４−１４竹富ビル２階", "url": "https://www.kaigokensaku.mhlw.go.jp/33/index.php?action_kouhyou_detail_004_kani=true&JigyosyoCd=3360290658-00&ServiceCd=130&Type=search", "url2": null }, "geometry": { "type": "Point", "coordinates": [ 133.7723426, 34.6046635 ] } },
{ "type": "Feature", "properties": { "内容": "あなぶきケアサービス倉敷訪問看護ステーション【訪問看護】岡山県倉敷市日ノ出町1丁目5-7", "url": "https://www.kaigokensaku.mhlw.go.jp/33/index.php?action_kouhyou_detail_004_kani=true&JigyosyoCd=3360290492-00&ServiceCd=130&Type=search", "url2": null }, "geometry": { "type": "Point", "coordinates": [ 133.769501, 34.604978 ] } },
{ "type": "Feature", "properties": { "内容": "医療法人　創生会　わたなべ訪問看護ステーション【訪問看護】岡山県倉敷市玉島上成539-5", "url": "https://www.kaigokensaku.mhlw.go.jp/33/index.php?action_kouhyou_detail_004_kani=true&JigyosyoCd=3360290732-00&ServiceCd=130&Type=search", "url2": "https://watanabe.or.jp" }, "geometry": { "type": "Point", "coordinates": [ 133.6868044, 34.5625316 ] } },
{ "type": "Feature", "properties": { "内容": "訪問看護フィリーズ【訪問看護】岡山県倉敷市上東526-13", "url": "https://www.kaigokensaku.mhlw.go.jp/33/index.php?action_kouhyou_detail_004_kani=true&JigyosyoCd=3360290799-00&ServiceCd=130&Type=search", "url2": "http://phillys.v2011.coreserver.jp/" }, "geometry": { "type": "Point", "coordinates": [ 133.8231236, 34.6463042 ] } },
{ "type": "Feature", "properties": { "内容": "あわい訪問看護ステーション【訪問看護】岡山県倉敷市川入795番地5グリーンビレッジA棟101号室", "url": "https://www.kaigokensaku.mhlw.go.jp/33/index.php?action_kouhyou_detail_004_kani=true&JigyosyoCd=3360290815-00&ServiceCd=130&Type=search", "url2": "https://roots0624.com" }, "geometry": { "type": "Point", "coordinates": [ 133.7580278, 34.607022100000016 ] } },
{ "type": "Feature", "properties": { "内容": "訪問看護ステーションみのり【訪問看護】岡山県倉敷市黒崎564番地5", "url": "https://www.kaigokensaku.mhlw.go.jp/33/index.php?action_kouhyou_detail_004_kani=true&JigyosyoCd=3360290575-00&ServiceCd=130&Type=search", "url2": "houkan-minori.com" }, "geometry": { "type": "Point", "coordinates": [ 133.7914822, 34.6065531 ] } },
{ "type": "Feature", "properties": { "内容": "訪問看護ステーションあんど【訪問看護】岡山県倉敷市真備町川辺2000-1", "url": "https://www.kaigokensaku.mhlw.go.jp/33/index.php?action_kouhyou_detail_004_kani=true&JigyosyoCd=3360290351-00&ServiceCd=130&Type=search", "url2": null }, "geometry": { "type": "Point", "coordinates": [ 133.709647269186462, 34.637833997823755 ] } },
{ "type": "Feature", "properties": { "内容": "天和会訪問看護ステーション【訪問看護】岡山県倉敷市鶴形１丁目３番２８号", "url": "https://www.kaigokensaku.mhlw.go.jp/33/index.php?action_kouhyou_detail_004_kani=true&JigyosyoCd=3360290088-00&ServiceCd=130&Type=search", "url2": "http://matsuda-hospital.or.jp/" }, "geometry": { "type": "Point", "coordinates": [ 133.77105030000007, 34.6018063 ] } },
{ "type": "Feature", "properties": { "内容": "水島虹の訪問看護ステーション【訪問看護】倉敷市水島南春日町１３－１", "url": "https://www.kaigokensaku.mhlw.go.jp/33/index.php?action_kouhyou_detail_004_kani=true&JigyosyoCd=3360290054-00&ServiceCd=130&Type=search", "url2": "http://www.mizushima-niji.com/" }, "geometry": { "type": "Point", "coordinates": [ 133.741003994442764, 34.543802812770195 ] } },
{ "type": "Feature", "properties": { "内容": "富田訪問看護ステーション【訪問看護】玉島道口78-1", "url": "https://www.kaigokensaku.mhlw.go.jp/33/index.php?action_kouhyou_detail_004_kani=true&JigyosyoCd=3360290369-00&ServiceCd=130&Type=search", "url2": "tomicare.coｍ" }, "geometry": { "type": "Point", "coordinates": [ 133.653868200000034, 34.563321 ] } },
{ "type": "Feature", "properties": { "内容": "そーる訪問看護ステーション【訪問看護】岡山県倉敷市真備町尾崎812－16", "url": "https://www.kaigokensaku.mhlw.go.jp/33/index.php?action_kouhyou_detail_004_kani=true&JigyosyoCd=3360290450-00&ServiceCd=130&Type=search", "url2": "nposoul.com" }, "geometry": { "type": "Point", "coordinates": [ 133.678286299999968, 34.6262035 ] } },
{ "type": "Feature", "properties": { "内容": "訪問看護ステーションみらい【訪問看護】児島下の町5-2-17", "url": "https://www.kaigokensaku.mhlw.go.jp/33/index.php?action_kouhyou_detail_004_kani=true&JigyosyoCd=3360290740-00&ServiceCd=130&Type=search", "url2": "https://www.ohji-group.com/" }, "geometry": { "type": "Point", "coordinates": [ 133.82152640000001, 34.4775511 ] } },
{ "type": "Feature", "properties": { "内容": "倉敷中央訪問看護ステーション【訪問看護】岡山県倉敷市鶴形一丁目9番7号", "url": "https://www.kaigokensaku.mhlw.go.jp/33/index.php?action_kouhyou_detail_004_kani=true&JigyosyoCd=3360290039-00&ServiceCd=130&Type=search", "url2": "https://www.kchnet.or.jp/home_nursing/" }, "geometry": { "type": "Point", "coordinates": [ 133.7720114, 34.6017647 ] } },
{ "type": "Feature", "properties": { "内容": "倉敷しげい訪問看護ステーション【訪問看護】倉敷市幸町２－３０", "url": "https://www.kaigokensaku.mhlw.go.jp/33/index.php?action_kouhyou_detail_004_kani=true&JigyosyoCd=3360290179-00&ServiceCd=130&Type=search", "url2": "http://www.shigei.or.jp/shigei/index.htm" }, "geometry": { "type": "Point", "coordinates": [ 133.773147399999971, 34.6036701 ] } },
{ "type": "Feature", "properties": { "内容": "訪問看護ステーション　サンライフ倉敷【訪問看護】岡山県倉敷市下庄700番地1", "url": "https://www.kaigokensaku.mhlw.go.jp/33/index.php?action_kouhyou_detail_004_kani=true&JigyosyoCd=3360290104-00&ServiceCd=130&Type=search", "url2": "https://suiseikai-group.jp/heiseikai/" }, "geometry": { "type": "Point", "coordinates": [ 133.823852699999946, 34.63680040000002 ] } },
{ "type": "Feature", "properties": { "内容": "訪問看護ステーション青空【訪問看護】岡山県倉敷市玉島７５０－１", "url": "https://www.kaigokensaku.mhlw.go.jp/33/index.php?action_kouhyou_detail_004_kani=true&JigyosyoCd=3360290294-00&ServiceCd=130&Type=search", "url2": "https://www.primehospital.or.jp/bumon/bumon01" }, "geometry": { "type": "Point", "coordinates": [ 133.685926099999989, 34.549644800000038 ] } },
{ "type": "Feature", "properties": { "内容": "創心会訪問看護リハビリステーション【訪問看護】岡山県倉敷市茶屋町2104‐1", "url": "https://www.kaigokensaku.mhlw.go.jp/33/index.php?action_kouhyou_detail_004_kani=true&JigyosyoCd=3360290237-00&ServiceCd=130&Type=search", "url2": "http://www.soushinkai.com" }, "geometry": { "type": "Point", "coordinates": [ 133.824535800000035, 34.5834535 ] } },
{ "type": "Feature", "properties": { "内容": "医療法人桃心会　新倉敷ピーチクリニック【訪問看護】岡山県倉敷市玉島八島1513", "url": "https://www.kaigokensaku.mhlw.go.jp/33/index.php?action_kouhyou_detail_004_kani=true&JigyosyoCd=3310213081-00&ServiceCd=130&Type=search", "url2": "http://www.peach-clinic.com/" }, "geometry": { "type": "Point", "coordinates": [ 133.668740215344201, 34.563514217586565 ] } },
{ "type": "Feature", "properties": { "内容": "児島聖康病院【訪問看護】岡山県倉敷市児島下の町1丁目1番16号", "url": "https://www.kaigokensaku.mhlw.go.jp/33/index.php?action_kouhyou_detail_004_kani=true&JigyosyoCd=3310213487-00&ServiceCd=130&Type=search", "url2": "https://seikoh-hp.or.jp/" }, "geometry": { "type": "Point", "coordinates": [ 133.8169624, 34.4690797 ] } },
{ "type": "Feature", "properties": { "内容": "倉敷訪問看護サービスセンター【訪問看護】岡山県倉敷市粒浦80番１", "url": "https://www.kaigokensaku.mhlw.go.jp/33/index.php?action_kouhyou_detail_004_kani=true&JigyosyoCd=3360290005-00&ServiceCd=130&Type=search", "url2": "fkhmc-net.or.jp/hoken" }, "geometry": { "type": "Point", "coordinates": [ 133.773995568122928, 34.569375927068826 ] } },
{ "type": "Feature", "properties": { "内容": "訪問看護ステーションてまり【訪問看護】岡山県倉敷市玉島乙島４０３０", "url": "https://www.kaigokensaku.mhlw.go.jp/33/index.php?action_kouhyou_detail_004_kani=true&JigyosyoCd=3360290278-00&ServiceCd=130&Type=search", "url2": "http://www.tamashimahosp.or.jp" }, "geometry": { "type": "Point", "coordinates": [ 133.680468499999961, 34.5416506 ] } },
{ "type": "Feature", "properties": { "内容": "ヘイセイ訪問看護ステーション【訪問看護】岡山県倉敷市老松町4丁目4-7倉敷在宅総合ケアセンター", "url": "https://www.kaigokensaku.mhlw.go.jp/33/index.php?action_kouhyou_detail_004_kani=true&JigyosyoCd=3360290013-00&ServiceCd=130&Type=search", "url2": "http://www/heisei.or.jp." }, "geometry": { "type": "Point", "coordinates": [ 133.760956699999952, 34.594082 ] } },
{ "type": "Feature", "properties": { "内容": "医療法人和楽会野上内科医院【訪問看護】岡山県倉敷市児島味野6丁目1番10号", "url": "https://www.kaigokensaku.mhlw.go.jp/33/index.php?action_kouhyou_detail_004_kani=true&JigyosyoCd=3310211218-00&ServiceCd=130&Type=search", "url2": "https://www.warakukai.com/" }, "geometry": { "type": "Point", "coordinates": [ 133.799312399999963, 34.4681997 ] } },
{ "type": "Feature", "properties": { "内容": "水島訪問看護ステーション【訪問看護】岡山県倉敷市神田2丁目3-33", "url": "https://www.kaigokensaku.mhlw.go.jp/33/index.php?action_kouhyou_detail_004_kani=true&JigyosyoCd=3360290047-00&ServiceCd=130&Type=search", "url2": "https://suiseikai-group.jp/suiseikai/care/homonkango/" }, "geometry": { "type": "Point", "coordinates": [ 133.738971707409604, 34.541789068566921 ] } },
{ "type": "Feature", "properties": { "内容": "訪問看護ステーションクローバー【訪問看護】倉敷市児島小川9-5-8", "url": "https://www.kaigokensaku.mhlw.go.jp/33/index.php?action_kouhyou_detail_004_kani=true&JigyosyoCd=3360290682-00&ServiceCd=130&Type=search", "url2": null }, "geometry": { "type": "Point", "coordinates": [ 133.80420380000001, 34.4902234 ] } },
{ "type": "Feature", "properties": { "内容": "おうじ訪問看護ステーション【訪問看護】岡山県倉敷市児島下の町3-6-43", "url": "https://www.kaigokensaku.mhlw.go.jp/33/index.php?action_kouhyou_detail_004_kani=true&JigyosyoCd=3360290625-00&ServiceCd=130&Type=search", "url2": null }, "geometry": { "type": "Point", "coordinates": [ 133.820494800000034, 34.476560699999986 ] } },
{ "type": "Feature", "properties": { "内容": "グッドタイム訪問看護ステーション・倉敷【訪問看護】岡山県倉敷市日吉町３４７番地１", "url": "https://www.kaigokensaku.mhlw.go.jp/33/index.php?action_kouhyou_detail_004_kani=true&JigyosyoCd=3360290526-00&ServiceCd=130&Type=search", "url2": "http://www.goodtimehome.com" }, "geometry": { "type": "Point", "coordinates": [ 133.756306200000012, 34.6023882 ] } },
{ "type": "Feature", "properties": { "内容": "倉敷紀念訪問看護ステーション【訪問看護】岡山県倉敷市中島770-1", "url": "https://www.kaigokensaku.mhlw.go.jp/33/index.php?action_kouhyou_detail_004_kani=true&JigyosyoCd=3360290062-00&ServiceCd=130&Type=search", "url2": "http://www.seiwakai-net.or.jp" }, "geometry": { "type": "Point", "coordinates": [ 133.739499127092017, 34.579967030794165 ] } },
{ "type": "Feature", "properties": { "内容": "訪問看護ステーション心頼【訪問看護】笹沖425-2", "url": "https://www.kaigokensaku.mhlw.go.jp/33/index.php?action_kouhyou_detail_004_kani=true&JigyosyoCd=3360290781-00&ServiceCd=130&Type=search", "url2": "http://shinrai.k-acacia.com/" }, "geometry": { "type": "Point", "coordinates": [ 133.7685277, 34.575599 ] } },
{ "type": "Feature", "properties": { "内容": "倉敷スイート訪問看護ステーション【訪問看護】岡山県倉敷市中庄3542番1", "url": "https://www.kaigokensaku.mhlw.go.jp/33/index.php?action_kouhyou_detail_004_kani=true&JigyosyoCd=3360290484-00&ServiceCd=130&Type=search", "url2": "http://sweet-town.jp/station/index.html" }, "geometry": { "type": "Point", "coordinates": [ 133.80400910000003, 34.6244461 ] } },
{ "type": "Feature", "properties": { "内容": "玉島中央病院訪問看護ステーション【訪問看護】岡山県倉敷市玉島阿賀崎２丁目566番5", "url": "https://www.kaigokensaku.mhlw.go.jp/33/index.php?action_kouhyou_detail_004_kani=true&JigyosyoCd=3360290559-00&ServiceCd=130&Type=search", "url2": "http://www.tamashima-ch.or.jp" }, "geometry": { "type": "Point", "coordinates": [ 133.6725963, 34.5476339 ] } },
{ "type": "Feature", "properties": { "内容": "和香会訪問看護ステーション【訪問看護】岡山県倉敷市東塚５丁目４番１６号", "url": "https://www.kaigokensaku.mhlw.go.jp/33/index.php?action_kouhyou_detail_004_kani=true&JigyosyoCd=3360290211-00&ServiceCd=130&Type=search", "url2": "http://www.wakokai.com" }, "geometry": { "type": "Point", "coordinates": [ 133.762890150941587, 34.531045558813048 ] } },
{ "type": "Feature", "properties": { "内容": "ニチイケアセンター大高【訪問看護】岡山県倉敷市福井46-5", "url": "https://www.kaigokensaku.mhlw.go.jp/33/index.php?action_kouhyou_detail_004_kani=true&JigyosyoCd=3360290377-00&ServiceCd=130&Type=search", "url2": "http://www.nichiigakkan.co.jp" }, "geometry": { "type": "Point", "coordinates": [ 133.753702400000066, 34.5705508 ] } },
{ "type": "Feature", "properties": { "内容": "チューリップ訪問看護ステーション倉敷【訪問看護】岡山県倉敷市中庄3594-8", "url": "https://www.kaigokensaku.mhlw.go.jp/33/index.php?action_kouhyou_detail_004_kani=true&JigyosyoCd=3360290823-00&ServiceCd=130&Type=search", "url2": "https://tulip-houmonkango.jp" }, "geometry": { "type": "Point", "coordinates": [ 133.8038789, 34.6262941 ] } },
{ "type": "Feature", "properties": { "内容": "訪問看護ステーションるぽ【訪問看護】岡山県倉敷市浜ノ茶屋２３３－５サンクレール田之上１０３号室", "url": "https://www.kaigokensaku.mhlw.go.jp/33/index.php?action_kouhyou_detail_004_kani=true&JigyosyoCd=3360290641-00&ServiceCd=130&Type=search", "url2": "https://cannus-kurashiki.com" }, "geometry": { "type": "Point", "coordinates": [ 133.7712387, 34.614425 ] } },
{ "type": "Feature", "properties": { "内容": "訪問看護ステーションなないろ【訪問看護】岡山県倉敷市林808-3", "url": "https://www.kaigokensaku.mhlw.go.jp/33/index.php?action_kouhyou_detail_004_kani=true&JigyosyoCd=3360290500-00&ServiceCd=130&Type=search", "url2": "http://www.ideal0808.com" }, "geometry": { "type": "Point", "coordinates": [ 133.814844181614717, 34.53615328119286 ] } },
{ "type": "Feature", "properties": { "内容": "訪問看護ステーションかえで【訪問看護】倉敷市連島町西之浦３５２－１", "url": "https://www.kaigokensaku.mhlw.go.jp/33/index.php?action_kouhyou_detail_004_kani=true&JigyosyoCd=3360290229-00&ServiceCd=130&Type=search", "url2": "http://takeda-h.byoinnavi.jp/" }, "geometry": { "type": "Point", "coordinates": [ 133.7150815, 34.5503138 ] } },
{ "type": "Feature", "properties": { "内容": "訪問看護ステーション　ぶどうの家　天使のおくりもの【訪問看護】倉敷市船穂町船穂2901", "url": "https://www.kaigokensaku.mhlw.go.jp/33/index.php?action_kouhyou_detail_004_kani=true&JigyosyoCd=3360290393-00&ServiceCd=130&Type=search", "url2": null }, "geometry": { "type": "Point", "coordinates": [ 133.707675247607426, 34.584653653899842 ] } },
{ "type": "Feature", "properties": { "内容": "訪問看護ステーションみこと【訪問看護】岡山県倉敷市藤戸町天城625-5グリーンヒルズA1-2", "url": "https://www.kaigokensaku.mhlw.go.jp/33/index.php?action_kouhyou_detail_004_kani=true&JigyosyoCd=3360290427-00&ServiceCd=130&Type=search", "url2": "https://www.houkan-mikoto.com/" }, "geometry": { "type": "Point", "coordinates": [ 133.80720759999997, 34.564144 ] } },
{ "type": "Feature", "properties": { "内容": "さくら訪問看護【訪問看護】岡山県倉敷市幸町7-7-5", "url": "https://www.kaigokensaku.mhlw.go.jp/33/index.php?action_kouhyou_detail_004_kani=true&JigyosyoCd=3360290518-00&ServiceCd=130&Type=search", "url2": "http://hp.kaipoke.biz/8u7/" }, "geometry": { "type": "Point", "coordinates": [ 133.773857, 34.6064887 ] } },
{ "type": "Feature", "properties": { "内容": "フィロソフィア訪問看護ステーション倉敷【訪問看護】岡山県倉敷市石見町4－6PDレジデンス倉敷", "url": "https://www.kaigokensaku.mhlw.go.jp/33/index.php?action_kouhyou_detail_004_kani=true&JigyosyoCd=3360290765-00&ServiceCd=130&Type=search", "url2": "https://p-sophia.co.jp/" }, "geometry": { "type": "Point", "coordinates": [ 133.7615892, 34.6000673 ] } },
{ "type": "Feature", "properties": { "内容": "訪問看護ステーションひまわり【訪問看護】岡山県津山市平福546番地１", "url": "https://www.kaigokensaku.mhlw.go.jp/33/index.php?action_kouhyou_detail_004_kani=true&JigyosyoCd=3360390003-00&ServiceCd=130&Type=search", "url2": "http://tsuyama-coop.jp/himawari.html" }, "geometry": { "type": "Point", "coordinates": [ 133.97024650000003, 35.050672 ] } },
{ "type": "Feature", "properties": { "内容": "ひらいクリニック【訪問看護】岡山県津山市加茂町中原61", "url": "https://www.kaigokensaku.mhlw.go.jp/33/index.php?action_kouhyou_detail_004_kani=true&JigyosyoCd=3310310853-00&ServiceCd=130&Type=search", "url2": "http://www.jikeikai-net.or.jp" }, "geometry": { "type": "Point", "coordinates": [ 134.0521908, 35.1761684 ] } },
{ "type": "Feature", "properties": { "内容": "訪問看護ステーション　レモン【訪問看護】岡山県津山市一方140", "url": "https://www.kaigokensaku.mhlw.go.jp/33/index.php?action_kouhyou_detail_004_kani=true&JigyosyoCd=3360390011-00&ServiceCd=130&Type=search", "url2": "http;//www.sekizen.or.jp" }, "geometry": { "type": "Point", "coordinates": [ 133.980320399999982, 35.0562022 ] } },
{ "type": "Feature", "properties": { "内容": "訪問看護ステーションこだま【訪問看護】岡山県津山市川崎554-5", "url": "https://www.kaigokensaku.mhlw.go.jp/33/index.php?action_kouhyou_detail_004_kani=true&JigyosyoCd=3360390037-00&ServiceCd=130&Type=search", "url2": "https://www.toukou.or.jp" }, "geometry": { "type": "Point", "coordinates": [ 134.025730352856527, 35.062566745954804 ] } },
{ "type": "Feature", "properties": { "内容": "津山中央訪問看護ステーション【訪問看護】岡山県津山市元魚町１２", "url": "https://www.kaigokensaku.mhlw.go.jp/33/index.php?action_kouhyou_detail_004_kani=true&JigyosyoCd=3360390045-00&ServiceCd=130&Type=search", "url2": "http://www.tch.or.jp" }, "geometry": { "type": "Point", "coordinates": [ 134.000771200000031, 35.0607134 ] } },
{ "type": "Feature", "properties": { "内容": "訪問看護ステーションあゆみ【訪問看護】岡山県津山市日本原352", "url": "https://www.kaigokensaku.mhlw.go.jp/33/index.php?action_kouhyou_detail_004_kani=true&JigyosyoCd=3360390078-00&ServiceCd=130&Type=search", "url2": "http://www.smc-seifukai.or.jp/ayumi/index.html" }, "geometry": { "type": "Point", "coordinates": [ 134.132151300000032, 35.11113 ] } },
{ "type": "Feature", "properties": { "内容": "そよかぜ訪問看護ステーション【訪問看護】津山市中原３８５－１", "url": "https://www.kaigokensaku.mhlw.go.jp/33/index.php?action_kouhyou_detail_004_kani=true&JigyosyoCd=3360390086-00&ServiceCd=130&Type=search", "url2": "http://www.soyokaze-hn.co.jp/" }, "geometry": { "type": "Point", "coordinates": [ 134.0672343, 35.0413337 ] } },
{ "type": "Feature", "properties": { "内容": "津山第一病院　訪問看護ステーション【訪問看護】中島438番地津山第一病院内", "url": "https://www.kaigokensaku.mhlw.go.jp/33/index.php?action_kouhyou_detail_004_kani=true&JigyosyoCd=3360390102-00&ServiceCd=130&Type=search", "url2": "http://www.tsuyama-1sthp.jp/wp/houkan/" }, "geometry": { "type": "Point", "coordinates": [ 133.966718899999933, 35.0535439 ] } },
{ "type": "Feature", "properties": { "内容": "訪問看護ステーションひこうきぐも【訪問看護】岡山県津山市押入791-1ダイガビル2号", "url": "https://www.kaigokensaku.mhlw.go.jp/33/index.php?action_kouhyou_detail_004_kani=true&JigyosyoCd=3360390128-00&ServiceCd=130&Type=search", "url2": null }, "geometry": { "type": "Point", "coordinates": [ 134.052480100000025, 35.0705363 ] } },
{ "type": "Feature", "properties": { "内容": "訪問看護ステーション　ホームケアプラス【訪問看護】岡山県津山市沼856-3", "url": "https://www.kaigokensaku.mhlw.go.jp/33/index.php?action_kouhyou_detail_004_kani=true&JigyosyoCd=3360390151-00&ServiceCd=130&Type=search", "url2": "https://smc-seifukai.or.jp" }, "geometry": { "type": "Point", "coordinates": [ 134.01632570000001, 35.0733015 ] } },
{ "type": "Feature", "properties": { "内容": "訪問看護ステーションなかしま【訪問看護】岡山県津山市田町119-20", "url": "https://www.kaigokensaku.mhlw.go.jp/33/index.php?action_kouhyou_detail_004_kani=true&JigyosyoCd=3360390094-00&ServiceCd=130&Type=search", "url2": "http://nakashima-tsuyama.or.jp/" }, "geometry": { "type": "Point", "coordinates": [ 133.994477114086209, 35.06283477822295 ] } },
{ "type": "Feature", "properties": { "内容": "訪問看護ステーションのどか【訪問看護】岡山県津山市神戸262-1", "url": "https://www.kaigokensaku.mhlw.go.jp/33/index.php?action_kouhyou_detail_004_kani=true&JigyosyoCd=3360390144-00&ServiceCd=130&Type=search", "url2": null }, "geometry": { "type": "Point", "coordinates": [ 133.945327099999986, 35.0575693 ] } },
{ "type": "Feature", "properties": { "内容": "訪問看護ステーション　ほほえみ【訪問看護】岡山県玉野市田井３丁目８番11号", "url": "https://www.kaigokensaku.mhlw.go.jp/33/index.php?action_kouhyou_detail_004_kani=true&JigyosyoCd=3360490035-00&ServiceCd=130&Type=search", "url2": "hohoemi@onishihp.or.jp" }, "geometry": { "type": "Point", "coordinates": [ 133.9460477, 34.5159079 ] } },
{ "type": "Feature", "properties": { "内容": "訪問看護リハビリステーションほのかＴａｍａｎｏ【訪問看護】岡山県玉野市長尾５５７－１", "url": "https://www.kaigokensaku.mhlw.go.jp/33/index.php?action_kouhyou_detail_004_kani=true&JigyosyoCd=3360490050-00&ServiceCd=130&Type=search", "url2": "https://honoka-hc.co.jp" }, "geometry": { "type": "Point", "coordinates": [ 133.8907107, 34.4955646 ] } },
{ "type": "Feature", "properties": { "内容": "訪問看護リハビリステーションしん【訪問看護】岡山県玉野市長尾759-1ファミール長尾105号", "url": "https://www.kaigokensaku.mhlw.go.jp/33/index.php?action_kouhyou_detail_004_kani=true&JigyosyoCd=3360490068-00&ServiceCd=130&Type=search", "url2": "http://www.forestcreates.co.jp/sp/index.html" }, "geometry": { "type": "Point", "coordinates": [ 133.891482900000028, 34.5011585 ] } },
{ "type": "Feature", "properties": { "内容": "訪問看護ステーション　ママック【訪問看護】岡山県玉野市東高崎24-8", "url": "https://www.kaigokensaku.mhlw.go.jp/33/index.php?action_kouhyou_detail_004_kani=true&JigyosyoCd=3362590014-00&ServiceCd=130&Type=search", "url2": "http://www.rcare.jp" }, "geometry": { "type": "Point", "coordinates": [ 133.892418950401293, 34.540206035737313 ] } },
{ "type": "Feature", "properties": { "内容": "訪問看護ステーション　瀬戸いこい苑【訪問看護】岡山県笠岡市横島1944-1", "url": "https://www.kaigokensaku.mhlw.go.jp/33/index.php?action_kouhyou_detail_004_kani=true&JigyosyoCd=3360590024-00&ServiceCd=130&Type=search", "url2": "http://www.kasaoka-d-hp.or.jp" }, "geometry": { "type": "Point", "coordinates": [ 133.519846599999937, 34.4785581 ] } },
{ "type": "Feature", "properties": { "内容": "訪問看護ステーションくじば【訪問看護】岡山県笠岡市笠岡5,099番地の2", "url": "https://www.kaigokensaku.mhlw.go.jp/33/index.php?action_kouhyou_detail_004_kani=true&JigyosyoCd=3360590008-00&ServiceCd=130&Type=search", "url2": "http://www.midorijujikai.or.jp/houkan.html" }, "geometry": { "type": "Point", "coordinates": [ 133.507985554731022, 34.512290452806603 ] } },
{ "type": "Feature", "properties": { "内容": "井原医師会訪問看護ステーション【訪問看護】岡山県井原市井原町181-5", "url": "https://www.kaigokensaku.mhlw.go.jp/33/index.php?action_kouhyou_detail_004_kani=true&JigyosyoCd=3360790004-00&ServiceCd=130&Type=search", "url2": "http://www.ibaraisikai.or.jp/" }, "geometry": { "type": "Point", "coordinates": [ 133.463939799999906, 34.5971107 ] } },
{ "type": "Feature", "properties": { "内容": "井原市立井原市民病院【訪問看護】岡山県井原市井原町1186番地", "url": "https://www.kaigokensaku.mhlw.go.jp/33/index.php?action_kouhyou_detail_004_kani=true&JigyosyoCd=3318900416-00&ServiceCd=130&Type=search", "url2": "http://www.ibarahp.jp/" }, "geometry": { "type": "Point", "coordinates": [ 133.458856700000069, 34.6032711 ] } },
{ "type": "Feature", "properties": { "内容": "すばる訪問看護ステーション【訪問看護】岡山県総社市真壁212番地", "url": "https://www.kaigokensaku.mhlw.go.jp/33/index.php?action_kouhyou_detail_004_kani=true&JigyosyoCd=3360890010-00&ServiceCd=130&Type=search", "url2": null }, "geometry": { "type": "Point", "coordinates": [ 133.757475200000044, 34.6680328 ] } },
{ "type": "Feature", "properties": { "内容": "訪問看護ステーションこやま【訪問看護】岡山県総社市清音上中島239番地4コーポ清音202号室", "url": "https://www.kaigokensaku.mhlw.go.jp/33/index.php?action_kouhyou_detail_004_kani=true&JigyosyoCd=3360890085-00&ServiceCd=130&Type=search", "url2": "https://www.houkan-kym.fun" }, "geometry": { "type": "Point", "coordinates": [ 133.732677299999978, 34.6454989 ] } },
{ "type": "Feature", "properties": { "内容": "訪問看護ステーションone・room【訪問看護】岡山県総社市中央1丁目2－13高杉事務所2階", "url": "https://www.kaigokensaku.mhlw.go.jp/33/index.php?action_kouhyou_detail_004_kani=true&JigyosyoCd=3360890093-00&ServiceCd=130&Type=search", "url2": null }, "geometry": { "type": "Point", "coordinates": [ 133.745025, 34.6728269 ] } },
{ "type": "Feature", "properties": { "内容": "訪問看護ステーション　ケアリンク総社【訪問看護】岡山県総社市中原580-6", "url": "https://www.kaigokensaku.mhlw.go.jp/33/index.php?action_kouhyou_detail_004_kani=true&JigyosyoCd=3360890119-00&ServiceCd=130&Type=search", "url2": "carelink.alive.gr.jp" }, "geometry": { "type": "Point", "coordinates": [ 133.7296938, 34.6648335 ] } },
{ "type": "Feature", "properties": { "内容": "訪問看護ステーション　光憂舘【訪問看護】岡山県総社市日羽456-1", "url": "https://www.kaigokensaku.mhlw.go.jp/33/index.php?action_kouhyou_detail_004_kani=true&JigyosyoCd=3360890101-00&ServiceCd=130&Type=search", "url2": "https://www.k5963.com/" }, "geometry": { "type": "Point", "coordinates": [ 133.6756291, 34.724351 ] } },
{ "type": "Feature", "properties": { "内容": "仁徳会　訪問看護ステーション　のぞみ【訪問看護】岡山県総社市駅前1丁目6-1", "url": "https://www.kaigokensaku.mhlw.go.jp/33/index.php?action_kouhyou_detail_004_kani=true&JigyosyoCd=3360890036-00&ServiceCd=130&Type=search", "url2": "http://morishitahp.or.jp/" }, "geometry": { "type": "Point", "coordinates": [ 133.7399871, 34.6745127 ] } },
{ "type": "Feature", "properties": { "内容": "訪問看護ステーションママック総社【訪問看護】総社市三須1524-4", "url": "https://www.kaigokensaku.mhlw.go.jp/33/index.php?action_kouhyou_detail_004_kani=true&JigyosyoCd=3360890077-00&ServiceCd=130&Type=search", "url2": "http://www.rcare.jp" }, "geometry": { "type": "Point", "coordinates": [ 133.765332700000044, 34.6738016 ] } },
{ "type": "Feature", "properties": { "内容": "いずみ訪問看護ステーション【訪問看護】岡山県総社市小寺995-1", "url": "https://www.kaigokensaku.mhlw.go.jp/33/index.php?action_kouhyou_detail_004_kani=true&JigyosyoCd=3360890002-00&ServiceCd=130&Type=search", "url2": "http://www.izumi-no-kokoro.or.jp/index.html" }, "geometry": { "type": "Point", "coordinates": [ 133.746485900000039, 34.6878698 ] } },
{ "type": "Feature", "properties": { "内容": "ながの訪問看護ステーション【訪問看護】岡山県総社市金井戸150-1", "url": "https://www.kaigokensaku.mhlw.go.jp/33/index.php?action_kouhyou_detail_004_kani=true&JigyosyoCd=3360890069-00&ServiceCd=130&Type=search", "url2": null }, "geometry": { "type": "Point", "coordinates": [ 133.768821285405238, 34.683453412901542 ] } },
{ "type": "Feature", "properties": { "内容": "医療法人　清梁会　高梁中央病院【訪問看護】岡山県高梁市南町53", "url": "https://www.kaigokensaku.mhlw.go.jp/33/index.php?action_kouhyou_detail_004_kani=true&JigyosyoCd=3310910074-00&ServiceCd=130&Type=search", "url2": "http：//seiryoukai．jp" }, "geometry": { "type": "Point", "coordinates": [ 133.612275899999986, 34.7878245 ] } },
{ "type": "Feature", "properties": { "内容": "訪問看護ステーション　なごみの森【訪問看護】岡山県高梁市原田南町1170-1", "url": "https://www.kaigokensaku.mhlw.go.jp/33/index.php?action_kouhyou_detail_004_kani=true&JigyosyoCd=3360990026-00&ServiceCd=130&Type=search", "url2": null }, "geometry": { "type": "Point", "coordinates": [ 133.613858299999947, 34.7829931 ] } },
{ "type": "Feature", "properties": { "内容": "高梁中央訪問看護ステーション【訪問看護】岡山県高梁市南町53番地", "url": "https://www.kaigokensaku.mhlw.go.jp/33/index.php?action_kouhyou_detail_004_kani=true&JigyosyoCd=3360990034-00&ServiceCd=130&Type=search", "url2": "ｈｔｔｐ：//ｓｅｉｒｙｏｕｋａｉ.ｊｐ" }, "geometry": { "type": "Point", "coordinates": [ 133.6122576, 34.7874132 ] } },
{ "type": "Feature", "properties": { "内容": "高梁市国民健康保険成羽病院訪問看護ステーション【訪問看護】岡山県高梁市成羽町下原３０１番地", "url": "https://www.kaigokensaku.mhlw.go.jp/33/index.php?action_kouhyou_detail_004_kani=true&JigyosyoCd=3363290002-00&ServiceCd=130&Type=search", "url2": "https://www.city.takahashi.lg.jp" }, "geometry": { "type": "Point", "coordinates": [ 133.5454535, 34.7826913 ] } },
{ "type": "Feature", "properties": { "内容": "大杉病院訪問看護ステーション【訪問看護】岡山県高梁市柿木町28-1", "url": "https://www.kaigokensaku.mhlw.go.jp/33/index.php?action_kouhyou_detail_004_kani=true&JigyosyoCd=3360990042-00&ServiceCd=130&Type=search", "url2": null }, "geometry": { "type": "Point", "coordinates": [ 133.617435974239726, 34.796075797401393 ] } },
{ "type": "Feature", "properties": { "内容": "高梁市国民健康保険成羽病院附属川上診療所【訪問看護】岡山県高梁市川上町地頭2340", "url": "https://www.kaigokensaku.mhlw.go.jp/33/index.php?action_kouhyou_detail_004_kani=true&JigyosyoCd=3370900767-00&ServiceCd=130&Type=search", "url2": "http://www.asahigawasou.or.jp" }, "geometry": { "type": "Point", "coordinates": [ 133.480064099999964, 34.73349 ] } },
{ "type": "Feature", "properties": { "内容": "訪問看護ステーションＷＩＴＨ【訪問看護】岡山県新見市高尾２３２番地２", "url": "https://www.kaigokensaku.mhlw.go.jp/33/index.php?action_kouhyou_detail_004_kani=true&JigyosyoCd=3361090024-00&ServiceCd=130&Type=search", "url2": null }, "geometry": { "type": "Point", "coordinates": [ 133.465345399999961, 34.9890496 ] } },
{ "type": "Feature", "properties": { "内容": "阿新虹の訪問看護ステーション【訪問看護】岡山県新見市新見741", "url": "https://www.kaigokensaku.mhlw.go.jp/33/index.php?action_kouhyou_detail_004_kani=true&JigyosyoCd=3361090008-00&ServiceCd=130&Type=search", "url2": null }, "geometry": { "type": "Point", "coordinates": [ 133.471172799999977, 34.9815519 ] } },
{ "type": "Feature", "properties": { "内容": "訪問看護ステーションくろかみ【訪問看護】岡山県新見市高尾2306-5", "url": "https://www.kaigokensaku.mhlw.go.jp/33/index.php?action_kouhyou_detail_004_kani=true&JigyosyoCd=3361090016-00&ServiceCd=130&Type=search", "url2": "http://kurokami.jp/kango/index.html" }, "geometry": { "type": "Point", "coordinates": [ 133.447087900000042, 34.9936833 ] } },
{ "type": "Feature", "properties": { "内容": "訪問看護ステーションともゆきの家【訪問看護】岡山県備前市麻宇那769", "url": "https://www.kaigokensaku.mhlw.go.jp/33/index.php?action_kouhyou_detail_004_kani=true&JigyosyoCd=3361190030-00&ServiceCd=130&Type=search", "url2": null }, "geometry": { "type": "Point", "coordinates": [ 134.234795, 34.7496223 ] } },
{ "type": "Feature", "properties": { "内容": "備前市訪問看護ステーション【訪問看護】岡山県備前市伊部2231-1", "url": "https://www.kaigokensaku.mhlw.go.jp/33/index.php?action_kouhyou_detail_004_kani=true&JigyosyoCd=3361190006-00&ServiceCd=130&Type=search", "url2": "http://www.city.bizen.okayama.jp" }, "geometry": { "type": "Point", "coordinates": [ 134.155218699999978, 34.7395731 ] } },
{ "type": "Feature", "properties": { "内容": "わかくさ訪問看護ステーション【訪問看護】岡山県備前市西片上1122", "url": "https://www.kaigokensaku.mhlw.go.jp/33/index.php?action_kouhyou_detail_004_kani=true&JigyosyoCd=3361190014-00&ServiceCd=130&Type=search", "url2": "https://kusaka-soujinkai.jp/" }, "geometry": { "type": "Point", "coordinates": [ 134.182335800000033, 34.7460981 ] } },
{ "type": "Feature", "properties": { "内容": "訪問看護ステーションPLUS備前【訪問看護】岡山県備前市西片上1374番地", "url": "https://www.kaigokensaku.mhlw.go.jp/33/index.php?action_kouhyou_detail_004_kani=true&JigyosyoCd=3361190055-00&ServiceCd=130&Type=search", "url2": "http://plue-act-oka.com" }, "geometry": { "type": "Point", "coordinates": [ 134.1835749, 34.7419756 ] } },
{ "type": "Feature", "properties": { "内容": "P.A.C訪問看護ステーション日生【訪問看護】岡山県備前市日生町1439-5", "url": "https://www.kaigokensaku.mhlw.go.jp/33/index.php?action_kouhyou_detail_004_kani=true&JigyosyoCd=3361190048-00&ServiceCd=130&Type=search", "url2": null }, "geometry": { "type": "Point", "coordinates": [ 134.2652304, 34.732788 ] } },
{ "type": "Feature", "properties": { "内容": "ひさとみ歯科クリニック【訪問看護】岡山県瀬戸内市長船町土師313-1", "url": "https://www.kaigokensaku.mhlw.go.jp/33/index.php?action_kouhyou_detail_004_kani=true&JigyosyoCd=3331200034-00&ServiceCd=130&Type=search", "url2": null }, "geometry": { "type": "Point", "coordinates": [ 134.0928408, 34.664903 ] } },
{ "type": "Feature", "properties": { "内容": "平井医院訪問看護【訪問看護】岡山県瀬戸内市長船町福岡102-1", "url": "https://www.kaigokensaku.mhlw.go.jp/33/index.php?action_kouhyou_detail_004_kani=true&JigyosyoCd=3312410065-00&ServiceCd=130&Type=search", "url2": "www.hirai-iin.jp/" }, "geometry": { "type": "Point", "coordinates": [ 134.0921727, 34.7051559 ] } },
{ "type": "Feature", "properties": { "内容": "邑久訪問看護ステーション【訪問看護】岡山県瀬戸内市邑久町箕輪266-1", "url": "https://www.kaigokensaku.mhlw.go.jp/33/index.php?action_kouhyou_detail_004_kani=true&JigyosyoCd=3362490009-00&ServiceCd=130&Type=search", "url2": "https://www.keiyuu-kai.or.jp/facility/141/" }, "geometry": { "type": "Point", "coordinates": [ 134.090953899999931, 34.6841578 ] } },
{ "type": "Feature", "properties": { "内容": "訪問看護ステーションかおり【訪問看護】岡山県瀬戸内市邑久町福谷２１４－１", "url": "https://www.kaigokensaku.mhlw.go.jp/33/index.php?action_kouhyou_detail_004_kani=true&JigyosyoCd=3362490025-00&ServiceCd=130&Type=search", "url2": "http://kaori0203.pluto.bindcloud.jp" }, "geometry": { "type": "Point", "coordinates": [ 134.197144801466067, 34.68127867772376 ] } },
{ "type": "Feature", "properties": { "内容": "瀬戸内市訪問看護ステーション【訪問看護】岡山県瀬戸内市邑久町山田庄845-1（病院内）", "url": "https://www.kaigokensaku.mhlw.go.jp/33/index.php?action_kouhyou_detail_004_kani=true&JigyosyoCd=3362490033-00&ServiceCd=130&Type=search", "url2": "https://www.city.setouchi.lg.jp" }, "geometry": { "type": "Point", "coordinates": [ 134.099761849598707, 34.665984869448195 ] } },
{ "type": "Feature", "properties": { "内容": "ともに　あかいわ訪問看護ステーション【訪問看護】岡山県赤磐市下市309-21", "url": "https://www.kaigokensaku.mhlw.go.jp/33/index.php?action_kouhyou_detail_004_kani=true&JigyosyoCd=3362290110-00&ServiceCd=130&Type=search", "url2": null }, "geometry": { "type": "Point", "coordinates": [ 134.0210496, 34.7547584 ] } },
{ "type": "Feature", "properties": { "内容": "赤磐市訪問看護ステーションベル【訪問看護】岡山県赤磐市松木６２１番地４", "url": "https://www.kaigokensaku.mhlw.go.jp/33/index.php?action_kouhyou_detail_004_kani=true&JigyosyoCd=3362290094-00&ServiceCd=130&Type=search", "url2": null }, "geometry": { "type": "Point", "coordinates": [ 134.096978700000022, 34.7907474 ] } },
{ "type": "Feature", "properties": { "内容": "訪問看護ステーションさくら木【訪問看護】岡山県赤磐市河本488番地1", "url": "https://www.kaigokensaku.mhlw.go.jp/33/index.php?action_kouhyou_detail_004_kani=true&JigyosyoCd=3362290102-00&ServiceCd=130&Type=search", "url2": "https://yufukai.com/" }, "geometry": { "type": "Point", "coordinates": [ 134.0145225, 34.7465511 ] } },
{ "type": "Feature", "properties": { "内容": "訪問看護ステーション　あかいわ【訪問看護】岡山県赤磐市河本1143", "url": "https://www.kaigokensaku.mhlw.go.jp/33/index.php?action_kouhyou_detail_004_kani=true&JigyosyoCd=3362290045-00&ServiceCd=130&Type=search", "url2": null }, "geometry": { "type": "Point", "coordinates": [ 134.018576199999984, 34.7488772 ] } },
{ "type": "Feature", "properties": { "内容": "松坂内科医院【訪問看護】岡山県真庭市久世2873", "url": "https://www.kaigokensaku.mhlw.go.jp/33/index.php?action_kouhyou_detail_004_kani=true&JigyosyoCd=3313410221-00&ServiceCd=130&Type=search", "url2": null }, "geometry": { "type": "Point", "coordinates": [ 133.749496799999946, 35.0770044 ] } },
{ "type": "Feature", "properties": { "内容": "医療法人　かめの子会　米田内科医院【訪問看護】岡山県真庭市勝山96", "url": "https://www.kaigokensaku.mhlw.go.jp/33/index.php?action_kouhyou_detail_004_kani=true&JigyosyoCd=3311410033-00&ServiceCd=130&Type=search", "url2": null }, "geometry": { "type": "Point", "coordinates": [ 133.690810199999987, 35.0866585 ] } },
{ "type": "Feature", "properties": { "内容": "医療法人　イケヤ医院【訪問看護】岡山県真庭市久世2926-3", "url": "https://www.kaigokensaku.mhlw.go.jp/33/index.php?action_kouhyou_detail_004_kani=true&JigyosyoCd=3313410296-00&ServiceCd=130&Type=search", "url2": null }, "geometry": { "type": "Point", "coordinates": [ 133.7517633, 35.0763379 ] } },
{ "type": "Feature", "properties": { "内容": "おちあい訪問看護ステーション【訪問看護】岡山県真庭市上市瀬351番地1", "url": "https://www.kaigokensaku.mhlw.go.jp/33/index.php?action_kouhyou_detail_004_kani=true&JigyosyoCd=3363490065-00&ServiceCd=130&Type=search", "url2": "http://ochiaihp.jp" }, "geometry": { "type": "Point", "coordinates": [ 133.746723084808963, 35.027825542726283 ] } },
{ "type": "Feature", "properties": { "内容": "訪問看護　ひのき【訪問看護】岡山県真庭市上市瀬３８４番地2", "url": "https://www.kaigokensaku.mhlw.go.jp/33/index.php?action_kouhyou_detail_004_kani=true&JigyosyoCd=3363490073-00&ServiceCd=130&Type=search", "url2": "https://www.ochiaihp.jp/group/hinoki.html" }, "geometry": { "type": "Point", "coordinates": [ 133.745193300000011, 35.0296943 ] } },
{ "type": "Feature", "properties": { "内容": "真庭市訪問看護ステーション【訪問看護】岡山県真庭市下湯原５６", "url": "https://www.kaigokensaku.mhlw.go.jp/33/index.php?action_kouhyou_detail_004_kani=true&JigyosyoCd=3363490016-00&ServiceCd=130&Type=search", "url2": "http://www.yubara.com/hospital/" }, "geometry": { "type": "Point", "coordinates": [ 133.733784199999945, 35.1874902 ] } },
{ "type": "Feature", "properties": { "内容": "訪問看護ステ－ションゆうあい【訪問看護】岡山県真庭市勝山１０７０", "url": "https://www.kaigokensaku.mhlw.go.jp/33/index.php?action_kouhyou_detail_004_kani=true&JigyosyoCd=3363490040-00&ServiceCd=130&Type=search", "url2": "https://www.maniwa.tch.or.jp/hokanyuai/" }, "geometry": { "type": "Point", "coordinates": [ 133.697556800000029, 35.0842948 ] } },
{ "type": "Feature", "properties": { "内容": "訪問看護ステーション　わたぼうし【訪問看護】岡山県真庭市本郷1819", "url": "https://www.kaigokensaku.mhlw.go.jp/33/index.php?action_kouhyou_detail_004_kani=true&JigyosyoCd=3363490032-00&ServiceCd=130&Type=search", "url2": "http://www.katsuyama-hp.orjp" }, "geometry": { "type": "Point", "coordinates": [ 133.689141, 35.0850753 ] } },
{ "type": "Feature", "properties": { "内容": "医療法人洗心堂　　宮島医院【訪問看護】岡山県真庭市月田６８４０", "url": "https://www.kaigokensaku.mhlw.go.jp/33/index.php?action_kouhyou_detail_004_kani=true&JigyosyoCd=3313410205-00&ServiceCd=130&Type=search", "url2": "http://miyashima-iin.webmedipr.jp/" }, "geometry": { "type": "Point", "coordinates": [ 133.662677900000062, 35.0443421 ] } },
{ "type": "Feature", "properties": { "内容": "みどり訪問看護ステーション【訪問看護】岡山県真庭市西原６３番地", "url": "https://www.kaigokensaku.mhlw.go.jp/33/index.php?action_kouhyou_detail_004_kani=true&JigyosyoCd=3363490008-00&ServiceCd=130&Type=search", "url2": "http://www.kaneda-hp.com" }, "geometry": { "type": "Point", "coordinates": [ 133.754228199999943, 35.0208409 ] } },
{ "type": "Feature", "properties": { "内容": "医療法人三水会　田尻病院【訪問看護】岡山県美作市明見550-1", "url": "https://www.kaigokensaku.mhlw.go.jp/33/index.php?action_kouhyou_detail_004_kani=true&JigyosyoCd=3313710117-00&ServiceCd=130&Type=search", "url2": "http://www.tajirihp.or.jp" }, "geometry": { "type": "Point", "coordinates": [ 134.145816599999989, 35.015843 ] } },
{ "type": "Feature", "properties": { "内容": "美作市立大原病院【訪問看護】岡山県美作市古町1771-9", "url": "https://www.kaigokensaku.mhlw.go.jp/33/index.php?action_kouhyou_detail_004_kani=true&JigyosyoCd=3318902768-00&ServiceCd=130&Type=search", "url2": "http://ohara-hp.city.mimasaka.lg.jp/" }, "geometry": { "type": "Point", "coordinates": [ 134.32722519999993, 35.1193888 ] } },
{ "type": "Feature", "properties": { "内容": "訪問看護ステーション　みらい【訪問看護】岡山県美作市明見　３５７－１", "url": "https://www.kaigokensaku.mhlw.go.jp/33/index.php?action_kouhyou_detail_004_kani=true&JigyosyoCd=3363790001-00&ServiceCd=130&Type=search", "url2": null }, "geometry": { "type": "Point", "coordinates": [ 134.146922099999983, 35.0134099 ] } },
{ "type": "Feature", "properties": { "内容": "訪問看護ステーション田尻【訪問看護】美作市明見550番地の1", "url": "https://www.kaigokensaku.mhlw.go.jp/33/index.php?action_kouhyou_detail_004_kani=true&JigyosyoCd=3363790027-00&ServiceCd=130&Type=search", "url2": null }, "geometry": { "type": "Point", "coordinates": [ 134.146142456483489, 35.015695603754175 ] } },
{ "type": "Feature", "properties": { "内容": "さつきの里訪問看護ステーション【訪問看護】岡山県浅口市金光町地頭下284-1", "url": "https://www.kaigokensaku.mhlw.go.jp/33/index.php?action_kouhyou_detail_004_kani=true&JigyosyoCd=3362790010-00&ServiceCd=130&Type=search", "url2": "http//.www.miwahp/com" }, "geometry": { "type": "Point", "coordinates": [ 133.602099873111001, 34.541473920480165 ] } },
{ "type": "Feature", "properties": { "内容": "金光病院訪問看護ステーション【訪問看護】岡山県浅口市金光町占見新田740番地", "url": "https://www.kaigokensaku.mhlw.go.jp/33/index.php?action_kouhyou_detail_004_kani=true&JigyosyoCd=3362790093-00&ServiceCd=130&Type=search", "url2": "http://konkohp.jp/" }, "geometry": { "type": "Point", "coordinates": [ 133.6260586, 34.5419015 ] } },
{ "type": "Feature", "properties": { "内容": "訪問看護リハビリステーションほのか浅口【訪問看護】金光町占見新田455-3", "url": "https://www.kaigokensaku.mhlw.go.jp/33/index.php?action_kouhyou_detail_004_kani=true&JigyosyoCd=3362790085-00&ServiceCd=130&Type=search", "url2": "https://honoka-hc.co.jp" }, "geometry": { "type": "Point", "coordinates": [ 133.587083299999989, 34.5497228 ] } },
{ "type": "Feature", "properties": { "内容": "医療法人平病院　訪問看護【訪問看護】岡山県和気郡和気町尺所438", "url": "https://www.kaigokensaku.mhlw.go.jp/33/index.php?action_kouhyou_detail_004_kani=true&JigyosyoCd=3312310208-00&ServiceCd=130&Type=search", "url2": "http://www.tairahos.or.jp" }, "geometry": { "type": "Point", "coordinates": [ 134.161474699999985, 34.8049236 ] } },
{ "type": "Feature", "properties": { "内容": "医療法人　渋藤医院【訪問看護】岡山県和気郡和気町父井原434-1", "url": "https://www.kaigokensaku.mhlw.go.jp/33/index.php?action_kouhyou_detail_004_kani=true&JigyosyoCd=3312310224-00&ServiceCd=130&Type=search", "url2": null }, "geometry": { "type": "Point", "coordinates": [ 134.093459899999971, 34.844841 ] } },
{ "type": "Feature", "properties": { "内容": "医療法人　木村医院【訪問看護】都窪郡早島町早島1469－1", "url": "https://www.kaigokensaku.mhlw.go.jp/33/index.php?action_kouhyou_detail_004_kani=true&JigyosyoCd=3312610128-00&ServiceCd=130&Type=search", "url2": null }, "geometry": { "type": "Point", "coordinates": [ 133.8251924, 34.6025768 ] } },
{ "type": "Feature", "properties": { "内容": "倉敷訪問看護リハビリステーションそら【訪問看護】岡山県都窪郡早島町前潟1075-1プレジールソレイユ　203号", "url": "https://www.kaigokensaku.mhlw.go.jp/33/index.php?action_kouhyou_detail_004_kani=true&JigyosyoCd=3362690020-00&ServiceCd=130&Type=search", "url2": "https://khkrs-sora.com/" }, "geometry": { "type": "Point", "coordinates": [ 133.8223954, 34.5997617 ] } },
{ "type": "Feature", "properties": { "内容": "医療法人萌生会国定病院【訪問看護】岡山県浅口郡里庄町大字浜中93-141", "url": "https://www.kaigokensaku.mhlw.go.jp/33/index.php?action_kouhyou_detail_004_kani=true&JigyosyoCd=3312710035-00&ServiceCd=130&Type=search", "url2": "http://hoseikai.jp/" }, "geometry": { "type": "Point", "coordinates": [ 133.532323, 34.4968281 ] } },
{ "type": "Feature", "properties": { "内容": "在宅ケアサービスステーションやかげ【訪問看護】岡山県小田郡矢掛町里山田５９７－１", "url": "https://www.kaigokensaku.mhlw.go.jp/33/index.php?action_kouhyou_detail_004_kani=true&JigyosyoCd=3362890018-00&ServiceCd=130&Type=search", "url2": null }, "geometry": { "type": "Point", "coordinates": [ 133.598323299999947, 34.6140642 ] } },
{ "type": "Feature", "properties": { "内容": "一般財団法人共愛会訪問看護ステーションあおぞら【訪問看護】岡山県苫田郡鏡野町吉原306", "url": "https://www.kaigokensaku.mhlw.go.jp/33/index.php?action_kouhyou_detail_004_kani=true&JigyosyoCd=3363590005-00&ServiceCd=130&Type=search", "url2": "http://www.kyouaikai.or.jp/" }, "geometry": { "type": "Point", "coordinates": [ 133.935635100000013, 35.0715271 ] } },
{ "type": "Feature", "properties": { "内容": "さとう記念病院訪問看護ステーション【訪問看護】岡山県勝田郡勝央町黒土45", "url": "https://www.kaigokensaku.mhlw.go.jp/33/index.php?action_kouhyou_detail_004_kani=true&JigyosyoCd=3363690003-00&ServiceCd=130&Type=search", "url2": "http://www.satoukinen.or.jp/" }, "geometry": { "type": "Point", "coordinates": [ 134.127451299999962, 35.0283719 ] } }
]
}
