{
"type": "FeatureCollection",
"name": "geo_33_特別支援学校",
"crs": { "type": "name", "properties": { "name": "urn:ogc:def:crs:EPSG::6668" } },
"features": [
{ "type": "Feature", "properties": { "P29_001": "33102", "P29_002": "E133110000015", "P29_003": "16012", "P29_004": "岡山大学教育学部附属特別支援学校", "P29_005": "岡山県岡山市中区平井3-914", "P29_006": "1", "P29_007": "0", "P29_008": "00", "P29_009": null }, "geometry": { "type": "Point", "coordinates": [ 133.948055594161332, 34.63755086262325 ] } },
{ "type": "Feature", "properties": { "P29_001": "33102", "P29_002": "E133210000013", "P29_003": "16012", "P29_004": "岡山県立岡山盲学校", "P29_005": "岡山県岡山市中区原尾島4-16-53", "P29_006": "2", "P29_007": "0", "P29_008": "00", "P29_009": null }, "geometry": { "type": "Point", "coordinates": [ 133.957287469070707, 34.666124444675553 ] } },
{ "type": "Feature", "properties": { "P29_001": "33102", "P29_002": "E133210000022", "P29_003": "16012", "P29_004": "岡山県立岡山聾学校", "P29_005": "岡山県岡山市中区土田51", "P29_006": "2", "P29_007": "0", "P29_008": "00", "P29_009": null }, "geometry": { "type": "Point", "coordinates": [ 133.988352292953664, 34.692190670839594 ] } },
{ "type": "Feature", "properties": { "P29_001": "33101", "P29_002": "E133210000031", "P29_003": "16012", "P29_004": "岡山県立岡山支援学校", "P29_005": "岡山県岡山市北区祇園866", "P29_006": "2", "P29_007": "0", "P29_008": "00", "P29_009": null }, "geometry": { "type": "Point", "coordinates": [ 133.956746155683192, 34.707161592942008 ] } },
{ "type": "Feature", "properties": { "P29_001": "33663", "P29_002": "E133210000040", "P29_003": "16012", "P29_004": "岡山県立誕生寺支援学校", "P29_005": "岡山県久米郡久米南町山ノ城110-2", "P29_006": "2", "P29_007": "0", "P29_008": "00", "P29_009": null }, "geometry": { "type": "Point", "coordinates": [ 133.966256998045537, 34.954228210051404 ] } },
{ "type": "Feature", "properties": { "P29_001": "33423", "P29_002": "E133210000059", "P29_003": "16012", "P29_004": "岡山県立早島支援学校", "P29_005": "岡山県都窪郡早島町早島4063", "P29_006": "2", "P29_007": "0", "P29_008": "00", "P29_009": null }, "geometry": { "type": "Point", "coordinates": [ 133.826209861660942, 34.613914495694914 ] } },
{ "type": "Feature", "properties": { "P29_001": "33101", "P29_002": "E133210000068", "P29_003": "16012", "P29_004": "岡山県立岡山西支援学校", "P29_005": "岡山県岡山市北区田中579", "P29_006": "2", "P29_007": "0", "P29_008": "00", "P29_009": null }, "geometry": { "type": "Point", "coordinates": [ 133.881151000659685, 34.636121003025252 ] } },
{ "type": "Feature", "properties": { "P29_001": "33202", "P29_002": "E133210000077", "P29_003": "16012", "P29_004": "倉敷市立倉敷支援学校", "P29_005": "岡山県倉敷市粒浦388-1", "P29_006": "3", "P29_007": "0", "P29_008": "00", "P29_009": null }, "geometry": { "type": "Point", "coordinates": [ 133.785842829168672, 34.569923982045644 ] } },
{ "type": "Feature", "properties": { "P29_001": "33205", "P29_002": "E133210000086", "P29_003": "16012", "P29_004": "岡山県立西備支援学校", "P29_005": "岡山県笠岡市東大戸5075-1", "P29_006": "2", "P29_007": "0", "P29_008": "00", "P29_009": null }, "geometry": { "type": "Point", "coordinates": [ 133.485033256090333, 34.548872807905418 ] } },
{ "type": "Feature", "properties": { "P29_001": "33211", "P29_002": "E133210000095", "P29_003": "16012", "P29_004": "岡山県立東備支援学校", "P29_005": "岡山県備前市福田637", "P29_006": "2", "P29_007": "0", "P29_008": "00", "P29_009": null }, "geometry": { "type": "Point", "coordinates": [ 134.122515500092192, 34.724227463415978 ] } },
{ "type": "Feature", "properties": { "P29_001": "33210", "P29_002": "E133210000102", "P29_003": "16012", "P29_004": "岡山県健康の森学園支援学校", "P29_005": "岡山県新見市哲多町大野2034-5", "P29_006": "2", "P29_007": "0", "P29_008": "00", "P29_009": null }, "geometry": { "type": "Point", "coordinates": [ 133.414647240772439, 34.960672680524716 ] } },
{ "type": "Feature", "properties": { "P29_001": "33103", "P29_002": "E133210000111", "P29_003": "16012", "P29_004": "岡山県立岡山東支援学校", "P29_005": "岡山県岡山市東区宍甘1018", "P29_006": "2", "P29_007": "0", "P29_008": "00", "P29_009": null }, "geometry": { "type": "Point", "coordinates": [ 133.989880949954141, 34.693978105527997 ] } },
{ "type": "Feature", "properties": { "P29_001": "33104", "P29_002": "E133210000120", "P29_003": "16012", "P29_004": "岡山県立岡山南支援学校", "P29_005": "岡山県岡山市南区内尾721-3", "P29_006": "2", "P29_007": "0", "P29_008": "00", "P29_009": null }, "geometry": { "type": "Point", "coordinates": [ 133.867326321690342, 34.591897720154783 ] } },
{ "type": "Feature", "properties": { "P29_001": "33103", "P29_002": "E133210000139", "P29_003": "16012", "P29_004": "岡山県立岡山瀬戸高等支援学校", "P29_005": "岡山県岡山市東区瀬戸町江尻1326", "P29_006": "2", "P29_007": "0", "P29_008": "00", "P29_009": null }, "geometry": { "type": "Point", "coordinates": [ 134.049238693850043, 34.723430438814709 ] } },
{ "type": "Feature", "properties": { "P29_001": "33202", "P29_002": "E133210000148", "P29_003": "16012", "P29_004": "岡山県立倉敷琴浦高等支援学校", "P29_005": "岡山県倉敷市児島田の口1-1-16", "P29_006": "2", "P29_007": "0", "P29_008": "00", "P29_009": null }, "geometry": { "type": "Point", "coordinates": [ 133.833239267949551, 34.478893283780906 ] } },
{ "type": "Feature", "properties": { "P29_001": "33202", "P29_002": "E133210000157", "P29_003": "16012", "P29_004": "岡山県立倉敷まきび支援学校", "P29_005": "岡山県倉敷市倉敷市真備町箭田4682-1", "P29_006": "2", "P29_007": "0", "P29_008": "00", "P29_009": null }, "geometry": { "type": "Point", "coordinates": [ 133.692620038564485, 34.62404677058715 ] } }
]
}
