{
"type": "FeatureCollection",
"name": "geo_33_高校",
"crs": { "type": "name", "properties": { "name": "urn:ogc:def:crs:EPSG::6668" } },
"features": [
{ "type": "Feature", "properties": { "P29_001": "33102", "P29_002": "D133210000016", "P29_003": "16004", "P29_004": "岡山県立岡山朝日高等学校", "P29_005": "岡山県岡山市中区古京町2-2-21", "P29_006": "2", "P29_007": "0", "P29_008": "00", "P29_009": null }, "geometry": { "type": "Point", "coordinates": [ 133.943747087098217, 34.660915436566704 ] } },
{ "type": "Feature", "properties": { "P29_001": "33102", "P29_002": "D133210000025", "P29_003": "16004", "P29_004": "岡山県立岡山操山高等学校", "P29_005": "岡山県岡山市中区浜412", "P29_006": "2", "P29_007": "0", "P29_008": "00", "P29_009": null }, "geometry": { "type": "Point", "coordinates": [ 133.939819866134428, 34.673070317339999 ] } },
{ "type": "Feature", "properties": { "P29_001": "33101", "P29_002": "D133210000034", "P29_003": "16004", "P29_004": "岡山県立岡山工業高等学校", "P29_005": "岡山県岡山市北区伊福町4-3-92", "P29_006": "2", "P29_007": "0", "P29_008": "00", "P29_009": null }, "geometry": { "type": "Point", "coordinates": [ 133.910260018154418, 34.67227893692619 ] } },
{ "type": "Feature", "properties": { "P29_001": "33102", "P29_002": "D133210000043", "P29_003": "16004", "P29_004": "岡山県立東岡山工業高等学校", "P29_005": "岡山県岡山市中区土田290-1", "P29_006": "2", "P29_007": "0", "P29_008": "00", "P29_009": null }, "geometry": { "type": "Point", "coordinates": [ 133.985797771417424, 34.687787360669475 ] } },
{ "type": "Feature", "properties": { "P29_001": "33102", "P29_002": "D133210000052", "P29_003": "16004", "P29_004": "岡山県立岡山東商業高等学校", "P29_005": "岡山県岡山市中区東山3-1-6", "P29_006": "2", "P29_007": "0", "P29_008": "00", "P29_009": null }, "geometry": { "type": "Point", "coordinates": [ 133.941399820334993, 34.652037380107501 ] } },
{ "type": "Feature", "properties": { "P29_001": "33101", "P29_002": "D133210000061", "P29_003": "16004", "P29_004": "岡山県立岡山南高等学校", "P29_005": "岡山県岡山市北区奥田2-4-7", "P29_006": "2", "P29_007": "0", "P29_008": "00", "P29_009": null }, "geometry": { "type": "Point", "coordinates": [ 133.923267592427834, 34.643475932489316 ] } },
{ "type": "Feature", "properties": { "P29_001": "33202", "P29_002": "D133210000070", "P29_003": "16004", "P29_004": "岡山県立倉敷青陵高等学校", "P29_005": "岡山県倉敷市羽島1046-2", "P29_006": "2", "P29_007": "0", "P29_008": "00", "P29_009": null }, "geometry": { "type": "Point", "coordinates": [ 133.778762772498737, 34.599397960105399 ] } },
{ "type": "Feature", "properties": { "P29_001": "33202", "P29_002": "D133210000089", "P29_003": "16004", "P29_004": "岡山県立倉敷天城高等学校", "P29_005": "岡山県倉敷市藤戸町天城269", "P29_006": "2", "P29_007": "0", "P29_008": "00", "P29_009": null }, "geometry": { "type": "Point", "coordinates": [ 133.81148734365982, 34.564377017757039 ] } },
{ "type": "Feature", "properties": { "P29_001": "33202", "P29_002": "D133210000098", "P29_003": "16004", "P29_004": "岡山県立倉敷中央高等学校", "P29_005": "岡山県倉敷市西富井1384", "P29_006": "2", "P29_007": "0", "P29_008": "00", "P29_009": null }, "geometry": { "type": "Point", "coordinates": [ 133.743207773603757, 34.572746000863404 ] } },
{ "type": "Feature", "properties": { "P29_001": "33202", "P29_002": "D133210000105", "P29_003": "16004", "P29_004": "岡山県立倉敷工業高等学校", "P29_005": "岡山県倉敷市老松町4-9-1", "P29_006": "2", "P29_007": "0", "P29_008": "00", "P29_009": null }, "geometry": { "type": "Point", "coordinates": [ 133.760112692679883, 34.593437973419469 ] } },
{ "type": "Feature", "properties": { "P29_001": "33202", "P29_002": "D133210000114", "P29_003": "16004", "P29_004": "岡山県立水島工業高等学校", "P29_005": "岡山県倉敷市西阿知町1230", "P29_006": "2", "P29_007": "0", "P29_008": "00", "P29_009": null }, "geometry": { "type": "Point", "coordinates": [ 133.725446412451703, 34.583274491038758 ] } },
{ "type": "Feature", "properties": { "P29_001": "33202", "P29_002": "D133210000123", "P29_003": "16004", "P29_004": "岡山県立倉敷商業高等学校", "P29_005": "岡山県倉敷市白楽町545", "P29_006": "2", "P29_007": "0", "P29_008": "00", "P29_009": null }, "geometry": { "type": "Point", "coordinates": [ 133.769390319502662, 34.588482755459623 ] } },
{ "type": "Feature", "properties": { "P29_001": "33202", "P29_002": "D133210000132", "P29_003": "16004", "P29_004": "岡山県立玉島高等学校", "P29_005": "岡山県倉敷市玉島阿賀崎3-1-1", "P29_006": "2", "P29_007": "0", "P29_008": "00", "P29_009": null }, "geometry": { "type": "Point", "coordinates": [ 133.670372664605537, 34.54809078956454 ] } },
{ "type": "Feature", "properties": { "P29_001": "33202", "P29_002": "D133210000141", "P29_003": "16004", "P29_004": "岡山県立玉島商業高等学校", "P29_005": "岡山県倉敷市玉島中央町2-9-30", "P29_006": "2", "P29_007": "0", "P29_008": "00", "P29_009": null }, "geometry": { "type": "Point", "coordinates": [ 133.668428070141061, 34.546191592392354 ] } },
{ "type": "Feature", "properties": { "P29_001": "33203", "P29_002": "D133210000150", "P29_003": "16004", "P29_004": "岡山県立津山高等学校", "P29_005": "岡山県津山市椿高下62", "P29_006": "2", "P29_007": "0", "P29_008": "00", "P29_009": null }, "geometry": { "type": "Point", "coordinates": [ 134.001220780969902, 35.067421888100036 ] } },
{ "type": "Feature", "properties": { "P29_001": "33203", "P29_002": "D133210000169", "P29_003": "16004", "P29_004": "岡山県立津山工業高等学校", "P29_005": "岡山県津山市山北411-1", "P29_006": "2", "P29_007": "0", "P29_008": "00", "P29_009": null }, "geometry": { "type": "Point", "coordinates": [ 134.002078490429398, 35.072103531423963 ] } },
{ "type": "Feature", "properties": { "P29_001": "33203", "P29_002": "D133210000178", "P29_003": "16004", "P29_004": "岡山県立津山商業高等学校", "P29_005": "岡山県津山市山北531", "P29_006": "2", "P29_007": "0", "P29_008": "00", "P29_009": null }, "geometry": { "type": "Point", "coordinates": [ 134.00391036528336, 35.07048588249728 ] } },
{ "type": "Feature", "properties": { "P29_001": "33203", "P29_002": "D133210000187", "P29_003": "16004", "P29_004": "岡山県立津山東高等学校", "P29_005": "岡山県津山市林田1200", "P29_006": "2", "P29_007": "0", "P29_008": "00", "P29_009": null }, "geometry": { "type": "Point", "coordinates": [ 134.01595682122138, 35.067029095747067 ] } },
{ "type": "Feature", "properties": { "P29_001": "33204", "P29_002": "D133210000196", "P29_003": "16004", "P29_004": "岡山県立玉野高等学校", "P29_005": "岡山県玉野市築港3-11-1", "P29_006": "2", "P29_007": "0", "P29_008": "00", "P29_009": null }, "geometry": { "type": "Point", "coordinates": [ 133.947177637783255, 34.500010030160077 ] } },
{ "type": "Feature", "properties": { "P29_001": "33205", "P29_002": "D133210000203", "P29_003": "16004", "P29_004": "岡山県立笠岡高等学校", "P29_005": "岡山県笠岡市笠岡3073-2", "P29_006": "2", "P29_007": "0", "P29_008": "00", "P29_009": null }, "geometry": { "type": "Point", "coordinates": [ 133.509832115448944, 34.512899818455388 ] } },
{ "type": "Feature", "properties": { "P29_001": "33205", "P29_002": "D133210000212", "P29_003": "16004", "P29_004": "岡山県立笠岡工業高等学校", "P29_005": "岡山県笠岡市横島808", "P29_006": "2", "P29_007": "0", "P29_008": "00", "P29_009": null }, "geometry": { "type": "Point", "coordinates": [ 133.526859558473859, 34.486499904627934 ] } },
{ "type": "Feature", "properties": { "P29_001": "33205", "P29_002": "D133210000221", "P29_003": "16004", "P29_004": "岡山県立笠岡商業高等学校", "P29_005": "岡山県笠岡市笠岡3203", "P29_006": "2", "P29_007": "0", "P29_008": "00", "P29_009": null }, "geometry": { "type": "Point", "coordinates": [ 133.510813986304925, 34.511001884047282 ] } },
{ "type": "Feature", "properties": { "P29_001": "33103", "P29_002": "D133210000230", "P29_003": "16004", "P29_004": "岡山県立西大寺高等学校", "P29_005": "岡山県岡山市東区西大寺上2-1-17", "P29_006": "2", "P29_007": "0", "P29_008": "00", "P29_009": null }, "geometry": { "type": "Point", "coordinates": [ 134.034411878044665, 34.658643956508065 ] } },
{ "type": "Feature", "properties": { "P29_001": "33207", "P29_002": "D133210000249", "P29_003": "16004", "P29_004": "岡山県立井原高等学校", "P29_005": "岡山県井原市井原町1802", "P29_006": "2", "P29_007": "0", "P29_008": "00", "P29_009": null }, "geometry": { "type": "Point", "coordinates": [ 133.456482866852809, 34.604230931972637 ] } },
{ "type": "Feature", "properties": { "P29_001": "33208", "P29_002": "D133210000258", "P29_003": "16004", "P29_004": "岡山県立総社高等学校", "P29_005": "岡山県総社市総社3-9-1", "P29_006": "2", "P29_007": "0", "P29_008": "00", "P29_009": null }, "geometry": { "type": "Point", "coordinates": [ 133.756312714343551, 34.676807232511173 ] } },
{ "type": "Feature", "properties": { "P29_001": "33209", "P29_002": "D133210000267", "P29_003": "16004", "P29_004": "岡山県立高梁高等学校", "P29_005": "岡山県高梁市内山下38", "P29_006": "2", "P29_007": "0", "P29_008": "00", "P29_009": null }, "geometry": { "type": "Point", "coordinates": [ 133.618910188361411, 34.801170817314279 ] } },
{ "type": "Feature", "properties": { "P29_001": "33210", "P29_002": "D133210000276", "P29_003": "16004", "P29_004": "岡山県立新見高等学校", "P29_005": "岡山県新見市新見1394", "P29_006": "2", "P29_007": "0", "P29_008": "00", "P29_009": null }, "geometry": { "type": "Point", "coordinates": [ 133.472645704533136, 34.981617346279414 ] } },
{ "type": "Feature", "properties": { "P29_001": "33103", "P29_002": "D133210000285", "P29_003": "16004", "P29_004": "岡山県立瀬戸高等学校", "P29_005": "岡山県岡山市東区瀬戸町光明谷316-1", "P29_006": "2", "P29_007": "0", "P29_008": "00", "P29_009": null }, "geometry": { "type": "Point", "coordinates": [ 134.041524182165745, 34.740364237448254 ] } },
{ "type": "Feature", "properties": { "P29_001": "33103", "P29_002": "D133210000294", "P29_003": "16004", "P29_004": "岡山県立瀬戸南高等学校", "P29_005": "岡山県岡山市東区瀬戸町沖88", "P29_006": "2", "P29_007": "0", "P29_008": "00", "P29_009": null }, "geometry": { "type": "Point", "coordinates": [ 134.042002221330875, 34.723597826139873 ] } },
{ "type": "Feature", "properties": { "P29_001": "33346", "P29_002": "D133210000301", "P29_003": "16004", "P29_004": "岡山県立和気閑谷高等学校", "P29_005": "岡山県和気郡和気町尺所15", "P29_006": "2", "P29_007": "0", "P29_008": "00", "P29_009": null }, "geometry": { "type": "Point", "coordinates": [ 134.154876499132797, 34.800614347806025 ] } },
{ "type": "Feature", "properties": { "P29_001": "33212", "P29_002": "D133210000310", "P29_003": "16004", "P29_004": "岡山県立邑久高等学校", "P29_005": "岡山県瀬戸内市邑久町尾張404", "P29_006": "2", "P29_007": "0", "P29_008": "00", "P29_009": null }, "geometry": { "type": "Point", "coordinates": [ 134.091695768645366, 34.66258027971277 ] } },
{ "type": "Feature", "properties": { "P29_001": "33104", "P29_002": "D133210000329", "P29_003": "16004", "P29_004": "岡山県立興陽高等学校", "P29_005": "岡山県岡山市南区藤田1500", "P29_006": "2", "P29_007": "0", "P29_008": "00", "P29_009": null }, "geometry": { "type": "Point", "coordinates": [ 133.890541020224475, 34.584403499647664 ] } },
{ "type": "Feature", "properties": { "P29_001": "33216", "P29_002": "D133210000338", "P29_003": "16004", "P29_004": "岡山県立鴨方高等学校", "P29_005": "岡山県浅口市鴨方町鴨方819", "P29_006": "2", "P29_007": "0", "P29_008": "00", "P29_009": null }, "geometry": { "type": "Point", "coordinates": [ 133.58426703406181, 34.536513936311962 ] } },
{ "type": "Feature", "properties": { "P29_001": "33461", "P29_002": "D133210000347", "P29_003": "16004", "P29_004": "岡山県立矢掛高等学校", "P29_005": "岡山県小田郡矢掛町矢掛1776-2", "P29_006": "2", "P29_007": "0", "P29_008": "00", "P29_009": null }, "geometry": { "type": "Point", "coordinates": [ 133.592410812128918, 34.628417616279719 ] } },
{ "type": "Feature", "properties": { "P29_001": "33101", "P29_002": "D133210000356", "P29_003": "16004", "P29_004": "岡山県立高松農業高等学校", "P29_005": "岡山県岡山市北区高松原古才336-2", "P29_006": "2", "P29_007": "0", "P29_008": "00", "P29_009": null }, "geometry": { "type": "Point", "coordinates": [ 133.821035672592643, 34.683956747454097 ] } },
{ "type": "Feature", "properties": { "P29_001": "33214", "P29_002": "D133210000365", "P29_003": "16004", "P29_004": "岡山県立勝山高等学校", "P29_005": "岡山県真庭市勝山481", "P29_006": "2", "P29_007": "0", "P29_008": "00", "P29_009": null }, "geometry": { "type": "Point", "coordinates": [ 133.694614110944229, 35.083349458402957 ] } },
{ "type": "Feature", "properties": { "P29_001": "33622", "P29_002": "D133210000374", "P29_003": "16004", "P29_004": "岡山県立勝間田高等学校", "P29_005": "岡山県勝田郡勝央町勝間田47", "P29_006": "2", "P29_007": "0", "P29_008": "00", "P29_009": null }, "geometry": { "type": "Point", "coordinates": [ 134.11972312315379, 35.041160715821711 ] } },
{ "type": "Feature", "properties": { "P29_001": "33215", "P29_002": "D133210000383", "P29_003": "16004", "P29_004": "岡山県立林野高等学校", "P29_005": "岡山県美作市三倉田58-1", "P29_006": "2", "P29_007": "0", "P29_008": "00", "P29_009": null }, "geometry": { "type": "Point", "coordinates": [ 134.153043929806501, 35.000852829398163 ] } },
{ "type": "Feature", "properties": { "P29_001": "33104", "P29_002": "D133210000392", "P29_003": "16004", "P29_004": "岡山県立岡山芳泉高等学校", "P29_005": "岡山県岡山市南区芳泉3-1-1", "P29_006": "2", "P29_007": "0", "P29_008": "00", "P29_009": null }, "geometry": { "type": "Point", "coordinates": [ 133.915354967100001, 34.622082960145804 ] } },
{ "type": "Feature", "properties": { "P29_001": "33202", "P29_002": "D133210000409", "P29_003": "16004", "P29_004": "岡山県立倉敷南高等学校", "P29_005": "岡山県倉敷市吉岡330", "P29_006": "2", "P29_007": "0", "P29_008": "00", "P29_009": null }, "geometry": { "type": "Point", "coordinates": [ 133.771496683070865, 34.567855946974291 ] } },
{ "type": "Feature", "properties": { "P29_001": "33101", "P29_002": "D133210000418", "P29_003": "16004", "P29_004": "岡山県立岡山一宮高等学校", "P29_005": "岡山県岡山市北区楢津221", "P29_006": "2", "P29_007": "0", "P29_008": "00", "P29_009": null }, "geometry": { "type": "Point", "coordinates": [ 133.891019811980726, 34.68071515168657 ] } },
{ "type": "Feature", "properties": { "P29_001": "33202", "P29_002": "D133210000427", "P29_003": "16004", "P29_004": "岡山県立倉敷古城池高等学校", "P29_005": "岡山県倉敷市福田町古新田116-1", "P29_006": "2", "P29_007": "0", "P29_008": "00", "P29_009": null }, "geometry": { "type": "Point", "coordinates": [ 133.759478978711002, 34.54702422461461 ] } },
{ "type": "Feature", "properties": { "P29_001": "33204", "P29_002": "D133210000436", "P29_003": "16004", "P29_004": "岡山県立玉野光南高等学校", "P29_005": "岡山県玉野市東七区244", "P29_006": "2", "P29_007": "0", "P29_008": "00", "P29_009": null }, "geometry": { "type": "Point", "coordinates": [ 133.935589524956299, 34.544932930716527 ] } },
{ "type": "Feature", "properties": { "P29_001": "33208", "P29_002": "D133210000445", "P29_003": "16004", "P29_004": "岡山県立総社南高等学校", "P29_005": "岡山県総社市三輪626-1", "P29_006": "2", "P29_007": "0", "P29_008": "00", "P29_009": null }, "geometry": { "type": "Point", "coordinates": [ 133.740461048292872, 34.662879106055527 ] } },
{ "type": "Feature", "properties": { "P29_001": "33102", "P29_002": "D133210000454", "P29_003": "16004", "P29_004": "岡山県立岡山城東高等学校", "P29_005": "岡山県岡山市中区下110", "P29_006": "2", "P29_007": "0", "P29_008": "00", "P29_009": null }, "geometry": { "type": "Point", "coordinates": [ 133.99985294634692, 34.680256313953734 ] } },
{ "type": "Feature", "properties": { "P29_001": "33211", "P29_002": "D133210000463", "P29_003": "16004", "P29_004": "岡山県立備前緑陽高等学校", "P29_005": "岡山県備前市西片上91-1", "P29_006": "2", "P29_007": "0", "P29_008": "00", "P29_009": null }, "geometry": { "type": "Point", "coordinates": [ 134.183284761047304, 34.746963705773794 ] } },
{ "type": "Feature", "properties": { "P29_001": "33209", "P29_002": "D133210000472", "P29_003": "16004", "P29_004": "岡山県立高梁城南高等学校", "P29_005": "岡山県高梁市原田北町1216-1", "P29_006": "2", "P29_007": "0", "P29_008": "00", "P29_009": null }, "geometry": { "type": "Point", "coordinates": [ 133.614976147051209, 34.786280964709704 ] } },
{ "type": "Feature", "properties": { "P29_001": "33214", "P29_002": "D133210000481", "P29_003": "16004", "P29_004": "岡山県立真庭高等学校", "P29_005": "岡山県真庭市落合垂水448-1", "P29_006": "2", "P29_007": "0", "P29_008": "00", "P29_009": null }, "geometry": { "type": "Point", "coordinates": [ 133.751413875722619, 35.016839276217738 ] } },
{ "type": "Feature", "properties": { "P29_001": "33204", "P29_002": "D133210000490", "P29_003": "16004", "P29_004": "玉野市立玉野商工高等学校", "P29_005": "岡山県玉野市玉6-1-1", "P29_006": "3", "P29_007": "0", "P29_008": "00", "P29_009": null }, "geometry": { "type": "Point", "coordinates": [ 133.931781367292785, 34.486793157925682 ] } },
{ "type": "Feature", "properties": { "P29_001": "33101", "P29_002": "D133210000506", "P29_003": "16004", "P29_004": "岡山県立岡山御津高等学校", "P29_005": "岡山県岡山市北区御津金川940", "P29_006": "2", "P29_007": "0", "P29_008": "00", "P29_009": null }, "geometry": { "type": "Point", "coordinates": [ 133.935123382834547, 34.797351558953608 ] } },
{ "type": "Feature", "properties": { "P29_001": "33202", "P29_002": "D133210000515", "P29_003": "16004", "P29_004": "岡山県立倉敷鷲羽高等学校", "P29_005": "岡山県倉敷市児島味野山田町2301", "P29_006": "2", "P29_007": "0", "P29_008": "00", "P29_009": null }, "geometry": { "type": "Point", "coordinates": [ 133.793407539448594, 34.472713730163512 ] } },
{ "type": "Feature", "properties": { "P29_001": "33101", "P29_002": "D133210000524", "P29_003": "16004", "P29_004": "岡山県立烏城高等学校", "P29_005": "岡山県岡山市北区伊島町3-1-1", "P29_006": "2", "P29_007": "0", "P29_008": "00", "P29_009": null }, "geometry": { "type": "Point", "coordinates": [ 133.907629654435453, 34.676394651404777 ] } },
{ "type": "Feature", "properties": { "P29_001": "33202", "P29_002": "D133210000533", "P29_003": "16004", "P29_004": "倉敷市立精思高等学校", "P29_005": "岡山県倉敷市八王寺町199-3", "P29_006": "3", "P29_007": "0", "P29_008": "00", "P29_009": null }, "geometry": { "type": "Point", "coordinates": [ 133.752792197194054, 34.59902893342381 ] } },
{ "type": "Feature", "properties": { "P29_001": "33202", "P29_002": "D133210000542", "P29_003": "16004", "P29_004": "倉敷市立工業高等学校", "P29_005": "岡山県倉敷市田ノ上716-1", "P29_006": "3", "P29_007": "0", "P29_008": "00", "P29_009": null }, "geometry": { "type": "Point", "coordinates": [ 133.758276088691815, 34.59238482817905 ] } },
{ "type": "Feature", "properties": { "P29_001": "33202", "P29_002": "D133210000551", "P29_003": "16004", "P29_004": "倉敷市立玉島高等学校", "P29_005": "岡山県倉敷市玉島1-15-60", "P29_006": "3", "P29_007": "0", "P29_008": "00", "P29_009": null }, "geometry": { "type": "Point", "coordinates": [ 133.679171017063567, 34.54329250232167 ] } },
{ "type": "Feature", "properties": { "P29_001": "33204", "P29_002": "D133210000560", "P29_003": "16004", "P29_004": "玉野市立玉野備南高等学校", "P29_005": "岡山県玉野市和田4-7-1", "P29_006": "3", "P29_007": "0", "P29_008": "00", "P29_009": null }, "geometry": { "type": "Point", "coordinates": [ 133.917032291896788, 34.469571291319838 ] } },
{ "type": "Feature", "properties": { "P29_001": "33207", "P29_002": "D133210000579", "P29_003": "16004", "P29_004": "井原市立高等学校", "P29_005": "岡山県井原市井原町1151", "P29_006": "3", "P29_007": "0", "P29_008": "00", "P29_009": null }, "geometry": { "type": "Point", "coordinates": [ 133.462818308132626, 34.602367092194633 ] } },
{ "type": "Feature", "properties": { "P29_001": "33209", "P29_002": "D133210000588", "P29_003": "16004", "P29_004": "高梁市立宇治高等学校", "P29_005": "岡山県高梁市宇治町宇治1681-2", "P29_006": "3", "P29_007": "0", "P29_008": "00", "P29_009": null }, "geometry": { "type": "Point", "coordinates": [ 133.491049137483316, 34.827600042191428 ] } },
{ "type": "Feature", "properties": { "P29_001": "33211", "P29_002": "D133210000597", "P29_003": "16004", "P29_004": "備前市立片上高等学校", "P29_005": "岡山県備前市西片上91-1", "P29_006": "3", "P29_007": "0", "P29_008": "00", "P29_009": null }, "geometry": { "type": "Point", "coordinates": [ 134.183955746818413, 34.746694991158137 ] } },
{ "type": "Feature", "properties": { "P29_001": "33209", "P29_002": "D133210000604", "P29_003": "16004", "P29_004": "高梁市立松山高等学校", "P29_005": "岡山県高梁市原田北町1216-1", "P29_006": "3", "P29_007": "0", "P29_008": "00", "P29_009": null }, "geometry": { "type": "Point", "coordinates": [ 133.615563854446492, 34.786463376821061 ] } },
{ "type": "Feature", "properties": { "P29_001": "33202", "P29_002": "D133210000613", "P29_003": "16004", "P29_004": "倉敷市立真備陵南高等学校", "P29_005": "岡山県倉敷市真備町箭田1769-1", "P29_006": "3", "P29_007": "0", "P29_008": "00", "P29_009": null }, "geometry": { "type": "Point", "coordinates": [ 133.689032528089086, 34.628063806243148 ] } },
{ "type": "Feature", "properties": { "P29_001": "33101", "P29_002": "D133210000622", "P29_003": "16004", "P29_004": "岡山市立岡山後楽館高等学校", "P29_005": "岡山県岡山市北区南方1-3-15", "P29_006": "3", "P29_007": "0", "P29_008": "00", "P29_009": null }, "geometry": { "type": "Point", "coordinates": [ 133.923094836453004, 34.672723446859933 ] } },
{ "type": "Feature", "properties": { "P29_001": "33202", "P29_002": "D133210000631", "P29_003": "16004", "P29_004": "倉敷市立倉敷翔南高等学校", "P29_005": "岡山県倉敷市児島稗田町160", "P29_006": "3", "P29_007": "0", "P29_008": "00", "P29_009": null }, "geometry": { "type": "Point", "coordinates": [ 133.808851552476796, 34.498811480880406 ] } },
{ "type": "Feature", "properties": { "P29_001": "33101", "P29_002": "D133310000014", "P29_003": "16004", "P29_004": "関西高等学校", "P29_005": "岡山県岡山市北区西崎本町16-1", "P29_006": "4", "P29_007": "0", "P29_008": "00", "P29_009": null }, "geometry": { "type": "Point", "coordinates": [ 133.897116787851189, 34.669371547552856 ] } },
{ "type": "Feature", "properties": { "P29_001": "33101", "P29_002": "D133310000023", "P29_003": "16004", "P29_004": "岡山商科大学附属高等学校", "P29_005": "岡山県岡山市北区南方5-2-45", "P29_006": "4", "P29_007": "0", "P29_008": "00", "P29_009": null }, "geometry": { "type": "Point", "coordinates": [ 133.922210982198322, 34.676097228373834 ] } },
{ "type": "Feature", "properties": { "P29_001": "33102", "P29_002": "D133310000032", "P29_003": "16004", "P29_004": "山陽学園高等学校", "P29_005": "岡山県岡山市中区門田屋敷2-2-16", "P29_006": "4", "P29_007": "0", "P29_008": "00", "P29_009": null }, "geometry": { "type": "Point", "coordinates": [ 133.940468759468359, 34.655345376100016 ] } },
{ "type": "Feature", "properties": { "P29_001": "33101", "P29_002": "D133310000041", "P29_003": "16004", "P29_004": "就実高等学校", "P29_005": "岡山県岡山市北区弓之町14-23", "P29_006": "4", "P29_007": "0", "P29_008": "00", "P29_009": null }, "geometry": { "type": "Point", "coordinates": [ 133.929200616041868, 34.671002177814344 ] } },
{ "type": "Feature", "properties": { "P29_001": "33101", "P29_002": "D133310000050", "P29_003": "16004", "P29_004": "創志学園高等学校", "P29_005": "岡山県岡山市北区下伊福西町7-38", "P29_006": "4", "P29_007": "0", "P29_008": "00", "P29_009": null }, "geometry": { "type": "Point", "coordinates": [ 133.902615157464368, 34.666441112903115 ] } },
{ "type": "Feature", "properties": { "P29_001": "33101", "P29_002": "D133310000069", "P29_003": "16004", "P29_004": "明誠学院高等学校", "P29_005": "岡山県岡山市北区津島西坂3-5-1", "P29_006": "4", "P29_007": "0", "P29_008": "00", "P29_009": null }, "geometry": { "type": "Point", "coordinates": [ 133.906061532692036, 34.686744568505787 ] } },
{ "type": "Feature", "properties": { "P29_001": "33202", "P29_002": "D133310000078", "P29_003": "16004", "P29_004": "倉敷高等学校", "P29_005": "岡山県倉敷市鳥羽283", "P29_006": "4", "P29_007": "0", "P29_008": "00", "P29_009": null }, "geometry": { "type": "Point", "coordinates": [ 133.807797678169436, 34.622625252514723 ] } },
{ "type": "Feature", "properties": { "P29_001": "33101", "P29_002": "D133310000087", "P29_003": "16004", "P29_004": "岡山理科大学附属高等学校", "P29_005": "岡山県岡山市北区理大町1-1", "P29_006": "4", "P29_007": "0", "P29_008": "00", "P29_009": null }, "geometry": { "type": "Point", "coordinates": [ 133.927829167407992, 34.695961715301046 ] } },
{ "type": "Feature", "properties": { "P29_001": "33202", "P29_002": "D133310000096", "P29_003": "16004", "P29_004": "倉敷翠松高等学校", "P29_005": "岡山県倉敷市平田155", "P29_006": "4", "P29_007": "0", "P29_008": "00", "P29_009": null }, "geometry": { "type": "Point", "coordinates": [ 133.776313874278628, 34.610647060829123 ] } },
{ "type": "Feature", "properties": { "P29_001": "33203", "P29_002": "D133310000103", "P29_003": "16004", "P29_004": "岡山県美作高等学校", "P29_005": "岡山県津山市山北500", "P29_006": "4", "P29_007": "0", "P29_008": "00", "P29_009": null }, "geometry": { "type": "Point", "coordinates": [ 134.004867719392536, 35.067377233050649 ] } },
{ "type": "Feature", "properties": { "P29_001": "33202", "P29_002": "D133310000112", "P29_003": "16004", "P29_004": "作陽学園高等学校", "P29_005": "岡山県倉敷市玉島八島1541-1", "P29_006": "4", "P29_007": "0", "P29_008": "00", "P29_009": null }, "geometry": { "type": "Point", "coordinates": [ 133.672371549188483, 34.564252286001576 ] } },
{ "type": "Feature", "properties": { "P29_001": "33205", "P29_002": "D133310000121", "P29_003": "16004", "P29_004": "岡山龍谷高等学校", "P29_005": "岡山県笠岡市笠岡874", "P29_006": "4", "P29_007": "0", "P29_008": "00", "P29_009": null }, "geometry": { "type": "Point", "coordinates": [ 133.510909722542721, 34.506159815193115 ] } },
{ "type": "Feature", "properties": { "P29_001": "33103", "P29_002": "D133310000130", "P29_003": "16004", "P29_004": "岡山学芸館高等学校", "P29_005": "岡山県岡山市東区西大寺上1-19-19", "P29_006": "4", "P29_007": "0", "P29_008": "00", "P29_009": null }, "geometry": { "type": "Point", "coordinates": [ 134.032197768817156, 34.659625596750843 ] } },
{ "type": "Feature", "properties": { "P29_001": "33207", "P29_002": "D133310000149", "P29_003": "16004", "P29_004": "興譲館高等学校", "P29_005": "岡山県井原市西江原町2257-1", "P29_006": "4", "P29_007": "0", "P29_008": "00", "P29_009": null }, "geometry": { "type": "Point", "coordinates": [ 133.474290190048777, 34.602277435945147 ] } },
{ "type": "Feature", "properties": { "P29_001": "33209", "P29_002": "D133310000158", "P29_003": "16004", "P29_004": "岡山県高梁日新高等学校", "P29_005": "岡山県高梁市内山下150", "P29_006": "4", "P29_007": "0", "P29_008": "00", "P29_009": null }, "geometry": { "type": "Point", "coordinates": [ 133.616908894316737, 34.800723198021004 ] } },
{ "type": "Feature", "properties": { "P29_001": "33202", "P29_002": "D133310000167", "P29_003": "16004", "P29_004": "清心女子高等学校", "P29_005": "岡山県倉敷市二子1200", "P29_006": "4", "P29_007": "0", "P29_008": "00", "P29_009": null }, "geometry": { "type": "Point", "coordinates": [ 133.816457197828385, 34.64000053048278 ] } },
{ "type": "Feature", "properties": { "P29_001": "33216", "P29_002": "D133310000176", "P29_003": "16004", "P29_004": "おかやま山陽高等学校", "P29_005": "岡山県浅口市鴨方町六条院中2069", "P29_006": "4", "P29_007": "0", "P29_008": "00", "P29_009": null }, "geometry": { "type": "Point", "coordinates": [ 133.581986022448689, 34.521697949805286 ] } },
{ "type": "Feature", "properties": { "P29_001": "33216", "P29_002": "D133310000185", "P29_003": "16004", "P29_004": "金光学園高等学校", "P29_005": "岡山県浅口市金光町占見新田1350", "P29_006": "4", "P29_007": "0", "P29_008": "00", "P29_009": null }, "geometry": { "type": "Point", "coordinates": [ 133.62409411639041, 34.546159807160933 ] } },
{ "type": "Feature", "properties": { "P29_001": "33202", "P29_002": "D133310000194", "P29_003": "16004", "P29_004": "川崎医科大学附属高等学校", "P29_005": "岡山県倉敷市生坂1661", "P29_006": "4", "P29_007": "0", "P29_008": "00", "P29_009": null }, "geometry": { "type": "Point", "coordinates": [ 133.785914192422496, 34.635467102002949 ] } },
{ "type": "Feature", "properties": { "P29_001": "33210", "P29_002": "D133310000201", "P29_003": "16004", "P29_004": "岡山県共生高等学校", "P29_005": "岡山県新見市新見2032-4", "P29_006": "4", "P29_007": "0", "P29_008": "00", "P29_009": null }, "geometry": { "type": "Point", "coordinates": [ 133.467731281240731, 34.98737084447874 ] } },
{ "type": "Feature", "properties": { "P29_001": "33213", "P29_002": "D133310000210", "P29_003": "16004", "P29_004": "岡山白陵高等学校", "P29_005": "岡山県赤磐市勢力588", "P29_006": "4", "P29_007": "0", "P29_008": "00", "P29_009": null }, "geometry": { "type": "Point", "coordinates": [ 134.10818440043613, 34.777763125053959 ] } },
{ "type": "Feature", "properties": { "P29_001": "33104", "P29_002": "D133310000229", "P29_003": "16004", "P29_004": "岡山高等学校", "P29_005": "岡山県岡山市南区箕島1500", "P29_006": "4", "P29_007": "0", "P29_008": "00", "P29_009": null }, "geometry": { "type": "Point", "coordinates": [ 133.857207635949067, 34.61450971235606 ] } },
{ "type": "Feature", "properties": { "P29_001": "33681", "P29_002": "D133310000238", "P29_003": "16004", "P29_004": "吉備高原学園高等学校", "P29_005": "岡山県加賀郡吉備中央町上野2400", "P29_006": "4", "P29_007": "0", "P29_008": "00", "P29_009": null }, "geometry": { "type": "Point", "coordinates": [ 133.767435100731973, 34.845634472410438 ] } },
{ "type": "Feature", "properties": { "P29_001": "33101", "P29_002": "D133310000247", "P29_003": "16004", "P29_004": "鹿島朝日高等学校", "P29_005": "岡山県岡山市北区御津紙工2590", "P29_006": "4", "P29_007": "0", "P29_008": "00", "P29_009": null }, "geometry": { "type": "Point", "coordinates": [ 133.859873744330741, 34.821609978419986 ] } },
{ "type": "Feature", "properties": { "P29_001": "33215", "P29_002": "D133310000256", "P29_003": "16004", "P29_004": "滋慶学園高等学校", "P29_005": "岡山県美作市古町1665", "P29_006": "4", "P29_007": "0", "P29_008": "00", "P29_009": null }, "geometry": { "type": "Point", "coordinates": [ 134.327007728122396, 35.121268076993879 ] } },
{ "type": "Feature", "properties": { "P29_001": "33101", "P29_002": "D133310000265", "P29_003": "16004", "P29_004": "ワオ高等学校", "P29_005": "岡山県岡山市北区磨屋町7-2", "P29_006": "4", "P29_007": "0", "P29_008": "00", "P29_009": null }, "geometry": { "type": "Point", "coordinates": [ 133.924530694415807, 34.663689295547648 ] } }
]
}
