{
"type": "FeatureCollection",
"name": "geo_33_特定福祉用具販売",
"crs": { "type": "name", "properties": { "name": "urn:ogc:def:crs:OGC:1.3:CRS84" } },
"features": [
{ "type": "Feature", "properties": { "内容": "ニチイケアセンター大供【特定福祉用具販売】岡山県岡山市北区西古松604-1", "url": "https://www.kaigokensaku.mhlw.go.jp/33/index.php?action_kouhyou_detail_004_kani=true&JigyosyoCd=3370101796-00&ServiceCd=410&Type=search", "url2": null }, "geometry": { "type": "Point", "coordinates": [ 133.910833240916077, 34.651256121546361 ] } },
{ "type": "Feature", "properties": { "内容": "パナソニック　エイジフリーショップオカヤマチュウオウ【特定福祉用具販売】岡山県岡山市北区下中野337-106パナソニック岡山下中野ビル2F", "url": "https://www.kaigokensaku.mhlw.go.jp/33/index.php?action_kouhyou_detail_004_kani=true&JigyosyoCd=3370114567-00&ServiceCd=410&Type=search", "url2": "http://sumai.panasonic.jp/agefree/shop/search/shop_detail.php?shop=962" }, "geometry": { "type": "Point", "coordinates": [ 133.905087399999985, 34.641430100000065 ] } },
{ "type": "Feature", "properties": { "内容": "クリエイティブサポートTsukiyo【特定福祉用具販売】岡山県岡山市北区牟佐770-6", "url": "https://www.kaigokensaku.mhlw.go.jp/33/index.php?action_kouhyou_detail_004_kani=true&JigyosyoCd=3370114724-00&ServiceCd=410&Type=search", "url2": "https://www.tsukiyo-okayama.com" }, "geometry": { "type": "Point", "coordinates": [ 133.9819702, 34.7223285 ] } },
{ "type": "Feature", "properties": { "内容": "株式会社　河村福祉サービス　岡山支店【特定福祉用具販売】岡山県岡山市北区田中633番地1", "url": "https://www.kaigokensaku.mhlw.go.jp/33/index.php?action_kouhyou_detail_004_kani=true&JigyosyoCd=3370115499-00&ServiceCd=410&Type=search", "url2": null }, "geometry": { "type": "Point", "coordinates": [ 133.880673099999967, 34.6410272 ] } },
{ "type": "Feature", "properties": { "内容": "リハビット【特定福祉用具販売】岡山県岡山市北区野田3丁目16-1下電開発ビル3F", "url": "https://www.kaigokensaku.mhlw.go.jp/33/index.php?action_kouhyou_detail_004_kani=true&JigyosyoCd=3370115614-00&ServiceCd=410&Type=search", "url2": "https://rehabit.jp/" }, "geometry": { "type": "Point", "coordinates": [ 133.900884, 34.6541257 ] } },
{ "type": "Feature", "properties": { "内容": "福祉用具オルカ【特定福祉用具販売】岡山県岡山市北区白石西新町7-107フレグランスアコオ103", "url": "https://www.kaigokensaku.mhlw.go.jp/33/index.php?action_kouhyou_detail_004_kani=true&JigyosyoCd=3370116968-00&ServiceCd=410&Type=search", "url2": "https://kobchass.jp/" }, "geometry": { "type": "Point", "coordinates": [ 133.8691446, 34.6549431 ] } },
{ "type": "Feature", "properties": { "内容": "SOKEN【特定福祉用具販売】岡山県岡山市北区東花尻294-5", "url": "https://www.kaigokensaku.mhlw.go.jp/33/index.php?action_kouhyou_detail_004_kani=true&JigyosyoCd=3370117354-00&ServiceCd=410&Type=search", "url2": null }, "geometry": { "type": "Point", "coordinates": [ 133.8620757, 34.6507838 ] } },
{ "type": "Feature", "properties": { "内容": "ダスキンヘルスレント岡山ステーション【特定福祉用具販売】岡山県岡山市北区下中野７１３－１０２", "url": "https://www.kaigokensaku.mhlw.go.jp/33/index.php?action_kouhyou_detail_004_kani=true&JigyosyoCd=3370107355-00&ServiceCd=410&Type=search", "url2": "https://healthrent.duskin.jp/" }, "geometry": { "type": "Point", "coordinates": [ 133.895523176057424, 34.63611871764563 ] } },
{ "type": "Feature", "properties": { "内容": "株式会社ライフケア　本店営業所【特定福祉用具販売】岡山県岡山市北区野田3-20-28", "url": "https://www.kaigokensaku.mhlw.go.jp/33/index.php?action_kouhyou_detail_004_kani=true&JigyosyoCd=3370101598-00&ServiceCd=410&Type=search", "url2": "http://www.olba.co.jp" }, "geometry": { "type": "Point", "coordinates": [ 133.89743811863255, 34.651918118708338 ] } },
{ "type": "Feature", "properties": { "内容": "日本基準寝具株式会社　岡山中央営業所【特定福祉用具販売】岡山県岡山市北区下中野339-106", "url": "https://www.kaigokensaku.mhlw.go.jp/33/index.php?action_kouhyou_detail_004_kani=true&JigyosyoCd=3370109427-00&ServiceCd=410&Type=search", "url2": "https://www.nihonkijun.jp" }, "geometry": { "type": "Point", "coordinates": [ 133.905020700000023, 34.6404386 ] } },
{ "type": "Feature", "properties": { "内容": "株式会社ゴトウ・アズ・プランニング　岡山店【特定福祉用具販売】岡山県岡山市北区中仙道2丁目１０－１５", "url": "https://www.kaigokensaku.mhlw.go.jp/33/index.php?action_kouhyou_detail_004_kani=true&JigyosyoCd=3370109567-00&ServiceCd=410&Type=search", "url2": "http://www.goto-az.co.jp" }, "geometry": { "type": "Point", "coordinates": [ 133.884348, 34.6454372 ] } },
{ "type": "Feature", "properties": { "内容": "フランスベッド株式会社　メディカル岡山営業所【特定福祉用具販売】岡山県岡山市北区富田420-1", "url": "https://www.kaigokensaku.mhlw.go.jp/33/index.php?action_kouhyou_detail_004_kani=true&JigyosyoCd=3370109849-00&ServiceCd=410&Type=search", "url2": "http://www.francebed.ne.jp" }, "geometry": { "type": "Point", "coordinates": [ 133.912333699999976, 34.6417164 ] } },
{ "type": "Feature", "properties": { "内容": "株式会社　トーカイ　岡山営業所【特定福祉用具販売】岡山市北区上中野2-14-8", "url": "https://www.kaigokensaku.mhlw.go.jp/33/index.php?action_kouhyou_detail_004_kani=true&JigyosyoCd=3370111522-00&ServiceCd=410&Type=search", "url2": "https://www.tokai-corp.com" }, "geometry": { "type": "Point", "coordinates": [ 133.900443399999972, 34.6422771 ] } },
{ "type": "Feature", "properties": { "内容": "ENテクノサービス【特定福祉用具販売】上中野1丁目19-18101", "url": "https://www.kaigokensaku.mhlw.go.jp/33/index.php?action_kouhyou_detail_004_kani=true&JigyosyoCd=3370117511-00&ServiceCd=410&Type=search", "url2": null }, "geometry": { "type": "Point", "coordinates": [ 133.899876400000011, 34.6464216 ] } },
{ "type": "Feature", "properties": { "内容": "株式会社ヤマシタ岡山営業所【特定福祉用具販売】岡山県岡山市北区上中野一丁目16番7号", "url": "https://www.kaigokensaku.mhlw.go.jp/33/index.php?action_kouhyou_detail_004_kani=true&JigyosyoCd=3370117743-00&ServiceCd=410&Type=search", "url2": "https://www.ycota.jp/" }, "geometry": { "type": "Point", "coordinates": [ 133.898981600000013, 34.6454434 ] } },
{ "type": "Feature", "properties": { "内容": "ライフサポートあいの助　岡山営業所【特定福祉用具販売】岡山県岡山市中区さくら住座10-1社会福祉法人　岡山博愛会　在宅総合支援センター　アリス内", "url": "https://www.kaigokensaku.mhlw.go.jp/33/index.php?action_kouhyou_detail_004_kani=true&JigyosyoCd=3370115895-00&ServiceCd=410&Type=search", "url2": "http://hp.kaipoke.biz/3cu/" }, "geometry": { "type": "Point", "coordinates": [ 133.9335838, 34.6515966 ] } },
{ "type": "Feature", "properties": { "内容": "西本薬品株式会社　福祉用具貸与事業所【特定福祉用具販売】岡山県岡山市中区浜3丁目７番1号", "url": "https://www.kaigokensaku.mhlw.go.jp/33/index.php?action_kouhyou_detail_004_kani=true&JigyosyoCd=3370101804-00&ServiceCd=410&Type=search", "url2": "http://www.nishimoto-med.co.jp" }, "geometry": { "type": "Point", "coordinates": [ 133.942543699999987, 34.67047 ] } },
{ "type": "Feature", "properties": { "内容": "株式会社　舟木義肢　福祉用具レンタル事業部【特定福祉用具販売】岡山県岡山市中区江並１００－７", "url": "https://www.kaigokensaku.mhlw.go.jp/33/index.php?action_kouhyou_detail_004_kani=true&JigyosyoCd=3370101184-00&ServiceCd=410&Type=search", "url2": "http://www.funaki-gishi.co.jp" }, "geometry": { "type": "Point", "coordinates": [ 133.971123199999965, 34.6148214 ] } },
{ "type": "Feature", "properties": { "内容": "いいなケア【特定福祉用具販売】岡山県岡山市中区藤原西町２丁目8-26", "url": "https://www.kaigokensaku.mhlw.go.jp/33/index.php?action_kouhyou_detail_004_kani=true&JigyosyoCd=3370108957-00&ServiceCd=410&Type=search", "url2": null }, "geometry": { "type": "Point", "coordinates": [ 133.958472799999981, 34.6772531 ] } },
{ "type": "Feature", "properties": { "内容": "福祉用具やすらぎケアサービス【特定福祉用具販売】岡山県岡山市中区中島69-3", "url": "https://www.kaigokensaku.mhlw.go.jp/33/index.php?action_kouhyou_detail_004_kani=true&JigyosyoCd=3370117586-00&ServiceCd=410&Type=search", "url2": null }, "geometry": { "type": "Point", "coordinates": [ 133.9456346, 34.6862678 ] } },
{ "type": "Feature", "properties": { "内容": "リーフプラス【特定福祉用具販売】岡山市中区新京橋3-4-14", "url": "https://www.kaigokensaku.mhlw.go.jp/33/index.php?action_kouhyou_detail_004_kani=true&JigyosyoCd=3370112793-00&ServiceCd=410&Type=search", "url2": "https://merciservice.jp/" }, "geometry": { "type": "Point", "coordinates": [ 133.939324400000032, 34.6809962 ] } },
{ "type": "Feature", "properties": { "内容": "ケアサポートウエオカ【特定福祉用具販売】岡山県岡山市東区西大寺新１４番地１３", "url": "https://www.kaigokensaku.mhlw.go.jp/33/index.php?action_kouhyou_detail_004_kani=true&JigyosyoCd=3370114781-00&ServiceCd=410&Type=search", "url2": null }, "geometry": { "type": "Point", "coordinates": [ 134.034970499999986, 34.64053 ] } },
{ "type": "Feature", "properties": { "内容": "こすもすめ～る西大寺店【特定福祉用具販売】岡山県岡山市東区西大寺中2-7-3", "url": "https://www.kaigokensaku.mhlw.go.jp/33/index.php?action_kouhyou_detail_004_kani=true&JigyosyoCd=3370104659-00&ServiceCd=410&Type=search", "url2": null }, "geometry": { "type": "Point", "coordinates": [ 134.032482100000038, 34.6565289 ] } },
{ "type": "Feature", "properties": { "内容": "株式会社フルケア　岡山営業所【特定福祉用具販売】岡山市南区藤田651-18", "url": "https://www.kaigokensaku.mhlw.go.jp/33/index.php?action_kouhyou_detail_004_kani=true&JigyosyoCd=3370110912-00&ServiceCd=410&Type=search", "url2": "http://www.full-care.jp/" }, "geometry": { "type": "Point", "coordinates": [ 133.903512699999965, 34.6130307 ] } },
{ "type": "Feature", "properties": { "内容": "アークテクノサービス【特定福祉用具販売】新保1314-2ディアリオB-1", "url": "https://www.kaigokensaku.mhlw.go.jp/33/index.php?action_kouhyou_detail_004_kani=true&JigyosyoCd=3370114930-00&ServiceCd=410&Type=search", "url2": null }, "geometry": { "type": "Point", "coordinates": [ 133.907939899999974, 34.6356142 ] } },
{ "type": "Feature", "properties": { "内容": "株式会社メリオ福祉用具貸与事業所【特定福祉用具販売】岡山県岡山市南区豊成１丁目11-67", "url": "https://www.kaigokensaku.mhlw.go.jp/33/index.php?action_kouhyou_detail_004_kani=true&JigyosyoCd=3370101739-00&ServiceCd=410&Type=search", "url2": "http://meglio.jp/index.html" }, "geometry": { "type": "Point", "coordinates": [ 133.926848800000016, 34.6320347 ] } },
{ "type": "Feature", "properties": { "内容": "ダテ・ライフ・ウエルネス【特定福祉用具販売】岡山県岡山市南区西紅陽台2丁目58-464", "url": "https://www.kaigokensaku.mhlw.go.jp/33/index.php?action_kouhyou_detail_004_kani=true&JigyosyoCd=3370115572-00&ServiceCd=410&Type=search", "url2": "https://www.d-lifewellness.date/" }, "geometry": { "type": "Point", "coordinates": [ 133.88614290000001, 34.5484142 ] } },
{ "type": "Feature", "properties": { "内容": "福祉用具購入　岡山リハビリ機器販売有限会社本店営業所【特定福祉用具販売】岡山県岡山市南区泉田350番地１", "url": "https://www.kaigokensaku.mhlw.go.jp/33/index.php?action_kouhyou_detail_004_kani=true&JigyosyoCd=3370101648-00&ServiceCd=410&Type=search", "url2": "https://okariha.com/" }, "geometry": { "type": "Point", "coordinates": [ 133.912740630688489, 34.627182841466102 ] } },
{ "type": "Feature", "properties": { "内容": "株式会社ヤマサキ本店福祉用具貸与事業所【特定福祉用具販売】岡山県岡山市南区当新田４８５－１８", "url": "https://www.kaigokensaku.mhlw.go.jp/33/index.php?action_kouhyou_detail_004_kani=true&JigyosyoCd=3370101556-00&ServiceCd=410&Type=search", "url2": "http://www.ykaigo.jp/" }, "geometry": { "type": "Point", "coordinates": [ 133.890739199999985, 34.623929 ] } },
{ "type": "Feature", "properties": { "内容": "介護ショップいぬかい【特定福祉用具販売】岡山県岡山市南区西市１１４－２", "url": "https://www.kaigokensaku.mhlw.go.jp/33/index.php?action_kouhyou_detail_004_kani=true&JigyosyoCd=3370103008-00&ServiceCd=410&Type=search", "url2": "http://www.jml-west.jp/" }, "geometry": { "type": "Point", "coordinates": [ 133.902329499999951, 34.6302703 ] } },
{ "type": "Feature", "properties": { "内容": "株式会社　エム・エス経営企画　福祉用具貸与事業部【特定福祉用具販売】岡山県岡山市南区築港新町1-7-30", "url": "https://www.kaigokensaku.mhlw.go.jp/33/index.php?action_kouhyou_detail_004_kani=true&JigyosyoCd=3370104816-00&ServiceCd=410&Type=search", "url2": "http://www.sanyo3417.co.jp" }, "geometry": { "type": "Point", "coordinates": [ 133.937484400000017, 34.6068158 ] } },
{ "type": "Feature", "properties": { "内容": "ＳＯＭＰＯケア　岡山　福祉用具【特定福祉用具販売】岡山県岡山市南区西市522-1", "url": "https://www.kaigokensaku.mhlw.go.jp/33/index.php?action_kouhyou_detail_004_kani=true&JigyosyoCd=3370115465-00&ServiceCd=410&Type=search", "url2": null }, "geometry": { "type": "Point", "coordinates": [ 133.898367399999984, 34.6312478 ] } },
{ "type": "Feature", "properties": { "内容": "福祉用具事業所あゆむ【特定福祉用具販売】岡山県岡山市南区福田95-2", "url": "https://www.kaigokensaku.mhlw.go.jp/33/index.php?action_kouhyou_detail_004_kani=true&JigyosyoCd=3370116851-00&ServiceCd=410&Type=search", "url2": "http://www.ayumu-service.com/" }, "geometry": { "type": "Point", "coordinates": [ 133.92912290000001, 34.6172079 ] } },
{ "type": "Feature", "properties": { "内容": "アミューズ富永　福祉用具レンタル事業所【特定福祉用具販売】岡山県岡山市南区築港緑町　1-14-16", "url": "https://www.kaigokensaku.mhlw.go.jp/33/index.php?action_kouhyou_detail_004_kani=true&JigyosyoCd=3370101978-00&ServiceCd=410&Type=search", "url2": "kusuriya.co.jp" }, "geometry": { "type": "Point", "coordinates": [ 133.933409799999907, 34.6042771 ] } },
{ "type": "Feature", "properties": { "内容": "株式会社フロンティア　岡山営業所【特定福祉用具販売】岡山県岡山市南区豊成2－3－3", "url": "https://www.kaigokensaku.mhlw.go.jp/33/index.php?action_kouhyou_detail_004_kani=true&JigyosyoCd=3370112389-00&ServiceCd=410&Type=search", "url2": "https://www.frontier-ph.com/" }, "geometry": { "type": "Point", "coordinates": [ 133.929605199999969, 34.6293336 ] } },
{ "type": "Feature", "properties": { "内容": "アール・ケア　福祉用具サービス【特定福祉用具販売】岡山県岡山市南区新保944-7", "url": "https://www.kaigokensaku.mhlw.go.jp/33/index.php?action_kouhyou_detail_004_kani=true&JigyosyoCd=3370113353-00&ServiceCd=410&Type=search", "url2": "http://www.rcare.jp/" }, "geometry": { "type": "Point", "coordinates": [ 133.907601099999965, 34.6367641 ] } },
{ "type": "Feature", "properties": { "内容": "あいケア【特定福祉用具販売】岡山県岡山市南区福富西一丁目18-31川崎ビル103号", "url": "https://www.kaigokensaku.mhlw.go.jp/33/index.php?action_kouhyou_detail_004_kani=true&JigyosyoCd=3370114906-00&ServiceCd=410&Type=search", "url2": null }, "geometry": { "type": "Point", "coordinates": [ 133.931170699999939, 34.6237691 ] } },
{ "type": "Feature", "properties": { "内容": "川﨑商会　岡山店【特定福祉用具販売】妹尾2613番地1", "url": "https://www.kaigokensaku.mhlw.go.jp/33/index.php?action_kouhyou_detail_004_kani=true&JigyosyoCd=3370114997-00&ServiceCd=410&Type=search", "url2": null }, "geometry": { "type": "Point", "coordinates": [ 133.865641099999948, 34.6166622 ] } },
{ "type": "Feature", "properties": { "内容": "たいおんあくとおかやましてん【特定福祉用具販売】岡山市南区豊成2丁目2ｰ9", "url": "https://www.kaigokensaku.mhlw.go.jp/33/index.php?action_kouhyou_detail_004_kani=true&JigyosyoCd=3370116463-00&ServiceCd=410&Type=search", "url2": "https://www.taion365.co.jp/" }, "geometry": { "type": "Point", "coordinates": [ 133.92847381388313, 34.629915069033991 ] } },
{ "type": "Feature", "properties": { "内容": "創心会生活環境プランニング【特定福祉用具販売】岡山県倉敷市茶屋町2104-1", "url": "https://www.kaigokensaku.mhlw.go.jp/33/index.php?action_kouhyou_detail_004_kani=true&JigyosyoCd=3370201760-00&ServiceCd=410&Type=search", "url2": "http://www.soushinkai.com" }, "geometry": { "type": "Point", "coordinates": [ 133.824535800000035, 34.5834535 ] } },
{ "type": "Feature", "properties": { "内容": "こすもすめ～る水島中央店【特定福祉用具販売】岡山県倉敷市連島町連島697-1", "url": "https://www.kaigokensaku.mhlw.go.jp/33/index.php?action_kouhyou_detail_004_kani=true&JigyosyoCd=3370201919-00&ServiceCd=410&Type=search", "url2": null }, "geometry": { "type": "Point", "coordinates": [ 133.743958962565557, 34.555187088490328 ] } },
{ "type": "Feature", "properties": { "内容": "有限会社　西日本ワークス【特定福祉用具販売】岡山県倉敷市笹沖312-18", "url": "https://www.kaigokensaku.mhlw.go.jp/33/index.php?action_kouhyou_detail_004_kani=true&JigyosyoCd=3370202495-00&ServiceCd=410&Type=search", "url2": null }, "geometry": { "type": "Point", "coordinates": [ 133.768131899999958, 34.5747504 ] } },
{ "type": "Feature", "properties": { "内容": "ひらまつエンタープライズ福祉用具貸与事業所【特定福祉用具販売】岡山県倉敷市昭和１丁目２番２２号", "url": "https://www.kaigokensaku.mhlw.go.jp/33/index.php?action_kouhyou_detail_004_kani=true&JigyosyoCd=3370203352-00&ServiceCd=410&Type=search", "url2": "http://hiramatsu-ep.co.jp" }, "geometry": { "type": "Point", "coordinates": [ 133.770761399999969, 34.6044505 ] } },
{ "type": "Feature", "properties": { "内容": "福祉用具あずき【特定福祉用具販売】岡山県倉敷市連島町鶴新田278-2ニューシティ飛栄103", "url": "https://www.kaigokensaku.mhlw.go.jp/33/index.php?action_kouhyou_detail_004_kani=true&JigyosyoCd=3370208880-00&ServiceCd=410&Type=search", "url2": "hp,kaipoke.biz/gpn/141817/index_0005.html" }, "geometry": { "type": "Point", "coordinates": [ 133.7094945, 34.5435615 ] } },
{ "type": "Feature", "properties": { "内容": "あくらケアサービス【特定福祉用具販売】粒江20番地20", "url": "https://www.kaigokensaku.mhlw.go.jp/33/index.php?action_kouhyou_detail_004_kani=true&JigyosyoCd=3370209417-00&ServiceCd=410&Type=search", "url2": "https://exflap.co.jp/kaigo-rental-akura/" }, "geometry": { "type": "Point", "coordinates": [ 133.8052446, 34.5540855 ] } },
{ "type": "Feature", "properties": { "内容": "おうじの福祉用具plusR【特定福祉用具販売】岡山県倉敷市児島下の町５丁目２－１７", "url": "https://www.kaigokensaku.mhlw.go.jp/33/index.php?action_kouhyou_detail_004_kani=true&JigyosyoCd=3370209599-00&ServiceCd=410&Type=search", "url2": "https://ohji-clinic.jp/" }, "geometry": { "type": "Point", "coordinates": [ 133.82152640000001, 34.4775511 ] } },
{ "type": "Feature", "properties": { "内容": "有限会社福祉の店アイコー本店営業所【特定福祉用具販売】岡山県倉敷市福島776-1", "url": "https://www.kaigokensaku.mhlw.go.jp/33/index.php?action_kouhyou_detail_004_kani=true&JigyosyoCd=3370200564-00&ServiceCd=410&Type=search", "url2": "http://aikoo.jp/" }, "geometry": { "type": "Point", "coordinates": [ 133.789395473965158, 34.597284490103057 ] } },
{ "type": "Feature", "properties": { "内容": "日本基準寝具株式会社　岡山営業所【特定福祉用具販売】岡山県倉敷市東富井727-5", "url": "https://www.kaigokensaku.mhlw.go.jp/33/index.php?action_kouhyou_detail_004_kani=true&JigyosyoCd=3370200804-00&ServiceCd=410&Type=search", "url2": "https://www.nihonkijun.jp" }, "geometry": { "type": "Point", "coordinates": [ 133.750552500000026, 34.5769891 ] } },
{ "type": "Feature", "properties": { "内容": "深川医療器株式会社ライフケア倉敷【特定福祉用具販売】岡山県倉敷市宮前481-3クラールファイン101", "url": "https://www.kaigokensaku.mhlw.go.jp/33/index.php?action_kouhyou_detail_004_kani=true&JigyosyoCd=3370209037-00&ServiceCd=410&Type=search", "url2": "http://www.mc-fukagawa.co.jp" }, "geometry": { "type": "Point", "coordinates": [ 133.762014, 34.6141659 ] } },
{ "type": "Feature", "properties": { "内容": "すまいるさぽーと【特定福祉用具販売】水江1599-2", "url": "https://www.kaigokensaku.mhlw.go.jp/33/index.php?action_kouhyou_detail_004_kani=true&JigyosyoCd=3370208120-00&ServiceCd=410&Type=search", "url2": "http://smilesupport9.wixsite.com/smile-support" }, "geometry": { "type": "Point", "coordinates": [ 133.744233, 34.5976234 ] } },
{ "type": "Feature", "properties": { "内容": "有限会社　マツモトメディカル【特定福祉用具販売】岡山県倉敷市中庄８６７－３", "url": "https://www.kaigokensaku.mhlw.go.jp/33/index.php?action_kouhyou_detail_004_kani=true&JigyosyoCd=3370201836-00&ServiceCd=410&Type=search", "url2": "http://www.matsume.co.jp/" }, "geometry": { "type": "Point", "coordinates": [ 133.791099, 34.6140386 ] } },
{ "type": "Feature", "properties": { "内容": "TakeCare株式会社【特定福祉用具販売】倉敷市沖12-3", "url": "https://www.kaigokensaku.mhlw.go.jp/33/index.php?action_kouhyou_detail_004_kani=true&JigyosyoCd=3370206108-00&ServiceCd=410&Type=search", "url2": "http://www.delivery-care.com/" }, "geometry": { "type": "Point", "coordinates": [ 133.751810299999988, 34.5907434 ] } },
{ "type": "Feature", "properties": { "内容": "赤木医科器械株式会社本店福祉用具貸与事業所【特定福祉用具販売】岡山県倉敷市美和2丁目1-11", "url": "https://www.kaigokensaku.mhlw.go.jp/33/index.php?action_kouhyou_detail_004_kani=true&JigyosyoCd=3370201026-00&ServiceCd=410&Type=search", "url2": "http://www.akagi-ika.co.jp" }, "geometry": { "type": "Point", "coordinates": [ 133.774681380312359, 34.599067793057557 ] } },
{ "type": "Feature", "properties": { "内容": "有限会社　医療福祉研究所ヘイセイ【特定福祉用具販売】岡山県倉敷市老松町４丁目４－７倉敷在宅総合ケアセンター", "url": "https://www.kaigokensaku.mhlw.go.jp/33/index.php?action_kouhyou_detail_004_kani=true&JigyosyoCd=3370200960-00&ServiceCd=410&Type=search", "url2": "http://www.heisei.or.jp/" }, "geometry": { "type": "Point", "coordinates": [ 133.760956699999952, 34.594082 ] } },
{ "type": "Feature", "properties": { "内容": "株式会社KUNPUケアサプライ【特定福祉用具販売】岡山県倉敷市水島西栄町10－25", "url": "https://www.kaigokensaku.mhlw.go.jp/33/index.php?action_kouhyou_detail_004_kani=true&JigyosyoCd=3370209276-00&ServiceCd=410&Type=search", "url2": "suiseikai-group.jp/kunpu-care-supply/" }, "geometry": { "type": "Point", "coordinates": [ 133.7435481, 34.5390029 ] } },
{ "type": "Feature", "properties": { "内容": "福祉用具ラボアイボリー.【特定福祉用具販売】岡山県倉敷市玉島1334-１", "url": "https://www.kaigokensaku.mhlw.go.jp/33/index.php?action_kouhyou_detail_004_kani=true&JigyosyoCd=3370208849-00&ServiceCd=410&Type=search", "url2": "https://www.ivory8.jp/8ivory/labo.html" }, "geometry": { "type": "Point", "coordinates": [ 133.6829842, 34.5490064 ] } },
{ "type": "Feature", "properties": { "内容": "ライフサポート　あいの助【特定福祉用具販売】玉島1599-5", "url": "https://www.kaigokensaku.mhlw.go.jp/33/index.php?action_kouhyou_detail_004_kani=true&JigyosyoCd=3370209292-00&ServiceCd=410&Type=search", "url2": "https://igisanso.com/ainosuke/" }, "geometry": { "type": "Point", "coordinates": [ 133.6807557, 34.5501936 ] } },
{ "type": "Feature", "properties": { "内容": "株式会社ライフケア倉敷支店【特定福祉用具販売】岡山県倉敷市福田町浦田2174-1", "url": "https://www.kaigokensaku.mhlw.go.jp/33/index.php?action_kouhyou_detail_004_kani=true&JigyosyoCd=3370205910-00&ServiceCd=410&Type=search", "url2": null }, "geometry": { "type": "Point", "coordinates": [ 133.750783599999977, 34.5557053 ] } },
{ "type": "Feature", "properties": { "内容": "株式会社　リ・ライフ【特定福祉用具販売】岡山県倉敷市福田町古新田1002-65", "url": "https://www.kaigokensaku.mhlw.go.jp/33/index.php?action_kouhyou_detail_004_kani=true&JigyosyoCd=3370208500-00&ServiceCd=410&Type=search", "url2": "https://re-life-support.jp/" }, "geometry": { "type": "Point", "coordinates": [ 133.771472925091302, 34.539071258894666 ] } },
{ "type": "Feature", "properties": { "内容": "福祉用具のリリーフ【特定福祉用具販売】玉島乙島7190-5令和乙島事業所", "url": "https://www.kaigokensaku.mhlw.go.jp/33/index.php?action_kouhyou_detail_004_kani=true&JigyosyoCd=3370209250-00&ServiceCd=410&Type=search", "url2": "https://www.tomicare.com" }, "geometry": { "type": "Point", "coordinates": [ 133.684482400000036, 34.5336677 ] } },
{ "type": "Feature", "properties": { "内容": "福祉用具販売・レンタルサービス　シルプラ【特定福祉用具販売】岡山県倉敷市玉島阿賀崎1676番地1", "url": "https://www.kaigokensaku.mhlw.go.jp/33/index.php?action_kouhyou_detail_004_kani=true&JigyosyoCd=3370205944-00&ServiceCd=410&Type=search", "url2": "https://www.silpla.online/" }, "geometry": { "type": "Point", "coordinates": [ 133.66096060748589, 34.546958741783229 ] } },
{ "type": "Feature", "properties": { "内容": "株式会社　百ちゃん本舗おぎの【特定福祉用具販売】岡山県倉敷市児島味野2-2-43", "url": "https://www.kaigokensaku.mhlw.go.jp/33/index.php?action_kouhyou_detail_004_kani=true&JigyosyoCd=3370205001-00&ServiceCd=410&Type=search", "url2": "https://momochanhompo.com" }, "geometry": { "type": "Point", "coordinates": [ 133.802562099999932, 34.4685192 ] } },
{ "type": "Feature", "properties": { "内容": "ダスキンヘルスレント倉敷ステーション【特定福祉用具販売】岡山県倉敷市酒津2251-1", "url": "https://www.kaigokensaku.mhlw.go.jp/33/index.php?action_kouhyou_detail_004_kani=true&JigyosyoCd=3370208997-00&ServiceCd=410&Type=search", "url2": "https://healthrent.duskin.jp/station/okayama/kurashiki.html" }, "geometry": { "type": "Point", "coordinates": [ 133.755038028836083, 34.615905651664157 ] } },
{ "type": "Feature", "properties": { "内容": "株式会社　トーカイ　倉敷営業所【特定福祉用具販売】倉敷市西阿知町1282番1", "url": "https://www.kaigokensaku.mhlw.go.jp/33/index.php?action_kouhyou_detail_004_kani=true&JigyosyoCd=3370206272-00&ServiceCd=410&Type=search", "url2": "http://www.tokai-corp.com" }, "geometry": { "type": "Point", "coordinates": [ 133.725940700000024, 34.5801805 ] } },
{ "type": "Feature", "properties": { "内容": "株式会社セレクト　岡山支店【特定福祉用具販売】津山市山方５９－４", "url": "https://www.kaigokensaku.mhlw.go.jp/33/index.php?action_kouhyou_detail_004_kani=true&JigyosyoCd=3370301727-00&ServiceCd=410&Type=search", "url2": "//www.select-shinsengumi.co.jp" }, "geometry": { "type": "Point", "coordinates": [ 133.997897700000067, 35.102303 ] } },
{ "type": "Feature", "properties": { "内容": "ライフエイド【特定福祉用具販売】岡山県津山市野介代975-7", "url": "https://www.kaigokensaku.mhlw.go.jp/33/index.php?action_kouhyou_detail_004_kani=true&JigyosyoCd=3370300547-00&ServiceCd=410&Type=search", "url2": null }, "geometry": { "type": "Point", "coordinates": [ 134.0319594, 35.0782958 ] } },
{ "type": "Feature", "properties": { "内容": "介護ショップ津山【特定福祉用具販売】岡山県津山市西吉田8-28", "url": "https://www.kaigokensaku.mhlw.go.jp/33/index.php?action_kouhyou_detail_004_kani=true&JigyosyoCd=3370300521-00&ServiceCd=410&Type=search", "url2": null }, "geometry": { "type": "Point", "coordinates": [ 134.0632263, 35.0465692 ] } },
{ "type": "Feature", "properties": { "内容": "株式会社フラット【特定福祉用具販売】岡山県津山市一宮３－１", "url": "https://www.kaigokensaku.mhlw.go.jp/33/index.php?action_kouhyou_detail_004_kani=true&JigyosyoCd=3370301792-00&ServiceCd=410&Type=search", "url2": null }, "geometry": { "type": "Point", "coordinates": [ 133.998853599999961, 35.0916404 ] } },
{ "type": "Feature", "properties": { "内容": "株式会社　津山医研【特定福祉用具販売】岡山県津山市山北636の2", "url": "https://www.kaigokensaku.mhlw.go.jp/33/index.php?action_kouhyou_detail_004_kani=true&JigyosyoCd=3370300190-00&ServiceCd=410&Type=search", "url2": null }, "geometry": { "type": "Point", "coordinates": [ 134.006578699999977, 35.0707793 ] } },
{ "type": "Feature", "properties": { "内容": "介護用品の店　四つ葉【特定福祉用具販売】二宮1940", "url": "https://www.kaigokensaku.mhlw.go.jp/33/index.php?action_kouhyou_detail_004_kani=true&JigyosyoCd=3370302337-00&ServiceCd=410&Type=search", "url2": null }, "geometry": { "type": "Point", "coordinates": [ 133.969885100000056, 35.0596988 ] } },
{ "type": "Feature", "properties": { "内容": "株式会社アシスト津山【特定福祉用具販売】岡山県津山市坪井町24番地", "url": "https://www.kaigokensaku.mhlw.go.jp/33/index.php?action_kouhyou_detail_004_kani=true&JigyosyoCd=3370301396-00&ServiceCd=410&Type=search", "url2": null }, "geometry": { "type": "Point", "coordinates": [ 133.995973995598462, 35.060732921432312 ] } },
{ "type": "Feature", "properties": { "内容": "株式会社ライフケア　津山支店【特定福祉用具販売】津山市押入503-1", "url": "https://www.kaigokensaku.mhlw.go.jp/33/index.php?action_kouhyou_detail_004_kani=true&JigyosyoCd=3370301644-00&ServiceCd=410&Type=search", "url2": "http://www.kawanishi-md.co.jp" }, "geometry": { "type": "Point", "coordinates": [ 134.051213599999983, 35.069278 ] } },
{ "type": "Feature", "properties": { "内容": "株式会社岡崎建材　エール！【特定福祉用具販売】岡山県玉野市玉6-18-7", "url": "https://www.kaigokensaku.mhlw.go.jp/33/index.php?action_kouhyou_detail_004_kani=true&JigyosyoCd=3370401550-00&ServiceCd=410&Type=search", "url2": "https://yell.okazaki-reform.com/" }, "geometry": { "type": "Point", "coordinates": [ 133.9279923, 34.4847244 ] } },
{ "type": "Feature", "properties": { "内容": "アミューズ富永　玉野福祉用具レンタル事業所【特定福祉用具販売】玉野市玉4丁目11-6", "url": "https://www.kaigokensaku.mhlw.go.jp/33/index.php?action_kouhyou_detail_004_kani=true&JigyosyoCd=3370401279-00&ServiceCd=410&Type=search", "url2": "http://www.kusuriya.jp/" }, "geometry": { "type": "Point", "coordinates": [ 133.93078790000007, 34.479946800000015 ] } },
{ "type": "Feature", "properties": { "内容": "角田医療器株式会社【特定福祉用具販売】岡山県笠岡市笠岡５８９１－１１", "url": "https://www.kaigokensaku.mhlw.go.jp/33/index.php?action_kouhyou_detail_004_kani=true&JigyosyoCd=3370500161-00&ServiceCd=410&Type=search", "url2": "http://kakuda-i.co.jp" }, "geometry": { "type": "Point", "coordinates": [ 133.495402799999965, 34.5061021 ] } },
{ "type": "Feature", "properties": { "内容": "こすもすめ～る芳井店【特定福祉用具販売】岡山県井原市芳井町簗瀬３２３番地", "url": "https://www.kaigokensaku.mhlw.go.jp/33/index.php?action_kouhyou_detail_004_kani=true&JigyosyoCd=3372900088-00&ServiceCd=410&Type=search", "url2": null }, "geometry": { "type": "Point", "coordinates": [ 133.436176599999953, 34.6196025 ] } },
{ "type": "Feature", "properties": { "内容": "株式会社第一ライフサービス【特定福祉用具販売】岡山県井原市高屋町247番地1", "url": "https://www.kaigokensaku.mhlw.go.jp/33/index.php?action_kouhyou_detail_004_kani=true&JigyosyoCd=3370700860-00&ServiceCd=410&Type=search", "url2": "https://www.ibara-1stclinic.jp/" }, "geometry": { "type": "Point", "coordinates": [ 133.426928189079604, 34.579855065203382 ] } },
{ "type": "Feature", "properties": { "内容": "ケアサークル井原企業組合【特定福祉用具販売】岡山県井原市井原町１２０５－１０", "url": "https://www.kaigokensaku.mhlw.go.jp/33/index.php?action_kouhyou_detail_004_kani=true&JigyosyoCd=3370700308-00&ServiceCd=410&Type=search", "url2": "http://www.cc-ibara.com" }, "geometry": { "type": "Point", "coordinates": [ 133.457906699999967, 34.6040682 ] } },
{ "type": "Feature", "properties": { "内容": "株式会社MIERU　高梁事業所【特定福祉用具販売】岡山県高梁市津川町八川12-1", "url": "https://www.kaigokensaku.mhlw.go.jp/33/index.php?action_kouhyou_detail_004_kani=true&JigyosyoCd=3370900700-00&ServiceCd=410&Type=search", "url2": null }, "geometry": { "type": "Point", "coordinates": [ 133.6313027, 34.8322095 ] } },
{ "type": "Feature", "properties": { "内容": "さくらメディカルサービス高梁営業所【特定福祉用具販売】岡山県高梁市落合町近似267-32", "url": "https://www.kaigokensaku.mhlw.go.jp/33/index.php?action_kouhyou_detail_004_kani=true&JigyosyoCd=3370900445-00&ServiceCd=410&Type=search", "url2": "http://www.sakurams.co.jp" }, "geometry": { "type": "Point", "coordinates": [ 133.609316700000022, 34.7887645 ] } },
{ "type": "Feature", "properties": { "内容": "介護ショップ　ハイビス【特定福祉用具販売】岡山県高梁市栄町1955-17", "url": "https://www.kaigokensaku.mhlw.go.jp/33/index.php?action_kouhyou_detail_004_kani=true&JigyosyoCd=3370900270-00&ServiceCd=410&Type=search", "url2": null }, "geometry": { "type": "Point", "coordinates": [ 133.615413200000035, 34.7907949 ] } },
{ "type": "Feature", "properties": { "内容": "介護・福祉用品の店　とも【特定福祉用具販売】岡山県新見市哲多町本郷801番地", "url": "https://www.kaigokensaku.mhlw.go.jp/33/index.php?action_kouhyou_detail_004_kani=true&JigyosyoCd=3371000534-00&ServiceCd=410&Type=search", "url2": "https://r.goope.jp/tomo24" }, "geometry": { "type": "Point", "coordinates": [ 133.450019122239269, 34.938106010786591 ] } },
{ "type": "Feature", "properties": { "内容": "さくらメディカルサービス新見営業所【特定福祉用具販売】岡山県新見市新見714-3", "url": "https://www.kaigokensaku.mhlw.go.jp/33/index.php?action_kouhyou_detail_004_kani=true&JigyosyoCd=3371000344-00&ServiceCd=410&Type=search", "url2": "http://www.sakurams.co.jp" }, "geometry": { "type": "Point", "coordinates": [ 133.471820100000059, 34.9798187 ] } },
{ "type": "Feature", "properties": { "内容": "福祉用具　コンフォールひなせ【特定福祉用具販売】岡山県備前市日生町日生2583-1", "url": "https://www.kaigokensaku.mhlw.go.jp/33/index.php?action_kouhyou_detail_004_kani=true&JigyosyoCd=3371100839-00&ServiceCd=410&Type=search", "url2": "http://www.confort-hinase.jp" }, "geometry": { "type": "Point", "coordinates": [ 134.2691455, 34.7226716 ] } },
{ "type": "Feature", "properties": { "内容": "川﨑商会　備前店【特定福祉用具販売】穂浪231-5", "url": "https://www.kaigokensaku.mhlw.go.jp/33/index.php?action_kouhyou_detail_004_kani=true&JigyosyoCd=3371100797-00&ServiceCd=410&Type=search", "url2": null }, "geometry": { "type": "Point", "coordinates": [ 134.22699278822023, 34.735577136848171 ] } },
{ "type": "Feature", "properties": { "内容": "福祉用具レンタル販売一路【特定福祉用具販売】岡山県瀬戸内市邑久町百田3-5", "url": "https://www.kaigokensaku.mhlw.go.jp/33/index.php?action_kouhyou_detail_004_kani=true&JigyosyoCd=3372401137-00&ServiceCd=410&Type=search", "url2": null }, "geometry": { "type": "Point", "coordinates": [ 134.082344299999988, 34.6687531 ] } },
{ "type": "Feature", "properties": { "内容": "山陽メディックホームヘルスケア事業部【特定福祉用具販売】岡山県瀬戸内市邑久町向山76", "url": "https://www.kaigokensaku.mhlw.go.jp/33/index.php?action_kouhyou_detail_004_kani=true&JigyosyoCd=3372400311-00&ServiceCd=410&Type=search", "url2": null }, "geometry": { "type": "Point", "coordinates": [ 134.07718890000001, 34.656654 ] } },
{ "type": "Feature", "properties": { "内容": "さくらメディカルサービス真庭営業所【特定福祉用具販売】岡山県真庭市中361-5", "url": "https://www.kaigokensaku.mhlw.go.jp/33/index.php?action_kouhyou_detail_004_kani=true&JigyosyoCd=3373401102-00&ServiceCd=410&Type=search", "url2": "http://www.sakurams.co.jp" }, "geometry": { "type": "Point", "coordinates": [ 133.751922199999967, 35.0575343 ] } },
{ "type": "Feature", "properties": { "内容": "有限会社　聖一級設計施工　ひじり介護福祉事業所【特定福祉用具販売】岡山県真庭市下市瀬１１１７番地の２", "url": "https://www.kaigokensaku.mhlw.go.jp/33/index.php?action_kouhyou_detail_004_kani=true&JigyosyoCd=3373400831-00&ServiceCd=410&Type=search", "url2": null }, "geometry": { "type": "Point", "coordinates": [ 133.749525799999986, 35.0256347 ] } },
{ "type": "Feature", "properties": { "内容": "有限会社ケアサポートふくしま【特定福祉用具販売】岡山県真庭市開田474番地", "url": "https://www.kaigokensaku.mhlw.go.jp/33/index.php?action_kouhyou_detail_004_kani=true&JigyosyoCd=3373400807-00&ServiceCd=410&Type=search", "url2": "cs.fukushima@d09.enjoy.ne.jp" }, "geometry": { "type": "Point", "coordinates": [ 133.753458599999931, 35.0463659 ] } },
{ "type": "Feature", "properties": { "内容": "有限会社キャリアネット本店営業所【特定福祉用具販売】岡山県和気郡和気町藤野1145-1", "url": "https://www.kaigokensaku.mhlw.go.jp/33/index.php?action_kouhyou_detail_004_kani=true&JigyosyoCd=3372300149-00&ServiceCd=410&Type=search", "url2": null }, "geometry": { "type": "Point", "coordinates": [ 134.172632, 34.818125 ] } },
{ "type": "Feature", "properties": { "内容": "有限会社　コスモクリエイト【特定福祉用具販売】岡山県苫田郡鏡野町古川154-3", "url": "https://www.kaigokensaku.mhlw.go.jp/33/index.php?action_kouhyou_detail_004_kani=true&JigyosyoCd=3370301198-00&ServiceCd=410&Type=search", "url2": null }, "geometry": { "type": "Point", "coordinates": [ 134.00519410000004, 35.1022366 ] } },
{ "type": "Feature", "properties": { "内容": "松尾設備工業株式会社【特定福祉用具販売】岡山県久米郡美咲町久木236-1", "url": "https://www.kaigokensaku.mhlw.go.jp/33/index.php?action_kouhyou_detail_004_kani=true&JigyosyoCd=3373800626-00&ServiceCd=410&Type=search", "url2": "https://matsuosetsubi.co.jp" }, "geometry": { "type": "Point", "coordinates": [ 134.057982411051711, 34.952008796004989 ] } }
]
}
