{
"type": "FeatureCollection",
"name": "geo_33_特定施設入居者生活介護（有料老人ホーム）",
"crs": { "type": "name", "properties": { "name": "urn:ogc:def:crs:OGC:1.3:CRS84" } },
"features": [
{ "type": "Feature", "properties": { "内容": "介護付有料老人ホーム　それいゆ【特定施設入居者生活介護（有料老人ホーム）】岡山県岡山市北区高柳西町16-10", "url": "https://www.kaigokensaku.mhlw.go.jp/33/index.php?action_kouhyou_detail_004_kani=true&JigyosyoCd=3370108288-00&ServiceCd=331&Type=search", "url2": "http://www.soreiyu-okayama.jp" }, "geometry": { "type": "Point", "coordinates": [ 133.898257, 34.6615136 ] } },
{ "type": "Feature", "properties": { "内容": "メディカルホームまどか大元【特定施設入居者生活介護（有料老人ホーム）】岡山県岡山市北区今二丁目4番5号", "url": "https://www.kaigokensaku.mhlw.go.jp/33/index.php?action_kouhyou_detail_004_kani=true&JigyosyoCd=3370103693-00&ServiceCd=331&Type=search", "url2": "http://www.benesse-style-care.co.jp/" }, "geometry": { "type": "Point", "coordinates": [ 133.8976103, 34.6486485 ] } },
{ "type": "Feature", "properties": { "内容": "そんぽの家津高【特定施設入居者生活介護（有料老人ホーム）】岡山県岡山市北区富原3663-1", "url": "https://www.kaigokensaku.mhlw.go.jp/33/index.php?action_kouhyou_detail_004_kani=true&JigyosyoCd=3370105326-00&ServiceCd=331&Type=search", "url2": "https://www.sompocare.com/" }, "geometry": { "type": "Point", "coordinates": [ 133.898616100000027, 34.704128 ] } },
{ "type": "Feature", "properties": { "内容": "ケアポート生き活き館岡山【特定施設入居者生活介護（有料老人ホーム）】岡山県岡山市北区春日町９－３", "url": "https://www.kaigokensaku.mhlw.go.jp/33/index.php?action_kouhyou_detail_004_kani=true&JigyosyoCd=3370105748-00&ServiceCd=331&Type=search", "url2": "http://kokoro-net.org" }, "geometry": { "type": "Point", "coordinates": [ 133.920460100000014, 34.6537485 ] } },
{ "type": "Feature", "properties": { "内容": "介護付有料老人ホーム　エルム撫川【特定施設入居者生活介護（有料老人ホーム）】岡山県岡山市北区撫川８２８番３号", "url": "https://www.kaigokensaku.mhlw.go.jp/33/index.php?action_kouhyou_detail_004_kani=true&JigyosyoCd=3370108155-00&ServiceCd=331&Type=search", "url2": "http://www.life-create.org" }, "geometry": { "type": "Point", "coordinates": [ 133.841665499999976, 34.63816140000003 ] } },
{ "type": "Feature", "properties": { "内容": "まどか西川緑道公園【特定施設入居者生活介護（有料老人ホーム）】岡山県岡山市北区幸町10番5号", "url": "https://www.kaigokensaku.mhlw.go.jp/33/index.php?action_kouhyou_detail_004_kani=true&JigyosyoCd=3370108700-00&ServiceCd=331&Type=search", "url2": "http://www.benesse-style-care.co.jp/" }, "geometry": { "type": "Point", "coordinates": [ 133.92100430000005, 34.6610671 ] } },
{ "type": "Feature", "properties": { "内容": "介護付有料老人ホーム　アートライフあしもり【特定施設入居者生活介護（有料老人ホーム）】岡山県岡山市北区下足守1911番地の1", "url": "https://www.kaigokensaku.mhlw.go.jp/33/index.php?action_kouhyou_detail_004_kani=true&JigyosyoCd=3370108718-00&ServiceCd=331&Type=search", "url2": "http://kariyushi-yu.jp/" }, "geometry": { "type": "Point", "coordinates": [ 133.80278629999998, 34.7174896 ] } },
{ "type": "Feature", "properties": { "内容": "介護付有料老人ホームさわらびの家【特定施設入居者生活介護（有料老人ホーム）】岡山県岡山市北区平野１００３－４", "url": "https://www.kaigokensaku.mhlw.go.jp/33/index.php?action_kouhyou_detail_004_kani=true&JigyosyoCd=3370109096-00&ServiceCd=331&Type=search", "url2": "https://www.fukujukai-gp.com" }, "geometry": { "type": "Point", "coordinates": [ 133.857272800000032, 34.647594 ] } },
{ "type": "Feature", "properties": { "内容": "ももたろうアシスティッドホームつしまヒルズ【特定施設入居者生活介護（有料老人ホーム）】岡山県岡山市北区津島本町18-30", "url": "https://www.kaigokensaku.mhlw.go.jp/33/index.php?action_kouhyou_detail_004_kani=true&JigyosyoCd=3370109187-00&ServiceCd=331&Type=search", "url2": "https://momotarogroup.com" }, "geometry": { "type": "Point", "coordinates": [ 133.910304499999938, 34.6907493 ] } },
{ "type": "Feature", "properties": { "内容": "介護付有料老人ホーム　エルダーホーム御野【特定施設入居者生活介護（有料老人ホーム）】岡山県岡山市北区宿４３７－３", "url": "https://www.kaigokensaku.mhlw.go.jp/33/index.php?action_kouhyou_detail_004_kani=true&JigyosyoCd=3370110235-00&ServiceCd=331&Type=search", "url2": "http://www.takufukai-group.or.jp/" }, "geometry": { "type": "Point", "coordinates": [ 133.9416129, 34.6988633 ] } },
{ "type": "Feature", "properties": { "内容": "有料老人ホーム　なごみ苑【特定施設入居者生活介護（有料老人ホーム）】岡山市北区国体町3－12", "url": "https://www.kaigokensaku.mhlw.go.jp/33/index.php?action_kouhyou_detail_004_kani=true&JigyosyoCd=3370110243-00&ServiceCd=331&Type=search", "url2": "http://www.okasaisei-life.jp/" }, "geometry": { "type": "Point", "coordinates": [ 133.920442900000012, 34.6734989 ] } },
{ "type": "Feature", "properties": { "内容": "そんぽの家　岡山平田【特定施設入居者生活介護（有料老人ホーム）】岡山市北区平田401-1", "url": "https://www.kaigokensaku.mhlw.go.jp/33/index.php?action_kouhyou_detail_004_kani=true&JigyosyoCd=3370111753-00&ServiceCd=331&Type=search", "url2": "https://www.sompocare.com" }, "geometry": { "type": "Point", "coordinates": [ 133.887580564592668, 34.631021301026166 ] } },
{ "type": "Feature", "properties": { "内容": "そんぽの家下中野【特定施設入居者生活介護（有料老人ホーム）】岡山県岡山市北区下中野1228-5", "url": "https://www.kaigokensaku.mhlw.go.jp/33/index.php?action_kouhyou_detail_004_kani=true&JigyosyoCd=3370104360-00&ServiceCd=331&Type=search", "url2": "http://www.sompocare.com" }, "geometry": { "type": "Point", "coordinates": [ 133.895388700000012, 34.6349806 ] } },
{ "type": "Feature", "properties": { "内容": "そんぽの家　西岡山【特定施設入居者生活介護（有料老人ホーム）】岡山県岡山市北区中仙道2丁目3番2号", "url": "https://www.kaigokensaku.mhlw.go.jp/33/index.php?action_kouhyou_detail_004_kani=true&JigyosyoCd=3370105128-00&ServiceCd=331&Type=search", "url2": "http://www.sompocare-message.jp/" }, "geometry": { "type": "Point", "coordinates": [ 133.886200499999973, 34.6476649 ] } },
{ "type": "Feature", "properties": { "内容": "介護付有料老人ホーム　愛ファミリー天瀬【特定施設入居者生活介護（有料老人ホーム）】岡山県岡山市北区京橋南町5-28", "url": "https://www.kaigokensaku.mhlw.go.jp/33/index.php?action_kouhyou_detail_004_kani=true&JigyosyoCd=3370107314-00&ServiceCd=331&Type=search", "url2": "http://www.ilief.jp/" }, "geometry": { "type": "Point", "coordinates": [ 133.930189599999949, 34.6547377 ] } },
{ "type": "Feature", "properties": { "内容": "サンクチュアリーリバー【特定施設入居者生活介護（有料老人ホーム）】岡山県岡山市北区兵団３番３２号", "url": "https://www.kaigokensaku.mhlw.go.jp/33/index.php?action_kouhyou_detail_004_kani=true&JigyosyoCd=3370113288-00&ServiceCd=331&Type=search", "url2": "http://www.spiralring.jp/sanctuary-river" }, "geometry": { "type": "Point", "coordinates": [ 133.930897400000049, 34.6753215 ] } },
{ "type": "Feature", "properties": { "内容": "そんぽの家　岡山平井【特定施設入居者生活介護（有料老人ホーム）】岡山県岡山市中区平井3-1066-2", "url": "https://www.kaigokensaku.mhlw.go.jp/33/index.php?action_kouhyou_detail_004_kani=true&JigyosyoCd=3370104204-00&ServiceCd=331&Type=search", "url2": "http://www.sompocare.com" }, "geometry": { "type": "Point", "coordinates": [ 134.012273, 34.657462 ] } },
{ "type": "Feature", "properties": { "内容": "そんぽの家東岡山【特定施設入居者生活介護（有料老人ホーム）】岡山県岡山市中区兼基253-3", "url": "https://www.kaigokensaku.mhlw.go.jp/33/index.php?action_kouhyou_detail_004_kani=true&JigyosyoCd=3370104618-00&ServiceCd=331&Type=search", "url2": "http://www.sompocare.com" }, "geometry": { "type": "Point", "coordinates": [ 133.974962399999981, 34.6736398 ] } },
{ "type": "Feature", "properties": { "内容": "エルダーホーム高島【特定施設入居者生活介護（有料老人ホーム）】岡山県岡山市中区高島新屋敷395-1", "url": "https://www.kaigokensaku.mhlw.go.jp/33/index.php?action_kouhyou_detail_004_kani=true&JigyosyoCd=3370107132-00&ServiceCd=331&Type=search", "url2": "http://www.takufukai-group.or.jp" }, "geometry": { "type": "Point", "coordinates": [ 133.951215100000013, 34.6851406 ] } },
{ "type": "Feature", "properties": { "内容": "ラ・ナシカ　くにとみ【特定施設入居者生活介護（有料老人ホーム）】岡山県岡山市中区国富四丁目５番12号", "url": "https://www.kaigokensaku.mhlw.go.jp/33/index.php?action_kouhyou_detail_004_kani=true&JigyosyoCd=3370108510-00&ServiceCd=331&Type=search", "url2": "http://www.cedar-group.co.jp" }, "geometry": { "type": "Point", "coordinates": [ 133.948343199999954, 34.6682373 ] } },
{ "type": "Feature", "properties": { "内容": "介護付有料老人ホーム　サン・オークス岡山【特定施設入居者生活介護（有料老人ホーム）】岡山県岡山市中区森下町5番5号", "url": "https://www.kaigokensaku.mhlw.go.jp/33/index.php?action_kouhyou_detail_004_kani=true&JigyosyoCd=3370110755-00&ServiceCd=331&Type=search", "url2": "http://www.ryobi-hc.jp" }, "geometry": { "type": "Point", "coordinates": [ 133.942024400000037, 34.6626125 ] } },
{ "type": "Feature", "properties": { "内容": "介護付き有料老人ホーム平井げんき【特定施設入居者生活介護（有料老人ホーム）】岡山県岡山市中区平井１２６０－１", "url": "https://www.kaigokensaku.mhlw.go.jp/33/index.php?action_kouhyou_detail_004_kani=true&JigyosyoCd=3370110763-00&ServiceCd=331&Type=search", "url2": "http://okayama-kotobuki.sakura.ne.jp/" }, "geometry": { "type": "Point", "coordinates": [ 133.9524768, 34.6268083 ] } },
{ "type": "Feature", "properties": { "内容": "ベストライフ岡山【特定施設入居者生活介護（有料老人ホーム）】岡山県岡山市中区浜3-10-10", "url": "https://www.kaigokensaku.mhlw.go.jp/33/index.php?action_kouhyou_detail_004_kani=true&JigyosyoCd=3370116000-00&ServiceCd=331&Type=search", "url2": null }, "geometry": { "type": "Point", "coordinates": [ 133.9437268, 34.6685973 ] } },
{ "type": "Feature", "properties": { "内容": "介護付有料老人ホームゆばの郷【特定施設入居者生活介護（有料老人ホーム）】岡山県岡山市中区湯迫233", "url": "https://www.kaigokensaku.mhlw.go.jp/33/index.php?action_kouhyou_detail_004_kani=true&JigyosyoCd=3370109088-00&ServiceCd=331&Type=search", "url2": "https：//yubanosato.com/" }, "geometry": { "type": "Point", "coordinates": [ 133.974865200000067, 34.6954147 ] } },
{ "type": "Feature", "properties": { "内容": "有料老人ホーム　モア・ライフ【特定施設入居者生活介護（有料老人ホーム）】岡山県岡山市東区西大寺南２-１-７社会医療法人岡村一心堂病院内D棟", "url": "https://www.kaigokensaku.mhlw.go.jp/33/index.php?action_kouhyou_detail_004_kani=true&JigyosyoCd=3370106910-00&ServiceCd=331&Type=search", "url2": "http://www.morelife1.co.jp" }, "geometry": { "type": "Point", "coordinates": [ 134.032351699999936, 34.6523072 ] } },
{ "type": "Feature", "properties": { "内容": "有料老人ホームシェスタハモニカ【特定施設入居者生活介護（有料老人ホーム）】岡山県岡山市東区浅川５２０－３２", "url": "https://www.kaigokensaku.mhlw.go.jp/33/index.php?action_kouhyou_detail_004_kani=true&JigyosyoCd=3370107405-00&ServiceCd=331&Type=search", "url2": "http://www.hamonika.com" }, "geometry": { "type": "Point", "coordinates": [ 134.070039100000031, 34.7095826 ] } },
{ "type": "Feature", "properties": { "内容": "結びの杜ホーム【特定施設入居者生活介護（有料老人ホーム）】岡山県岡山市東区西大寺浜４４８", "url": "https://www.kaigokensaku.mhlw.go.jp/33/index.php?action_kouhyou_detail_004_kani=true&JigyosyoCd=3370108825-00&ServiceCd=331&Type=search", "url2": "http://asahigawasou.or.jp/musubi-home/index01.html" }, "geometry": { "type": "Point", "coordinates": [ 134.044208799999979, 34.6472464 ] } },
{ "type": "Feature", "properties": { "内容": "有料老人ホームやよいのもり【特定施設入居者生活介護（有料老人ホーム）】岡山県岡山市東区中尾1036番地", "url": "https://www.kaigokensaku.mhlw.go.jp/33/index.php?action_kouhyou_detail_004_kani=true&JigyosyoCd=3370110169-00&ServiceCd=331&Type=search", "url2": "http://dainimakotokai.com/" }, "geometry": { "type": "Point", "coordinates": [ 134.021793800000069, 34.70766 ] } },
{ "type": "Feature", "properties": { "内容": "介護付有料老人ホーム麻姑の離宮西大寺【特定施設入居者生活介護（有料老人ホーム）】岡山県岡山市東区久保144番地1", "url": "https://www.kaigokensaku.mhlw.go.jp/33/index.php?action_kouhyou_detail_004_kani=true&JigyosyoCd=3370111241-00&ServiceCd=331&Type=search", "url2": "www.maco.co.jp" }, "geometry": { "type": "Point", "coordinates": [ 134.045385330688447, 34.660868224818479 ] } },
{ "type": "Feature", "properties": { "内容": "介護付有料老人ホーム敬愛西大寺【特定施設入居者生活介護（有料老人ホーム）】岡山県岡山市東区西大寺東三丁目6番26号", "url": "https://www.kaigokensaku.mhlw.go.jp/33/index.php?action_kouhyou_detail_004_kani=true&JigyosyoCd=3370108528-00&ServiceCd=331&Type=search", "url2": "http://keiaigroup.com/" }, "geometry": { "type": "Point", "coordinates": [ 134.0481833, 34.6605033 ] } },
{ "type": "Feature", "properties": { "内容": "あいらの杜　新保【特定施設入居者生活介護（有料老人ホーム）】岡山県岡山市南区新保1315-3", "url": "https://www.kaigokensaku.mhlw.go.jp/33/index.php?action_kouhyou_detail_004_kani=true&JigyosyoCd=3370108262-00&ServiceCd=331&Type=search", "url2": "http:www.halenosumai.jp/" }, "geometry": { "type": "Point", "coordinates": [ 133.908181600000034, 34.6351976 ] } },
{ "type": "Feature", "properties": { "内容": "SOMPOケア　そんぽの家　南岡山【特定施設入居者生活介護（有料老人ホーム）】岡山県岡山市南区東畦770-7", "url": "https://www.kaigokensaku.mhlw.go.jp/33/index.php?action_kouhyou_detail_004_kani=true&JigyosyoCd=3370105631-00&ServiceCd=331&Type=search", "url2": "https://www.sompocare.com" }, "geometry": { "type": "Point", "coordinates": [ 133.882014900000058, 34.6038923 ] } },
{ "type": "Feature", "properties": { "内容": "介護付有料老人ホーム　シルバーピアーズ共生【特定施設入居者生活介護（有料老人ホーム）】岡山県岡山市南区福田1021-6", "url": "https://www.kaigokensaku.mhlw.go.jp/33/index.php?action_kouhyou_detail_004_kani=true&JigyosyoCd=3370108056-00&ServiceCd=331&Type=search", "url2": "http://www.peers-group.co.jp" }, "geometry": { "type": "Point", "coordinates": [ 133.9287544, 34.6143591 ] } },
{ "type": "Feature", "properties": { "内容": "介護付有料老人ホーム　ヴィヴァーチェヴィータひかりの里【特定施設入居者生活介護（有料老人ホーム）】岡山県岡山市南区中畦187-8", "url": "https://www.kaigokensaku.mhlw.go.jp/33/index.php?action_kouhyou_detail_004_kani=true&JigyosyoCd=3370108270-00&ServiceCd=331&Type=search", "url2": "http//www.hikarinosato-okayama.com" }, "geometry": { "type": "Point", "coordinates": [ 133.849576, 34.5866956 ] } },
{ "type": "Feature", "properties": { "内容": "あいらの杜・福吉【特定施設入居者生活介護（有料老人ホーム）】岡山県岡山市南区福吉町13-12", "url": "https://www.kaigokensaku.mhlw.go.jp/33/index.php?action_kouhyou_detail_004_kani=true&JigyosyoCd=3370107694-00&ServiceCd=331&Type=search", "url2": "http://www.halenosumai.jp/" }, "geometry": { "type": "Point", "coordinates": [ 133.950436099999934, 34.6119072 ] } },
{ "type": "Feature", "properties": { "内容": "介護付有料老人ホーム敬愛福田【特定施設入居者生活介護（有料老人ホーム）】岡山県岡山市南区福田４８１－１", "url": "https://www.kaigokensaku.mhlw.go.jp/33/index.php?action_kouhyou_detail_004_kani=true&JigyosyoCd=3370109237-00&ServiceCd=331&Type=search", "url2": "http://keiaigroup.com/" }, "geometry": { "type": "Point", "coordinates": [ 133.921546600000056, 34.6182501 ] } },
{ "type": "Feature", "properties": { "内容": "コミュニティホーム　そんぽの家中庄【特定施設入居者生活介護（有料老人ホーム）】岡山県倉敷市平田９２３－１", "url": "https://www.kaigokensaku.mhlw.go.jp/33/index.php?action_kouhyou_detail_004_kani=true&JigyosyoCd=3370202511-00&ServiceCd=331&Type=search", "url2": "https://www.sompocare.com/" }, "geometry": { "type": "Point", "coordinates": [ 133.784355099999971, 34.6148857 ] } },
{ "type": "Feature", "properties": { "内容": "そんぽの家浜の茶屋【特定施設入居者生活介護（有料老人ホーム）】岡山県倉敷市平田272番地1", "url": "https://www.kaigokensaku.mhlw.go.jp/33/index.php?action_kouhyou_detail_004_kani=true&JigyosyoCd=3370205902-00&ServiceCd=331&Type=search", "url2": "http://www.sompocare.com" }, "geometry": { "type": "Point", "coordinates": [ 133.775955599999946, 34.6154829 ] } },
{ "type": "Feature", "properties": { "内容": "そんぽの家倉敷西【特定施設入居者生活介護（有料老人ホーム）】岡山県倉敷市中島1216-1", "url": "https://www.kaigokensaku.mhlw.go.jp/33/index.php?action_kouhyou_detail_004_kani=true&JigyosyoCd=3370202131-00&ServiceCd=331&Type=search", "url2": "https://www.sompocare.com/" }, "geometry": { "type": "Point", "coordinates": [ 133.731851869164416, 34.58179299911405 ] } },
{ "type": "Feature", "properties": { "内容": "そんぽの家　倉敷【特定施設入居者生活介護（有料老人ホーム）】岡山県倉敷市笹沖３４１－４", "url": "https://www.kaigokensaku.mhlw.go.jp/33/index.php?action_kouhyou_detail_004_kani=true&JigyosyoCd=3370203550-00&ServiceCd=331&Type=search", "url2": "www.sompocare.com/service/home/kaigo" }, "geometry": { "type": "Point", "coordinates": [ 133.766954199999986, 34.5728895 ] } },
{ "type": "Feature", "properties": { "内容": "介護付有料老人ホーム　ドルフィン玉島【特定施設入居者生活介護（有料老人ホーム）】岡山県倉敷市玉島爪崎987-1", "url": "https://www.kaigokensaku.mhlw.go.jp/33/index.php?action_kouhyou_detail_004_kani=true&JigyosyoCd=3370204756-00&ServiceCd=331&Type=search", "url2": "http://www.dolphinaid.jp/html/tamashima.html" }, "geometry": { "type": "Point", "coordinates": [ 133.68389860000002, 34.5602573 ] } },
{ "type": "Feature", "properties": { "内容": "介護付有料老人ホーム　ドルフィン倉敷【特定施設入居者生活介護（有料老人ホーム）】岡山県倉敷市西中新田592-1ドルフィン倉敷", "url": "https://www.kaigokensaku.mhlw.go.jp/33/index.php?action_kouhyou_detail_004_kani=true&JigyosyoCd=3370207668-00&ServiceCd=331&Type=search", "url2": null }, "geometry": { "type": "Point", "coordinates": [ 133.767884340467049, 34.585206926233205 ] } },
{ "type": "Feature", "properties": { "内容": "介護付有料老人ホーム恵風【特定施設入居者生活介護（有料老人ホーム）】岡山県倉敷市茶屋町早沖426番地", "url": "https://www.kaigokensaku.mhlw.go.jp/33/index.php?action_kouhyou_detail_004_kani=true&JigyosyoCd=3370207981-00&ServiceCd=331&Type=search", "url2": "http//www.fukujyu.or.jp" }, "geometry": { "type": "Point", "coordinates": [ 133.827810600000021, 34.5841452 ] } },
{ "type": "Feature", "properties": { "内容": "オーシャンビュー鷲羽【特定施設入居者生活介護（有料老人ホーム）】岡山県倉敷市児島田の口5丁目１３－２８オーシャンビュー鷲羽", "url": "https://www.kaigokensaku.mhlw.go.jp/33/index.php?action_kouhyou_detail_004_kani=true&JigyosyoCd=3370203816-00&ServiceCd=331&Type=search", "url2": "http://kiryukai.com" }, "geometry": { "type": "Point", "coordinates": [ 133.851647400000047, 34.4703002 ] } },
{ "type": "Feature", "properties": { "内容": "ツクイ・サンシャイン新倉敷【特定施設入居者生活介護（有料老人ホーム）】新倉敷駅前三丁目171番", "url": "https://www.kaigokensaku.mhlw.go.jp/33/index.php?action_kouhyou_detail_004_kani=true&JigyosyoCd=3370208955-00&ServiceCd=331&Type=search", "url2": "https://www.tsukui.net/" }, "geometry": { "type": "Point", "coordinates": [ 133.6840507, 34.5627402 ] } },
{ "type": "Feature", "properties": { "内容": "有料老人ホーム　せいわ【特定施設入居者生活介護（有料老人ホーム）】岡山県倉敷市中島770-1", "url": "https://www.kaigokensaku.mhlw.go.jp/33/index.php?action_kouhyou_detail_004_kani=true&JigyosyoCd=3370205209-00&ServiceCd=331&Type=search", "url2": "http://www.seiwakai-net.or.jp" }, "geometry": { "type": "Point", "coordinates": [ 133.73968688172306, 34.579922863658311 ] } },
{ "type": "Feature", "properties": { "内容": "介護付有料老人ホーム　ニューエルダー【特定施設入居者生活介護（有料老人ホーム）】倉敷市玉島１６６１－７", "url": "https://www.kaigokensaku.mhlw.go.jp/33/index.php?action_kouhyou_detail_004_kani=true&JigyosyoCd=3370206215-00&ServiceCd=331&Type=search", "url2": "http://www.newelder.jp/" }, "geometry": { "type": "Point", "coordinates": [ 133.683118199999967, 34.5524774 ] } },
{ "type": "Feature", "properties": { "内容": "介護付有料老人ホームみどりの郷神田【特定施設入居者生活介護（有料老人ホーム）】倉敷市神田2丁目2番8号かんだ総合福祉センター", "url": "https://www.kaigokensaku.mhlw.go.jp/33/index.php?action_kouhyou_detail_004_kani=true&JigyosyoCd=3370206710-00&ServiceCd=331&Type=search", "url2": "http://suiseikai-grop.jp/kunpukai/" }, "geometry": { "type": "Point", "coordinates": [ 133.737745050926151, 34.540474753955635 ] } },
{ "type": "Feature", "properties": { "内容": "オーシャンビュー倉敷【特定施設入居者生活介護（有料老人ホーム）】岡山県倉敷市児島下の町9丁目17-17", "url": "https://www.kaigokensaku.mhlw.go.jp/33/index.php?action_kouhyou_detail_004_kani=true&JigyosyoCd=3370204707-00&ServiceCd=331&Type=search", "url2": "https://kiryukai.com/group/facility/ov_kurashiki/" }, "geometry": { "type": "Point", "coordinates": [ 133.833431900000051, 34.471175 ] } },
{ "type": "Feature", "properties": { "内容": "介護付有料老人ホームさんらいふ【特定施設入居者生活介護（有料老人ホーム）】岡山県県倉敷市下庄６２７番地１", "url": "https://www.kaigokensaku.mhlw.go.jp/33/index.php?action_kouhyou_detail_004_kani=true&JigyosyoCd=3370208450-00&ServiceCd=331&Type=search", "url2": "https://suiseikai-group.jp/heiseikai/" }, "geometry": { "type": "Point", "coordinates": [ 133.827903800000058, 34.637436800000032 ] } },
{ "type": "Feature", "properties": { "内容": "介護付き有料老人ホームたましま【特定施設入居者生活介護（有料老人ホーム）】岡山県倉敷市玉島乙島４０２８", "url": "https://www.kaigokensaku.mhlw.go.jp/33/index.php?action_kouhyou_detail_004_kani=true&JigyosyoCd=3370206249-00&ServiceCd=331&Type=search", "url2": "http://www.tamashimahosp.or.jp" }, "geometry": { "type": "Point", "coordinates": [ 133.672064, 34.5346847 ] } },
{ "type": "Feature", "properties": { "内容": "介護付有料老人ホーム　ヴィラ・プランタンせとうち【特定施設入居者生活介護（有料老人ホーム）】岡山県倉敷市下津井４丁目１番１２号", "url": "https://www.kaigokensaku.mhlw.go.jp/33/index.php?action_kouhyou_detail_004_kani=true&JigyosyoCd=3370205597-00&ServiceCd=331&Type=search", "url2": "https://www.vp-setouchi.com" }, "geometry": { "type": "Point", "coordinates": [ 133.790911300000062, 34.438328 ] } },
{ "type": "Feature", "properties": { "内容": "介護付有料老人ホームみどりの郷東塚【特定施設入居者生活介護（有料老人ホーム）】東塚1丁目12番21号", "url": "https://www.kaigokensaku.mhlw.go.jp/33/index.php?action_kouhyou_detail_004_kani=true&JigyosyoCd=3370209383-00&ServiceCd=331&Type=search", "url2": "http://kunpoo.jp" }, "geometry": { "type": "Point", "coordinates": [ 133.761068249737576, 34.524457175263024 ] } },
{ "type": "Feature", "properties": { "内容": "介護付有料老人ホーム　松平【特定施設入居者生活介護（有料老人ホーム）】岡山県倉敷市水江868-1", "url": "https://www.kaigokensaku.mhlw.go.jp/33/index.php?action_kouhyou_detail_004_kani=true&JigyosyoCd=3370207262-00&ServiceCd=331&Type=search", "url2": "http://www.newelder.jp/newelder/service/nyuusho/matsuhira/matsuhira.html" }, "geometry": { "type": "Point", "coordinates": [ 133.740972100000022, 34.6005453 ] } },
{ "type": "Feature", "properties": { "内容": "ラ・ナシカ　くらしき【特定施設入居者生活介護（有料老人ホーム）】岡山県倉敷市青江７２５－１", "url": "https://www.kaigokensaku.mhlw.go.jp/33/index.php?action_kouhyou_detail_004_kani=true&JigyosyoCd=3370204764-00&ServiceCd=331&Type=search", "url2": "http://www.cedar-web.com" }, "geometry": { "type": "Point", "coordinates": [ 133.758659399999942, 34.6111888 ] } },
{ "type": "Feature", "properties": { "内容": "介護付有料老人ホームみどりの郷西之浦【特定施設入居者生活介護（有料老人ホーム）】岡山県倉敷市連島町西之浦805-2", "url": "https://www.kaigokensaku.mhlw.go.jp/33/index.php?action_kouhyou_detail_004_kani=true&JigyosyoCd=3370208203-00&ServiceCd=331&Type=search", "url2": "http://suiseikai-group.jp/kunpukai/" }, "geometry": { "type": "Point", "coordinates": [ 133.707169300000032, 34.548357 ] } },
{ "type": "Feature", "properties": { "内容": "両備ヘルシーケア玉島柏島【特定施設入居者生活介護（有料老人ホーム）】岡山県倉敷市玉島柏島6880番", "url": "https://www.kaigokensaku.mhlw.go.jp/33/index.php?action_kouhyou_detail_004_kani=true&JigyosyoCd=3370208252-00&ServiceCd=331&Type=search", "url2": "http://www.ryobi-hc.jp" }, "geometry": { "type": "Point", "coordinates": [ 133.661120698811374, 34.523126890714217 ] } },
{ "type": "Feature", "properties": { "内容": "両備ヘルシーケア浜町【特定施設入居者生活介護（有料老人ホーム）】岡山県倉敷市浜町1丁目1番23号", "url": "https://www.kaigokensaku.mhlw.go.jp/33/index.php?action_kouhyou_detail_004_kani=true&JigyosyoCd=3370207197-00&ServiceCd=331&Type=search", "url2": "http://www.ryobi-hc.jp/" }, "geometry": { "type": "Point", "coordinates": [ 133.769929517196744, 34.605866201351702 ] } },
{ "type": "Feature", "properties": { "内容": "サン・オークス倉敷【特定施設入居者生活介護（有料老人ホーム）】岡山県倉敷市大島526-1サン・オークス倉敷", "url": "https://www.kaigokensaku.mhlw.go.jp/33/index.php?action_kouhyou_detail_004_kani=true&JigyosyoCd=3370201810-00&ServiceCd=331&Type=search", "url2": "http://ryobi-hc.jp/so_kurashiki/so_kurashiki.html" }, "geometry": { "type": "Point", "coordinates": [ 133.775744499999973, 34.6068392 ] } },
{ "type": "Feature", "properties": { "内容": "介護付有料老人ホ－ムみどりの郷水島【特定施設入居者生活介護（有料老人ホーム）】倉敷市水島北幸町4番5号", "url": "https://www.kaigokensaku.mhlw.go.jp/33/index.php?action_kouhyou_detail_004_kani=true&JigyosyoCd=3370205811-00&ServiceCd=331&Type=search", "url2": "https://suiseikai-group.jp/kunpukai/" }, "geometry": { "type": "Point", "coordinates": [ 133.73960169999998, 34.5412761 ] } },
{ "type": "Feature", "properties": { "内容": "まいらいふ倉敷沖新館【特定施設入居者生活介護（有料老人ホーム）】岡山県倉敷市沖新町48番地16", "url": "https://www.kaigokensaku.mhlw.go.jp/33/index.php?action_kouhyou_detail_004_kani=true&JigyosyoCd=3370205779-00&ServiceCd=331&Type=search", "url2": "http://www.mylife-k.com" }, "geometry": { "type": "Point", "coordinates": [ 133.753474200000028, 34.5838996 ] } },
{ "type": "Feature", "properties": { "内容": "まいらいふ倉敷【特定施設入居者生活介護（有料老人ホーム）】岡山県倉敷市白楽町６１番地", "url": "https://www.kaigokensaku.mhlw.go.jp/33/index.php?action_kouhyou_detail_004_kani=true&JigyosyoCd=3370204392-00&ServiceCd=331&Type=search", "url2": "http://www.mylife-k.com/" }, "geometry": { "type": "Point", "coordinates": [ 133.762773399999986, 34.5908962 ] } },
{ "type": "Feature", "properties": { "内容": "介護付有料老人ホーム　結幸園【特定施設入居者生活介護（有料老人ホーム）】岡山県倉敷市宮前４３－１", "url": "https://www.kaigokensaku.mhlw.go.jp/33/index.php?action_kouhyou_detail_004_kani=true&JigyosyoCd=3370204491-00&ServiceCd=331&Type=search", "url2": "http://www.yukoen.co.jp" }, "geometry": { "type": "Point", "coordinates": [ 133.76217873372957, 34.6111178409326 ] } },
{ "type": "Feature", "properties": { "内容": "介護付き有料老人ホーム　太陽【特定施設入居者生活介護（有料老人ホーム）】岡山県倉敷市茶屋町695-6", "url": "https://www.kaigokensaku.mhlw.go.jp/33/index.php?action_kouhyou_detail_004_kani=true&JigyosyoCd=3370204426-00&ServiceCd=331&Type=search", "url2": "http://okayama-taiyo.jp" }, "geometry": { "type": "Point", "coordinates": [ 133.82995, 34.5759849 ] } },
{ "type": "Feature", "properties": { "内容": "有料老人ホーム　白梅寮【特定施設入居者生活介護（有料老人ホーム）】岡山県津山市瓜生原５３５－２", "url": "https://www.kaigokensaku.mhlw.go.jp/33/index.php?action_kouhyou_detail_004_kani=true&JigyosyoCd=3370300539-00&ServiceCd=331&Type=search", "url2": "https://www.uguisuen.jp" }, "geometry": { "type": "Point", "coordinates": [ 134.039451399999962, 35.0343447 ] } },
{ "type": "Feature", "properties": { "内容": "サン・オークス津山【特定施設入居者生活介護（有料老人ホーム）】津山市紫保井1463-1", "url": "https://www.kaigokensaku.mhlw.go.jp/33/index.php?action_kouhyou_detail_004_kani=true&JigyosyoCd=3370301610-00&ServiceCd=331&Type=search", "url2": "http://www.ryobi-hc.jp/" }, "geometry": { "type": "Point", "coordinates": [ 134.012488500000018, 35.0847917 ] } },
{ "type": "Feature", "properties": { "内容": "ユウユウハウス下横野【特定施設入居者生活介護（有料老人ホーム）】岡山県津山市下横野2604-2", "url": "https://www.kaigokensaku.mhlw.go.jp/33/index.php?action_kouhyou_detail_004_kani=true&JigyosyoCd=3370301305-00&ServiceCd=331&Type=search", "url2": "http://yuuyuu-house.com" }, "geometry": { "type": "Point", "coordinates": [ 134.015253900000062, 35.110836 ] } },
{ "type": "Feature", "properties": { "内容": "ユウユウハウス中島【特定施設入居者生活介護（有料老人ホーム）】岡山県津山市中島１７９－１", "url": "https://www.kaigokensaku.mhlw.go.jp/33/index.php?action_kouhyou_detail_004_kani=true&JigyosyoCd=3370302329-00&ServiceCd=331&Type=search", "url2": "yuuyuuhouse-nakashima.com" }, "geometry": { "type": "Point", "coordinates": [ 133.965020699999968, 35.0560051 ] } },
{ "type": "Feature", "properties": { "内容": "有料老人ホーム　ハモニカドゥーエ【特定施設入居者生活介護（有料老人ホーム）】岡山県玉野市長尾２１１６", "url": "https://www.kaigokensaku.mhlw.go.jp/33/index.php?action_kouhyou_detail_004_kani=true&JigyosyoCd=3370400990-00&ServiceCd=331&Type=search", "url2": "http://www.hamonika.com" }, "geometry": { "type": "Point", "coordinates": [ 133.888355400000023, 34.4922815 ] } },
{ "type": "Feature", "properties": { "内容": "介護付有料老人ホームドルフィン拓海【特定施設入居者生活介護（有料老人ホーム）】岡山県笠岡市拓海町１８２", "url": "https://www.kaigokensaku.mhlw.go.jp/33/index.php?action_kouhyou_detail_004_kani=true&JigyosyoCd=3370500799-00&ServiceCd=331&Type=search", "url2": "http.//www.dolphinaid.jp" }, "geometry": { "type": "Point", "coordinates": [ 133.509708199999977, 34.4860127 ] } },
{ "type": "Feature", "properties": { "内容": "介護付有料老人ホーム　ドルフィン笠岡【特定施設入居者生活介護（有料老人ホーム）】岡山県笠岡市入江１５１－１", "url": "https://www.kaigokensaku.mhlw.go.jp/33/index.php?action_kouhyou_detail_004_kani=true&JigyosyoCd=3370500641-00&ServiceCd=331&Type=search", "url2": "http://www.dolphinaid.jp" }, "geometry": { "type": "Point", "coordinates": [ 133.526437499999929, 34.4893595 ] } },
{ "type": "Feature", "properties": { "内容": "介護付有料老人ホームいばら長寿の里【特定施設入居者生活介護（有料老人ホーム）】岡山県井原市上出部町１８３", "url": "https://www.kaigokensaku.mhlw.go.jp/33/index.php?action_kouhyou_detail_004_kani=true&JigyosyoCd=3370700571-00&ServiceCd=331&Type=search", "url2": null }, "geometry": { "type": "Point", "coordinates": [ 133.456865087358096, 34.591950167940858 ] } },
{ "type": "Feature", "properties": { "内容": "コーポラティブらくじゅ【特定施設入居者生活介護（有料老人ホーム）】井原市下出部町2-17-2", "url": "https://www.kaigokensaku.mhlw.go.jp/33/index.php?action_kouhyou_detail_004_kani=true&JigyosyoCd=3370700696-00&ServiceCd=331&Type=search", "url2": "http://www.ibara‐rakujyu.com" }, "geometry": { "type": "Point", "coordinates": [ 133.439739499999973, 34.5813623 ] } },
{ "type": "Feature", "properties": { "内容": "サンサンリビングいばら楽寿【特定施設入居者生活介護（有料老人ホーム）】岡山県井原市下出部町2丁目17-4", "url": "https://www.kaigokensaku.mhlw.go.jp/33/index.php?action_kouhyou_detail_004_kani=true&JigyosyoCd=3370700407-00&ServiceCd=331&Type=search", "url2": "http://www.ibara-rakujyu.com" }, "geometry": { "type": "Point", "coordinates": [ 133.4402311, 34.5815928 ] } },
{ "type": "Feature", "properties": { "内容": "介護付有料老人ホームドルフィン岩倉【特定施設入居者生活介護（有料老人ホーム）】井原市岩倉町３４２－１介護付有料老人ホーム　ドルフィン岩倉", "url": "https://www.kaigokensaku.mhlw.go.jp/33/index.php?action_kouhyou_detail_004_kani=true&JigyosyoCd=3370700738-00&ServiceCd=331&Type=search", "url2": "http://dolphinaid.jp" }, "geometry": { "type": "Point", "coordinates": [ 133.473770100000024, 34.5764299 ] } },
{ "type": "Feature", "properties": { "内容": "セカンドステージ笑夢【特定施設入居者生活介護（有料老人ホーム）】岡山県総社市秦332-1", "url": "https://www.kaigokensaku.mhlw.go.jp/33/index.php?action_kouhyou_detail_004_kani=true&JigyosyoCd=3370800868-00&ServiceCd=331&Type=search", "url2": "http://www.emu-soja.com/" }, "geometry": { "type": "Point", "coordinates": [ 133.702690500000017, 34.6762402 ] } },
{ "type": "Feature", "properties": { "内容": "いずみの里【特定施設入居者生活介護（有料老人ホーム）】岡山県総社市泉1番地213", "url": "https://www.kaigokensaku.mhlw.go.jp/33/index.php?action_kouhyou_detail_004_kani=true&JigyosyoCd=3370801353-00&ServiceCd=331&Type=search", "url2": "http://kyk-mc.or.jp/" }, "geometry": { "type": "Point", "coordinates": [ 133.748955099999989, 34.6890419 ] } },
{ "type": "Feature", "properties": { "内容": "介護付有料老人ホームさくらの苑【特定施設入居者生活介護（有料老人ホーム）】落合町近似1390番地1", "url": "https://www.kaigokensaku.mhlw.go.jp/33/index.php?action_kouhyou_detail_004_kani=true&JigyosyoCd=3370900593-00&ServiceCd=331&Type=search", "url2": "https://www.bihokukaigo-sakura0255.com/" }, "geometry": { "type": "Point", "coordinates": [ 133.611888200000067, 34.7953442 ] } },
{ "type": "Feature", "properties": { "内容": "ケアポート生き活き館新見【特定施設入居者生活介護（有料老人ホーム）】岡山県新見市上熊谷810-1", "url": "https://www.kaigokensaku.mhlw.go.jp/33/index.php?action_kouhyou_detail_004_kani=true&JigyosyoCd=3371000278-00&ServiceCd=331&Type=search", "url2": "https://iki2.org/" }, "geometry": { "type": "Point", "coordinates": [ 133.52420570000001, 35.0301839 ] } },
{ "type": "Feature", "properties": { "内容": "介護付有料老人ホームいやしの里【特定施設入居者生活介護（有料老人ホーム）】岡山県備前市東片上1281番地52介護付有料老人ホームいやしの里", "url": "https://www.kaigokensaku.mhlw.go.jp/33/index.php?action_kouhyou_detail_004_kani=true&JigyosyoCd=3371100664-00&ServiceCd=331&Type=search", "url2": "https://medicament.co.jp" }, "geometry": { "type": "Point", "coordinates": [ 134.203539226705971, 34.753168031547808 ] } },
{ "type": "Feature", "properties": { "内容": "介護付有料老人ホーム　コンフォールひなせ【特定施設入居者生活介護（有料老人ホーム）】岡山県備前市日生町日生字南椿ノ浦2583番1", "url": "https://www.kaigokensaku.mhlw.go.jp/33/index.php?action_kouhyou_detail_004_kani=true&JigyosyoCd=3371100474-00&ServiceCd=331&Type=search", "url2": "http://www.confort-hinase.jp" }, "geometry": { "type": "Point", "coordinates": [ 134.27666, 34.734923 ] } },
{ "type": "Feature", "properties": { "内容": "介護付有料老人ホーム　あかいわの丘【特定施設入居者生活介護（有料老人ホーム）】岡山県赤磐市日古木785－1", "url": "https://www.kaigokensaku.mhlw.go.jp/33/index.php?action_kouhyou_detail_004_kani=true&JigyosyoCd=3372201107-00&ServiceCd=331&Type=search", "url2": "http://www.akaiwa-oka.com" }, "geometry": { "type": "Point", "coordinates": [ 134.033241399999952, 34.7630454 ] } },
{ "type": "Feature", "properties": { "内容": "あいらの杜　和気【特定施設入居者生活介護（有料老人ホーム）】岡山県和気郡和気町衣笠492-2", "url": "https://www.kaigokensaku.mhlw.go.jp/33/index.php?action_kouhyou_detail_004_kani=true&JigyosyoCd=3372300859-00&ServiceCd=331&Type=search", "url2": "https://www.halenosumai.jp/" }, "geometry": { "type": "Point", "coordinates": [ 134.16784, 34.792769 ] } },
{ "type": "Feature", "properties": { "内容": "介護付き有料老人ホーム　ルピナス佐伯【特定施設入居者生活介護（有料老人ホーム）】岡山県和気郡和気町父井原434-2", "url": "https://www.kaigokensaku.mhlw.go.jp/33/index.php?action_kouhyou_detail_004_kani=true&JigyosyoCd=3372300875-00&ServiceCd=331&Type=search", "url2": null }, "geometry": { "type": "Point", "coordinates": [ 134.093596, 34.8448807 ] } },
{ "type": "Feature", "properties": { "内容": "レガロ・ヴィータ早島【特定施設入居者生活介護（有料老人ホーム）】岡山県都窪郡早島町早島１６３２－１", "url": "https://www.kaigokensaku.mhlw.go.jp/33/index.php?action_kouhyou_detail_004_kani=true&JigyosyoCd=3372600308-00&ServiceCd=331&Type=search", "url2": "http://www.regalo-vita.jp/" }, "geometry": { "type": "Point", "coordinates": [ 133.823415397413328, 34.607475198720934 ] } },
{ "type": "Feature", "properties": { "内容": "介護付有料老人ホーム悠々荘【特定施設入居者生活介護（有料老人ホーム）】岡山県浅口郡里庄町新庄2855-1", "url": "https://www.kaigokensaku.mhlw.go.jp/33/index.php?action_kouhyou_detail_004_kani=true&JigyosyoCd=3372701023-00&ServiceCd=331&Type=search", "url2": null }, "geometry": { "type": "Point", "coordinates": [ 133.5511328, 34.506602 ] } },
{ "type": "Feature", "properties": { "内容": "ハーモニーやかげ【特定施設入居者生活介護（有料老人ホーム）】岡山県小田郡矢掛町矢掛2120-7", "url": "https://www.kaigokensaku.mhlw.go.jp/33/index.php?action_kouhyou_detail_004_kani=true&JigyosyoCd=3372800338-00&ServiceCd=331&Type=search", "url2": "https://harmony-yakage.com/" }, "geometry": { "type": "Point", "coordinates": [ 133.5906099, 34.6279515 ] } }
]
}
