{
"type": "FeatureCollection",
"name": "geo_33_介護老人福祉施設",
"crs": { "type": "name", "properties": { "name": "urn:ogc:def:crs:OGC:1.3:CRS84" } },
"features": [
{ "type": "Feature", "properties": { "内容": "特別養護老人ホーム　みなみがた荘【介護老人福祉施設】岡山県岡山市北区国体町3-12", "url": "https://www.kaigokensaku.mhlw.go.jp/33/index.php?action_kouhyou_detail_004_kani=true&JigyosyoCd=3370101259-00&ServiceCd=510&Type=search", "url2": "http://www.okasaisei-life.jp" }, "geometry": { "type": "Point", "coordinates": [ 133.920442900000012, 34.6734989 ] } },
{ "type": "Feature", "properties": { "内容": "旭川敬老園【介護老人福祉施設】岡山県岡山市北区祇園866", "url": "https://www.kaigokensaku.mhlw.go.jp/33/index.php?action_kouhyou_detail_004_kani=true&JigyosyoCd=3370101952-00&ServiceCd=510&Type=search", "url2": "http://asahigawasou.or.jp/keirouen/" }, "geometry": { "type": "Point", "coordinates": [ 133.95785879999994, 34.7079489 ] } },
{ "type": "Feature", "properties": { "内容": "介護老人福祉施設　特別養護老人ホーム　岡山シルバーセンター【介護老人福祉施設】岡山県岡山市北区新庄上５４５－１", "url": "https://www.kaigokensaku.mhlw.go.jp/33/index.php?action_kouhyou_detail_004_kani=true&JigyosyoCd=3370102083-00&ServiceCd=510&Type=search", "url2": "http://www.silver21.org" }, "geometry": { "type": "Point", "coordinates": [ 133.804960599999959, 34.6816235 ] } },
{ "type": "Feature", "properties": { "内容": "特別養護老人ホーム　憩いの丘【介護老人福祉施設】岡山県岡山市北区日近1807", "url": "https://www.kaigokensaku.mhlw.go.jp/33/index.php?action_kouhyou_detail_004_kani=true&JigyosyoCd=3370102158-00&ServiceCd=510&Type=search", "url2": "https://www.okasaisei-life.jp/facility-list/corp-ikoino_oka" }, "geometry": { "type": "Point", "coordinates": [ 133.8179149, 34.7516321 ] } },
{ "type": "Feature", "properties": { "内容": "特別養護老人ホーム津高寮【介護老人福祉施設】岡山県岡山市北区津高４３６－１", "url": "https://www.kaigokensaku.mhlw.go.jp/33/index.php?action_kouhyou_detail_004_kani=true&JigyosyoCd=3370102182-00&ServiceCd=510&Type=search", "url2": "http://www.tsudakaryou.jp/" }, "geometry": { "type": "Point", "coordinates": [ 133.908320900000035, 34.7008592 ] } },
{ "type": "Feature", "properties": { "内容": "特別養護老人ホーム　さわらび苑【介護老人福祉施設】岡山県岡山市北区平野１００５－９", "url": "https://www.kaigokensaku.mhlw.go.jp/33/index.php?action_kouhyou_detail_004_kani=true&JigyosyoCd=3370102224-00&ServiceCd=510&Type=search", "url2": "https://www.fukujukai-gp.com" }, "geometry": { "type": "Point", "coordinates": [ 133.858217200000013, 34.6473746 ] } },
{ "type": "Feature", "properties": { "内容": "特別養護老人ホーム旭ヶ丘【介護老人福祉施設】岡山県岡山市北区万成東町２－２８", "url": "https://www.kaigokensaku.mhlw.go.jp/33/index.php?action_kouhyou_detail_004_kani=true&JigyosyoCd=3370103412-00&ServiceCd=510&Type=search", "url2": "http://junfuku.jp/" }, "geometry": { "type": "Point", "coordinates": [ 133.896290099999987, 34.6739287 ] } },
{ "type": "Feature", "properties": { "内容": "特別養護老人ホーム　マスカット倶楽部【介護老人福祉施設】岡山県岡山市北区田原１－３", "url": "https://www.kaigokensaku.mhlw.go.jp/33/index.php?action_kouhyou_detail_004_kani=true&JigyosyoCd=3370104246-00&ServiceCd=510&Type=search", "url2": "https://www.isto.or.jp/" }, "geometry": { "type": "Point", "coordinates": [ 133.885664099999985, 34.7413918 ] } },
{ "type": "Feature", "properties": { "内容": "泉寿の里　特別養護老人ホーム【介護老人福祉施設】岡山県岡山市北区三門中町1-2", "url": "https://www.kaigokensaku.mhlw.go.jp/33/index.php?action_kouhyou_detail_004_kani=true&JigyosyoCd=3370104741-00&ServiceCd=510&Type=search", "url2": "https://senjunosato.or.jp" }, "geometry": { "type": "Point", "coordinates": [ 133.904558800000018, 34.6684657 ] } },
{ "type": "Feature", "properties": { "内容": "特別養護老人ホーム　喜福園【介護老人福祉施設】岡山県岡山市北区今保870-1", "url": "https://www.kaigokensaku.mhlw.go.jp/33/index.php?action_kouhyou_detail_004_kani=true&JigyosyoCd=3370106472-00&ServiceCd=510&Type=search", "url2": "http://fuku-sankeikai.jp" }, "geometry": { "type": "Point", "coordinates": [ 133.87929859999997, 34.6351187 ] } },
{ "type": "Feature", "properties": { "内容": "特別養護老人ホーム　ぬくもりの里あおえ【介護老人福祉施設】岡山県岡山市北区青江三丁目１０番２８号", "url": "https://www.kaigokensaku.mhlw.go.jp/33/index.php?action_kouhyou_detail_004_kani=true&JigyosyoCd=3370107546-00&ServiceCd=510&Type=search", "url2": "http://www.nukumorinosato.jp" }, "geometry": { "type": "Point", "coordinates": [ 133.926471099999958, 34.6341705 ] } },
{ "type": "Feature", "properties": { "内容": "特別養護老人ホーム鹿田の庄【介護老人福祉施設】岡山県岡山市北区東古松５丁目５－３", "url": "https://www.kaigokensaku.mhlw.go.jp/33/index.php?action_kouhyou_detail_004_kani=true&JigyosyoCd=3370108601-00&ServiceCd=510&Type=search", "url2": "http://www.midorikai-net.or.jp/" }, "geometry": { "type": "Point", "coordinates": [ 133.918905, 34.6460439 ] } },
{ "type": "Feature", "properties": { "内容": "特別養護老人ホーム　宇甘川荘〈ユニット型〉【介護老人福祉施設】岡山県岡山市北区御津紙工1410番地", "url": "https://www.kaigokensaku.mhlw.go.jp/33/index.php?action_kouhyou_detail_004_kani=true&JigyosyoCd=3370111464-00&ServiceCd=510&Type=search", "url2": "http://okayama-kotobuki.sakura.ne.jp/" }, "geometry": { "type": "Point", "coordinates": [ 133.858040399999936, 34.8192363 ] } },
{ "type": "Feature", "properties": { "内容": "特別養護老人ホーム　旭水荘【介護老人福祉施設】岡山県岡山市北区建部町福渡1005-1", "url": "https://www.kaigokensaku.mhlw.go.jp/33/index.php?action_kouhyou_detail_004_kani=true&JigyosyoCd=3372100101-00&ServiceCd=510&Type=search", "url2": "https://okayama-airinkai.jp/" }, "geometry": { "type": "Point", "coordinates": [ 133.905984699999948, 34.86521230000001 ] } },
{ "type": "Feature", "properties": { "内容": "特別養護老人ホーム　宇甘川荘〈従来型〉【介護老人福祉施設】岡山県岡山市北区御津紙工1410番地", "url": "https://www.kaigokensaku.mhlw.go.jp/33/index.php?action_kouhyou_detail_004_kani=true&JigyosyoCd=3372100143-00&ServiceCd=510&Type=search", "url2": "http://okayama-kotobuki.sakura.ne.jp" }, "geometry": { "type": "Point", "coordinates": [ 133.857825823278745, 34.819271531668633 ] } },
{ "type": "Feature", "properties": { "内容": "特別養護老人ホーム足守荘【介護老人福祉施設】岡山県岡山市北区下足守１８９８", "url": "https://www.kaigokensaku.mhlw.go.jp/33/index.php?action_kouhyou_detail_004_kani=true&JigyosyoCd=3370102109-00&ServiceCd=510&Type=search", "url2": "https://ikenaga-group.jp/" }, "geometry": { "type": "Point", "coordinates": [ 133.803677900000025, 34.7184117 ] } },
{ "type": "Feature", "properties": { "内容": "特別養護老人ホームあさひ園【介護老人福祉施設】岡山県岡山市北区旭本町6-20", "url": "https://www.kaigokensaku.mhlw.go.jp/33/index.php?action_kouhyou_detail_004_kani=true&JigyosyoCd=3370102190-00&ServiceCd=510&Type=search", "url2": "https://suiseikai-group.jp/" }, "geometry": { "type": "Point", "coordinates": [ 133.9277707, 34.6423168 ] } },
{ "type": "Feature", "properties": { "内容": "特別養護老人ホーム恵風荘【介護老人福祉施設】岡山県岡山市中区今谷770-1", "url": "https://www.kaigokensaku.mhlw.go.jp/33/index.php?action_kouhyou_detail_004_kani=true&JigyosyoCd=3370102174-00&ServiceCd=510&Type=search", "url2": "http://www.keifuukai.or.jp/" }, "geometry": { "type": "Point", "coordinates": [ 133.983933699999966, 34.6667851 ] } },
{ "type": "Feature", "properties": { "内容": "特別養護老人ホーム富山荘【介護老人福祉施設】岡山県岡山市中区海吉2306-1", "url": "https://www.kaigokensaku.mhlw.go.jp/33/index.php?action_kouhyou_detail_004_kani=true&JigyosyoCd=3370107413-00&ServiceCd=510&Type=search", "url2": "http://syoyokai.com/" }, "geometry": { "type": "Point", "coordinates": [ 133.982687599999963, 34.6475734 ] } },
{ "type": "Feature", "properties": { "内容": "社会福祉法人　岡山博愛会　特別養護老人ホーム　アダムスホーム【介護老人福祉施設】岡山県岡山市中区沖元502", "url": "https://www.kaigokensaku.mhlw.go.jp/33/index.php?action_kouhyou_detail_004_kani=true&JigyosyoCd=3370102133-00&ServiceCd=510&Type=search", "url2": "http://www.okayama-hakuaikai.or.jp/" }, "geometry": { "type": "Point", "coordinates": [ 133.977030099999979, 34.6372022 ] } },
{ "type": "Feature", "properties": { "内容": "特別養護老人ホーム　幸輝園【介護老人福祉施設】岡山県岡山市中区国府市場985-1", "url": "https://www.kaigokensaku.mhlw.go.jp/33/index.php?action_kouhyou_detail_004_kani=true&JigyosyoCd=3370102141-00&ServiceCd=510&Type=search", "url2": "http://www.fukushi-koukikai.jp/" }, "geometry": { "type": "Point", "coordinates": [ 133.964980299999979, 34.6938092 ] } },
{ "type": "Feature", "properties": { "内容": "特別養護老人ホーム阿知の里【介護老人福祉施設】岡山県岡山市東区下阿知１１８０番地", "url": "https://www.kaigokensaku.mhlw.go.jp/33/index.php?action_kouhyou_detail_004_kani=true&JigyosyoCd=3370101317-00&ServiceCd=510&Type=search", "url2": "http://c-oka.org/" }, "geometry": { "type": "Point", "coordinates": [ 134.093937699999969, 34.6256236 ] } },
{ "type": "Feature", "properties": { "内容": "特別養護老人ホーム　ハモニカ【介護老人福祉施設】岡山県岡山市東区浅川520番地の9", "url": "https://www.kaigokensaku.mhlw.go.jp/33/index.php?action_kouhyou_detail_004_kani=true&JigyosyoCd=3370101945-00&ServiceCd=510&Type=search", "url2": "http://www.hamonika.com" }, "geometry": { "type": "Point", "coordinates": [ 134.069689199999971, 34.7091854 ] } },
{ "type": "Feature", "properties": { "内容": "特別養護老人ホーム　中野けんせいえん【介護老人福祉施設】岡山県岡山市東区西大寺中野677-1なし", "url": "https://www.kaigokensaku.mhlw.go.jp/33/index.php?action_kouhyou_detail_004_kani=true&JigyosyoCd=3370102000-00&ServiceCd=510&Type=search", "url2": "https://www.chuo-fukushikai.jp/facility/nakano-kenseien/" }, "geometry": { "type": "Point", "coordinates": [ 134.020736491832395, 34.650582869573903 ] } },
{ "type": "Feature", "properties": { "内容": "特別養護老人ホーム　上道荘【介護老人福祉施設】岡山県岡山市東区中尾１０３６", "url": "https://www.kaigokensaku.mhlw.go.jp/33/index.php?action_kouhyou_detail_004_kani=true&JigyosyoCd=3370102216-00&ServiceCd=510&Type=search", "url2": "http://dainimakotokai.com/" }, "geometry": { "type": "Point", "coordinates": [ 134.021793800000069, 34.70766 ] } },
{ "type": "Feature", "properties": { "内容": "特別養護老人ホーム　グリーン・コム【介護老人福祉施設】岡山県岡山市東区宿毛748－1", "url": "https://www.kaigokensaku.mhlw.go.jp/33/index.php?action_kouhyou_detail_004_kani=true&JigyosyoCd=3370104576-00&ServiceCd=510&Type=search", "url2": "https://www.yunagi.jp/pages/60/" }, "geometry": { "type": "Point", "coordinates": [ 134.083305399999972, 34.6246235 ] } },
{ "type": "Feature", "properties": { "内容": "特別養護老人ホーム　けしごの里【介護老人福祉施設】岡山県岡山市東区中川町211-3", "url": "https://www.kaigokensaku.mhlw.go.jp/33/index.php?action_kouhyou_detail_004_kani=true&JigyosyoCd=3370105649-00&ServiceCd=510&Type=search", "url2": "http://keshigonosato.jp/" }, "geometry": { "type": "Point", "coordinates": [ 133.997974, 34.6675464 ] } },
{ "type": "Feature", "properties": { "内容": "特別養護老人ホーム　多聞荘【介護老人福祉施設】岡山県岡山市東区瀬戸町坂根792-14", "url": "https://www.kaigokensaku.mhlw.go.jp/33/index.php?action_kouhyou_detail_004_kani=true&JigyosyoCd=3372200422-00&ServiceCd=510&Type=search", "url2": "http://www.tensetsukai.or.jp" }, "geometry": { "type": "Point", "coordinates": [ 134.0586293, 34.7400628 ] } },
{ "type": "Feature", "properties": { "内容": "ピオーネ倶楽部【介護老人福祉施設】岡山県岡山市南区当新田485-25", "url": "https://www.kaigokensaku.mhlw.go.jp/33/index.php?action_kouhyou_detail_004_kani=true&JigyosyoCd=3370108445-00&ServiceCd=510&Type=search", "url2": "http://www.isto.or.jp/pioneclub.html" }, "geometry": { "type": "Point", "coordinates": [ 133.891144700000041, 34.6237763 ] } },
{ "type": "Feature", "properties": { "内容": "特別養護老人ホーム共生苑【介護老人福祉施設】岡山県岡山市南区東畦768", "url": "https://www.kaigokensaku.mhlw.go.jp/33/index.php?action_kouhyou_detail_004_kani=true&JigyosyoCd=3370101101-00&ServiceCd=510&Type=search", "url2": "http://www.keiyuu-kai.or.jp/top.html" }, "geometry": { "type": "Point", "coordinates": [ 133.881339900000057, 34.6044116 ] } },
{ "type": "Feature", "properties": { "内容": "特別養護老人ホーム　若宮園【介護老人福祉施設】岡山県岡山市南区箕島3491-7", "url": "https://www.kaigokensaku.mhlw.go.jp/33/index.php?action_kouhyou_detail_004_kani=true&JigyosyoCd=3370102166-00&ServiceCd=510&Type=search", "url2": "http://junfuku.jp/" }, "geometry": { "type": "Point", "coordinates": [ 133.836732518524201, 34.615538735091071 ] } },
{ "type": "Feature", "properties": { "内容": "特別養護老人ホーム　愛光苑【介護老人福祉施設】岡山県岡山市南区浦安本町81-2", "url": "https://www.kaigokensaku.mhlw.go.jp/33/index.php?action_kouhyou_detail_004_kani=true&JigyosyoCd=3370102208-00&ServiceCd=510&Type=search", "url2": "https://aiko-en.jp" }, "geometry": { "type": "Point", "coordinates": [ 133.930146, 34.6069683 ] } },
{ "type": "Feature", "properties": { "内容": "特別養護老人ホーム　うららか【介護老人福祉施設】岡山県岡山市南区福富東１－７－４３", "url": "https://www.kaigokensaku.mhlw.go.jp/33/index.php?action_kouhyou_detail_004_kani=true&JigyosyoCd=3370102240-00&ServiceCd=510&Type=search", "url2": "http://www.sato-hp.com" }, "geometry": { "type": "Point", "coordinates": [ 133.939167200000043, 34.6229361 ] } },
{ "type": "Feature", "properties": { "内容": "特別養護老人ホーム　健老園【介護老人福祉施設】岡山県岡山市南区古新田1351-3", "url": "https://www.kaigokensaku.mhlw.go.jp/33/index.php?action_kouhyou_detail_004_kani=true&JigyosyoCd=3370106191-00&ServiceCd=510&Type=search", "url2": "http://kenrokai.net/" }, "geometry": { "type": "Point", "coordinates": [ 133.876115499999969, 34.6247921 ] } },
{ "type": "Feature", "properties": { "内容": "特別養護老人ホーム　灘崎荘【介護老人福祉施設】岡山県岡山市南区彦崎2300", "url": "https://www.kaigokensaku.mhlw.go.jp/33/index.php?action_kouhyou_detail_004_kani=true&JigyosyoCd=3372500060-00&ServiceCd=510&Type=search", "url2": "http://nadasakiso.syoyokai.com/" }, "geometry": { "type": "Point", "coordinates": [ 133.83388130000003, 34.5447921 ] } },
{ "type": "Feature", "properties": { "内容": "特別養護老人ホームプルミエ岡山【介護老人福祉施設】岡山県岡山市南区北浦１００番地", "url": "https://www.kaigokensaku.mhlw.go.jp/33/index.php?action_kouhyou_detail_004_kani=true&JigyosyoCd=3370102232-00&ServiceCd=510&Type=search", "url2": "http://kenju-kai.or.jp/" }, "geometry": { "type": "Point", "coordinates": [ 133.963036, 34.5871411 ] } },
{ "type": "Feature", "properties": { "内容": "特別養護老人ホーム倉敷シルバーセンター【介護老人福祉施設】岡山県倉敷市児島柳田町355-1", "url": "https://www.kaigokensaku.mhlw.go.jp/33/index.php?action_kouhyou_detail_004_kani=true&JigyosyoCd=3370201141-00&ServiceCd=510&Type=search", "url2": "http://www.silver21.or.jp/" }, "geometry": { "type": "Point", "coordinates": [ 133.789404200000035, 34.4948907 ] } },
{ "type": "Feature", "properties": { "内容": "特別養護老人ホーム浅原桃花園【介護老人福祉施設】岡山県倉敷市浅原３８０番地２", "url": "https://www.kaigokensaku.mhlw.go.jp/33/index.php?action_kouhyou_detail_004_kani=true&JigyosyoCd=3370201166-00&ServiceCd=510&Type=search", "url2": "http://www.asabaratoukaen.com/" }, "geometry": { "type": "Point", "coordinates": [ 133.76860320000003, 34.6272707 ] } },
{ "type": "Feature", "properties": { "内容": "特別養護老人ホーム　アミカル【介護老人福祉施設】岡山県倉敷市玉島1275番地1", "url": "https://www.kaigokensaku.mhlw.go.jp/33/index.php?action_kouhyou_detail_004_kani=true&JigyosyoCd=3370201034-00&ServiceCd=510&Type=search", "url2": "http://www.amical.or.jp/" }, "geometry": { "type": "Point", "coordinates": [ 133.6836237, 34.548875 ] } },
{ "type": "Feature", "properties": { "内容": "シルバーセンター後楽【介護老人福祉施設】岡山県倉敷市真備町箭田２１５９番地", "url": "https://www.kaigokensaku.mhlw.go.jp/33/index.php?action_kouhyou_detail_004_kani=true&JigyosyoCd=3373000037-00&ServiceCd=510&Type=search", "url2": "http://www.kouraku.or.jp/" }, "geometry": { "type": "Point", "coordinates": [ 133.6859518, 34.6408713 ] } },
{ "type": "Feature", "properties": { "内容": "特別養護老人ホーム　サンバードナーシングホーム【介護老人福祉施設】岡山県倉敷市藤戸町藤戸1585-1", "url": "https://www.kaigokensaku.mhlw.go.jp/33/index.php?action_kouhyou_detail_004_kani=true&JigyosyoCd=3370200820-00&ServiceCd=510&Type=search", "url2": "http://www.fukujyu.or.jp" }, "geometry": { "type": "Point", "coordinates": [ 133.823037399999947, 34.5582286 ] } },
{ "type": "Feature", "properties": { "内容": "特別養護老人ホーム　サンバードナーシングホーム（ユニット型）【介護老人福祉施設】岡山県倉敷市藤戸町藤戸１５８８－７", "url": "https://www.kaigokensaku.mhlw.go.jp/33/index.php?action_kouhyou_detail_004_kani=true&JigyosyoCd=3370207882-00&ServiceCd=510&Type=search", "url2": "http://www.fukujyu.or.jp" }, "geometry": { "type": "Point", "coordinates": [ 133.823531324467467, 34.558447475475809 ] } },
{ "type": "Feature", "properties": { "内容": "特別養護老人ホーム　グリーンピア瀬戸内【介護老人福祉施設】岡山県倉敷市玉島陶856-1", "url": "https://www.kaigokensaku.mhlw.go.jp/33/index.php?action_kouhyou_detail_004_kani=true&JigyosyoCd=3370201190-00&ServiceCd=510&Type=search", "url2": "http://www.setouchifukushi.jp/greenpia/" }, "geometry": { "type": "Point", "coordinates": [ 133.676196, 34.5872632 ] } },
{ "type": "Feature", "properties": { "内容": "特別養護老人ホーム　のぞみ荘【介護老人福祉施設】岡山県倉敷市福田町福田２３４－１", "url": "https://www.kaigokensaku.mhlw.go.jp/33/index.php?action_kouhyou_detail_004_kani=true&JigyosyoCd=3370201216-00&ServiceCd=510&Type=search", "url2": "http://www.jpk.or.jp" }, "geometry": { "type": "Point", "coordinates": [ 133.775193599999966, 34.5390273 ] } },
{ "type": "Feature", "properties": { "内容": "特別養護老人ホーム　あすなろ園【介護老人福祉施設】岡山県倉敷市玉島勇崎1044", "url": "https://www.kaigokensaku.mhlw.go.jp/33/index.php?action_kouhyou_detail_004_kani=true&JigyosyoCd=3370201174-00&ServiceCd=510&Type=search", "url2": "http://www.asunaro.or.jp" }, "geometry": { "type": "Point", "coordinates": [ 133.649838899999963, 34.5187144 ] } },
{ "type": "Feature", "properties": { "内容": "特別養護老人ホーム　浮洲園【介護老人福祉施設】岡山県倉敷市粒江２５００－１", "url": "https://www.kaigokensaku.mhlw.go.jp/33/index.php?action_kouhyou_detail_004_kani=true&JigyosyoCd=3370201208-00&ServiceCd=510&Type=search", "url2": "http://www.ukisuen.com" }, "geometry": { "type": "Point", "coordinates": [ 133.803044099999966, 34.5617664 ] } },
{ "type": "Feature", "properties": { "内容": "特別養護老人ホーム　浮洲園（ユニット型）【介護老人福祉施設】岡山県倉敷市粒江2500-1", "url": "https://www.kaigokensaku.mhlw.go.jp/33/index.php?action_kouhyou_detail_004_kani=true&JigyosyoCd=3370207254-00&ServiceCd=510&Type=search", "url2": "http://www.ukisuen.com" }, "geometry": { "type": "Point", "coordinates": [ 133.803044099999966, 34.5617664 ] } },
{ "type": "Feature", "properties": { "内容": "特別養護老人ホームますみ荘【介護老人福祉施設】岡山県倉敷市中島８３７－５", "url": "https://www.kaigokensaku.mhlw.go.jp/33/index.php?action_kouhyou_detail_004_kani=true&JigyosyoCd=3370201117-00&ServiceCd=510&Type=search", "url2": "https://masumikai.or.jp" }, "geometry": { "type": "Point", "coordinates": [ 133.739892300000065, 34.5784279 ] } },
{ "type": "Feature", "properties": { "内容": "特別養護老人ホームくらしき【介護老人福祉施設】倉敷市亀山780－2", "url": "https://www.kaigokensaku.mhlw.go.jp/33/index.php?action_kouhyou_detail_004_kani=true&JigyosyoCd=3370206439-00&ServiceCd=510&Type=search", "url2": "http://kiryukai.com/" }, "geometry": { "type": "Point", "coordinates": [ 133.80245801901853, 34.589286479806738 ] } },
{ "type": "Feature", "properties": { "内容": "特別養護老人ホーム　元気の家【介護老人福祉施設】岡山県倉敷市徳芳501-1", "url": "https://www.kaigokensaku.mhlw.go.jp/33/index.php?action_kouhyou_detail_004_kani=true&JigyosyoCd=3370203345-00&ServiceCd=510&Type=search", "url2": "http://www.yotsubakai.or.jp" }, "geometry": { "type": "Point", "coordinates": [ 133.812869299999988, 34.6207661 ] } },
{ "type": "Feature", "properties": { "内容": "特別養護老人ホーム　しおかぜ【介護老人福祉施設】岡山県倉敷市下津井１４８２番地１８", "url": "https://www.kaigokensaku.mhlw.go.jp/33/index.php?action_kouhyou_detail_004_kani=true&JigyosyoCd=3370201133-00&ServiceCd=510&Type=search", "url2": "https://www.shiokaze-group.co.jp" }, "geometry": { "type": "Point", "coordinates": [ 133.784781900000013, 34.448447 ] } },
{ "type": "Feature", "properties": { "内容": "特別養護老人ホーム　庄の里（新館）【介護老人福祉施設】山地1297番地", "url": "https://www.kaigokensaku.mhlw.go.jp/33/index.php?action_kouhyou_detail_004_kani=true&JigyosyoCd=3370209078-00&ServiceCd=510&Type=search", "url2": "http://www.syounosato.or.jp/" }, "geometry": { "type": "Point", "coordinates": [ 133.8155267, 34.6519998 ] } },
{ "type": "Feature", "properties": { "内容": "特別養護老人ホーム　太陽の丘【介護老人福祉施設】岡山県倉敷市連島町西之浦3390番地", "url": "https://www.kaigokensaku.mhlw.go.jp/33/index.php?action_kouhyou_detail_004_kani=true&JigyosyoCd=3370204251-00&ServiceCd=510&Type=search", "url2": "http://www.kunpoohukushikai.com" }, "geometry": { "type": "Point", "coordinates": [ 133.716775699999971, 34.5543273 ] } },
{ "type": "Feature", "properties": { "内容": "特別養護老人ホームみどり荘【介護老人福祉施設】岡山県倉敷市神田2-3-5", "url": "https://www.kaigokensaku.mhlw.go.jp/33/index.php?action_kouhyou_detail_004_kani=true&JigyosyoCd=3370201125-00&ServiceCd=510&Type=search", "url2": "https://suiseikai-group.jp/" }, "geometry": { "type": "Point", "coordinates": [ 133.7382546, 34.5415761 ] } },
{ "type": "Feature", "properties": { "内容": "特別養護老人ホーム王慈園【介護老人福祉施設】倉敷市児島下の町５－２－１７", "url": "https://www.kaigokensaku.mhlw.go.jp/33/index.php?action_kouhyou_detail_004_kani=true&JigyosyoCd=3370201182-00&ServiceCd=510&Type=search", "url2": "http//www.ohji.ne.jp" }, "geometry": { "type": "Point", "coordinates": [ 133.82167979999997, 34.4776046 ] } },
{ "type": "Feature", "properties": { "内容": "特別養護老人ホーム　みゆき園　新館【介護老人福祉施設】岡山県倉敷市幸町8番27号", "url": "https://www.kaigokensaku.mhlw.go.jp/33/index.php?action_kouhyou_detail_004_kani=true&JigyosyoCd=3370207247-00&ServiceCd=510&Type=search", "url2": "https://miyuki-kai.jp/" }, "geometry": { "type": "Point", "coordinates": [ 133.774875100000031, 34.6074197 ] } },
{ "type": "Feature", "properties": { "内容": "特別養護老人ホーム　みゆき園　本館【介護老人福祉施設】岡山県倉敷市幸町８番２７号", "url": "https://www.kaigokensaku.mhlw.go.jp/33/index.php?action_kouhyou_detail_004_kani=true&JigyosyoCd=3370201158-00&ServiceCd=510&Type=search", "url2": "https://miyuki-kai.jp" }, "geometry": { "type": "Point", "coordinates": [ 133.774875100000031, 34.6074197 ] } },
{ "type": "Feature", "properties": { "内容": "特別養護老人ホーム王慈園（ユニット型）【介護老人福祉施設】岡山県倉敷市児島下の町5丁目2番17号", "url": "https://www.kaigokensaku.mhlw.go.jp/33/index.php?action_kouhyou_detail_004_kani=true&JigyosyoCd=3370207239-00&ServiceCd=510&Type=search", "url2": "ｈｔｔｐ//www.ohji.ne,jp" }, "geometry": { "type": "Point", "coordinates": [ 133.82167979999997, 34.4776046 ] } },
{ "type": "Feature", "properties": { "内容": "特別養護老人ホーム庄の里（本館）【介護老人福祉施設】山地1297番地", "url": "https://www.kaigokensaku.mhlw.go.jp/33/index.php?action_kouhyou_detail_004_kani=true&JigyosyoCd=3370209060-00&ServiceCd=510&Type=search", "url2": "http://www.syounosato.or.jp/" }, "geometry": { "type": "Point", "coordinates": [ 133.8155267, 34.6519998 ] } },
{ "type": "Feature", "properties": { "内容": "特別養護老人ホーム碧山荘【介護老人福祉施設】岡山県倉敷市林1140", "url": "https://www.kaigokensaku.mhlw.go.jp/33/index.php?action_kouhyou_detail_004_kani=true&JigyosyoCd=3370205175-00&ServiceCd=510&Type=search", "url2": "https://碧山荘.com" }, "geometry": { "type": "Point", "coordinates": [ 133.816821800000071, 34.5310715 ] } },
{ "type": "Feature", "properties": { "内容": "特別養護老人ホームサンライフみのり【介護老人福祉施設】岡山県津山市二宮９９９番地", "url": "https://www.kaigokensaku.mhlw.go.jp/33/index.php?action_kouhyou_detail_004_kani=true&JigyosyoCd=3370300240-00&ServiceCd=510&Type=search", "url2": "http://www.minori21.or.jp/" }, "geometry": { "type": "Point", "coordinates": [ 133.9680128, 35.0677729 ] } },
{ "type": "Feature", "properties": { "内容": "特別養護老人ホーム　鶯園【介護老人福祉施設】岡山県津山市瓜生原３３７－１", "url": "https://www.kaigokensaku.mhlw.go.jp/33/index.php?action_kouhyou_detail_004_kani=true&JigyosyoCd=3370300364-00&ServiceCd=510&Type=search", "url2": "http://www.uguisuen.jp/" }, "geometry": { "type": "Point", "coordinates": [ 134.042567500000018, 35.0429274 ] } },
{ "type": "Feature", "properties": { "内容": "特別養護老人ホームサンライフみのり（ユニット型）【介護老人福祉施設】岡山県津山市二宮999番地", "url": "https://www.kaigokensaku.mhlw.go.jp/33/index.php?action_kouhyou_detail_004_kani=true&JigyosyoCd=3370301958-00&ServiceCd=510&Type=search", "url2": "http://www.minori21.or.jp" }, "geometry": { "type": "Point", "coordinates": [ 133.9680128, 35.0677729 ] } },
{ "type": "Feature", "properties": { "内容": "特別養護老人ホーム愛和荘（ユニット型）【介護老人福祉施設】岡山県津山市桑下１２７２－３", "url": "https://www.kaigokensaku.mhlw.go.jp/33/index.php?action_kouhyou_detail_004_kani=true&JigyosyoCd=3370301941-00&ServiceCd=510&Type=search", "url2": "www.aiwa-kai.or.jp" }, "geometry": { "type": "Point", "coordinates": [ 133.920417199999946, 35.0288262 ] } },
{ "type": "Feature", "properties": { "内容": "特別養護老人ホーム　愛和荘【介護老人福祉施設】岡山県津山市桑下１２７２－３", "url": "https://www.kaigokensaku.mhlw.go.jp/33/index.php?action_kouhyou_detail_004_kani=true&JigyosyoCd=3373800196-00&ServiceCd=510&Type=search", "url2": "www.aiwa-kai.or.jp" }, "geometry": { "type": "Point", "coordinates": [ 133.920417199999946, 35.0288262 ] } },
{ "type": "Feature", "properties": { "内容": "特別養護老人ホーム　のどか【介護老人福祉施設】岡山県津山市神戸２６２－２", "url": "https://www.kaigokensaku.mhlw.go.jp/33/index.php?action_kouhyou_detail_004_kani=true&JigyosyoCd=3370302030-00&ServiceCd=510&Type=search", "url2": "https://tokuyo-nodoka.com/" }, "geometry": { "type": "Point", "coordinates": [ 133.944841885844454, 35.057578215929325 ] } },
{ "type": "Feature", "properties": { "内容": "特別養護老人ホーム　緑山荘【介護老人福祉施設】岡山県津山市加茂町小中原１１５", "url": "https://www.kaigokensaku.mhlw.go.jp/33/index.php?action_kouhyou_detail_004_kani=true&JigyosyoCd=3373500234-00&ServiceCd=510&Type=search", "url2": "http://www.kamo-koyokai.jp" }, "geometry": { "type": "Point", "coordinates": [ 134.049134900000013, 35.1783763 ] } },
{ "type": "Feature", "properties": { "内容": "特別養護老人ホーム高寿園【介護老人福祉施設】岡山県津山市下高倉西１５８１－１", "url": "https://www.kaigokensaku.mhlw.go.jp/33/index.php?action_kouhyou_detail_004_kani=true&JigyosyoCd=3370300455-00&ServiceCd=510&Type=search", "url2": "http://www.kojuen.jp/" }, "geometry": { "type": "Point", "coordinates": [ 134.038068389337013, 35.097017018610281 ] } },
{ "type": "Feature", "properties": { "内容": "特別養護老人ホーム日本原荘（ユニット型）【介護老人福祉施設】岡山県津山市新野東1797-11", "url": "https://www.kaigokensaku.mhlw.go.jp/33/index.php?action_kouhyou_detail_004_kani=true&JigyosyoCd=3370301966-00&ServiceCd=510&Type=search", "url2": "http://www.nihonbara.or.jp/" }, "geometry": { "type": "Point", "coordinates": [ 134.129119850926145, 35.104179503940635 ] } },
{ "type": "Feature", "properties": { "内容": "特別養護老人ホーム日本原荘（従来型）【介護老人福祉施設】岡山県津山市新野東１７９７番地", "url": "https://www.kaigokensaku.mhlw.go.jp/33/index.php?action_kouhyou_detail_004_kani=true&JigyosyoCd=3373600117-00&ServiceCd=510&Type=search", "url2": "http://www.nihonbara.or.jp" }, "geometry": { "type": "Point", "coordinates": [ 134.129082299999936, 35.1042585 ] } },
{ "type": "Feature", "properties": { "内容": "特別養護老人ホーム第３日本原荘【介護老人福祉施設】岡山県津山市新野東１７９7－３", "url": "https://www.kaigokensaku.mhlw.go.jp/33/index.php?action_kouhyou_detail_004_kani=true&JigyosyoCd=3373600125-00&ServiceCd=510&Type=search", "url2": "http://www.nihonbara.or.jp/" }, "geometry": { "type": "Point", "coordinates": [ 134.129123871302767, 35.104954589400954 ] } },
{ "type": "Feature", "properties": { "内容": "特別養護老人ホーム　ミ・カサ【介護老人福祉施設】岡山県津山市北町44-1", "url": "https://www.kaigokensaku.mhlw.go.jp/33/index.php?action_kouhyou_detail_004_kani=true&JigyosyoCd=3370302105-00&ServiceCd=510&Type=search", "url2": "www.eharakeimeikai.jp/mi-casa/" }, "geometry": { "type": "Point", "coordinates": [ 134.005705918771355, 35.065452832470918 ] } },
{ "type": "Feature", "properties": { "内容": "特別養護老人ホーム　グランデパール【介護老人福祉施設】岡山県玉野市用吉1676-1", "url": "https://www.kaigokensaku.mhlw.go.jp/33/index.php?action_kouhyou_detail_004_kani=true&JigyosyoCd=3370400784-00&ServiceCd=510&Type=search", "url2": "https://www.grand-depart.jp/" }, "geometry": { "type": "Point", "coordinates": [ 133.8970511, 34.5263191 ] } },
{ "type": "Feature", "properties": { "内容": "特別養護老人ホーム　宗玉園【介護老人福祉施設】岡山県玉野市梶岡５７６－２", "url": "https://www.kaigokensaku.mhlw.go.jp/33/index.php?action_kouhyou_detail_004_kani=true&JigyosyoCd=3370400362-00&ServiceCd=510&Type=search", "url2": "http://nichirinkai.or.jp/" }, "geometry": { "type": "Point", "coordinates": [ 133.9970505, 34.5540239 ] } },
{ "type": "Feature", "properties": { "内容": "特別養護老人ホーム　いこい荘【介護老人福祉施設】岡山県玉野市長尾１５７８－２", "url": "https://www.kaigokensaku.mhlw.go.jp/33/index.php?action_kouhyou_detail_004_kani=true&JigyosyoCd=3370400248-00&ServiceCd=510&Type=search", "url2": "https://ikoisou-tamano-okayama.jimdosite.com/" }, "geometry": { "type": "Point", "coordinates": [ 133.898387800000023, 34.4868209 ] } },
{ "type": "Feature", "properties": { "内容": "特別養護老人ホーム　いこい荘【介護老人福祉施設】岡山県玉野市長尾１５７８－２", "url": "https://www.kaigokensaku.mhlw.go.jp/33/index.php?action_kouhyou_detail_004_kani=true&JigyosyoCd=3370401378-00&ServiceCd=510&Type=search", "url2": "http://www.navita.co.jp/s/11060352/" }, "geometry": { "type": "Point", "coordinates": [ 133.8983878, 34.486820899999969 ] } },
{ "type": "Feature", "properties": { "内容": "特別養護老人ホーム　玉野山田荘【介護老人福祉施設】岡山県玉野市山田3275番地特別養護老人ホーム　玉野山田荘", "url": "https://www.kaigokensaku.mhlw.go.jp/33/index.php?action_kouhyou_detail_004_kani=true&JigyosyoCd=3370401402-00&ServiceCd=510&Type=search", "url2": "tamanoyamadaso.wixsite.com" }, "geometry": { "type": "Point", "coordinates": [ 133.991439894442692, 34.541875838683765 ] } },
{ "type": "Feature", "properties": { "内容": "玉野スマイルタウン　特別養護老人ホーム　すまいる苑【介護老人福祉施設】岡山県玉野市田井6-8-1", "url": "https://www.kaigokensaku.mhlw.go.jp/33/index.php?action_kouhyou_detail_004_kani=true&JigyosyoCd=3370401311-00&ServiceCd=510&Type=search", "url2": "http://momotarogroup.com" }, "geometry": { "type": "Point", "coordinates": [ 133.955165016671799, 34.511449654691759 ] } },
{ "type": "Feature", "properties": { "内容": "特別養護老人ホームアザレア【介護老人福祉施設】岡山県玉野市玉原二丁目２４番４０号", "url": "https://www.kaigokensaku.mhlw.go.jp/33/index.php?action_kouhyou_detail_004_kani=true&JigyosyoCd=3370400370-00&ServiceCd=510&Type=search", "url2": "https://tamano-azalea.jp/" }, "geometry": { "type": "Point", "coordinates": [ 133.912242099999958, 34.477048599172861 ] } },
{ "type": "Feature", "properties": { "内容": "特別養護老人ホーム　ひび喜楽園【介護老人福祉施設】岡山県玉野市渋川１丁目１４－１３", "url": "https://www.kaigokensaku.mhlw.go.jp/33/index.php?action_kouhyou_detail_004_kani=true&JigyosyoCd=3370401253-00&ServiceCd=510&Type=search", "url2": "http://www7b.biglobe.ne.jp/~sankeikai/" }, "geometry": { "type": "Point", "coordinates": [ 133.90739259999998, 34.4580458 ] } },
{ "type": "Feature", "properties": { "内容": "特別養護老人ホーム笠岡すみれ園【介護老人福祉施設】岡山県笠岡市笠岡1080－1", "url": "https://www.kaigokensaku.mhlw.go.jp/33/index.php?action_kouhyou_detail_004_kani=true&JigyosyoCd=3370500260-00&ServiceCd=510&Type=search", "url2": "https://www.sumire.or.jp" }, "geometry": { "type": "Point", "coordinates": [ 133.520043246171582, 34.509584759484845 ] } },
{ "type": "Feature", "properties": { "内容": "特別養護老人ホーム　瀬戸内荘【介護老人福祉施設】岡山県笠岡市横島1944-1", "url": "https://www.kaigokensaku.mhlw.go.jp/33/index.php?action_kouhyou_detail_004_kani=true&JigyosyoCd=3370500286-00&ServiceCd=510&Type=search", "url2": "http://www.kabutokai.jp/" }, "geometry": { "type": "Point", "coordinates": [ 133.519696896156347, 34.478662436190604 ] } },
{ "type": "Feature", "properties": { "内容": "特別養護老人ホーム　天神荘【介護老人福祉施設】岡山県笠岡市神島３６２６－７", "url": "https://www.kaigokensaku.mhlw.go.jp/33/index.php?action_kouhyou_detail_004_kani=true&JigyosyoCd=3370500278-00&ServiceCd=510&Type=search", "url2": "http://www.tenjinkai.org/" }, "geometry": { "type": "Point", "coordinates": [ 133.509644900000012, 34.4731837 ] } },
{ "type": "Feature", "properties": { "内容": "特別養護老人ホーム飛鳥の里三清荘【介護老人福祉施設】岡山県笠岡市関戸837番地の1", "url": "https://www.kaigokensaku.mhlw.go.jp/33/index.php?action_kouhyou_detail_004_kani=true&JigyosyoCd=3370500880-00&ServiceCd=510&Type=search", "url2": "http://www.keizankai.or.jp/" }, "geometry": { "type": "Point", "coordinates": [ 133.528201821256971, 34.558164463217743 ] } },
{ "type": "Feature", "properties": { "内容": "特別養護老人ホーム小田川荘【介護老人福祉施設】岡山県井原市芳井町川相351", "url": "https://www.kaigokensaku.mhlw.go.jp/33/index.php?action_kouhyou_detail_004_kani=true&JigyosyoCd=3372900070-00&ServiceCd=510&Type=search", "url2": "http://www.odagawasou.or.jp" }, "geometry": { "type": "Point", "coordinates": [ 133.410050400000046, 34.6476016 ] } },
{ "type": "Feature", "properties": { "内容": "特別養護老人ホーム　長楽園【介護老人福祉施設】岡山県井原市美星町西水砂２２３６番地７", "url": "https://www.kaigokensaku.mhlw.go.jp/33/index.php?action_kouhyou_detail_004_kani=true&JigyosyoCd=3372800130-00&ServiceCd=510&Type=search", "url2": "https://www.chorakuen.or.jp" }, "geometry": { "type": "Point", "coordinates": [ 133.536445400000048, 34.6600094 ] } },
{ "type": "Feature", "properties": { "内容": "特別養護老人ホーム　きのこ荘【介護老人福祉施設】岡山県井原市木之子町2416-1", "url": "https://www.kaigokensaku.mhlw.go.jp/33/index.php?action_kouhyou_detail_004_kani=true&JigyosyoCd=3370700183-00&ServiceCd=510&Type=search", "url2": "http://www.kinoko-group.jp/" }, "geometry": { "type": "Point", "coordinates": [ 133.482578415155047, 34.578699702941272 ] } },
{ "type": "Feature", "properties": { "内容": "特別養護老人ホーム　四季の里【介護老人福祉施設】岡山県井原市上出部町四季が丘20番地4", "url": "https://www.kaigokensaku.mhlw.go.jp/33/index.php?action_kouhyou_detail_004_kani=true&JigyosyoCd=3370700555-00&ServiceCd=510&Type=search", "url2": "http://kyouwa.or.jp/" }, "geometry": { "type": "Point", "coordinates": [ 133.4674731, 34.5854038 ] } },
{ "type": "Feature", "properties": { "内容": "特別養護老人ホームみずき【介護老人福祉施設】岡山県井原市東江原町1661-1", "url": "https://www.kaigokensaku.mhlw.go.jp/33/index.php?action_kouhyou_detail_004_kani=true&JigyosyoCd=3370700274-00&ServiceCd=510&Type=search", "url2": "https://mizuki-okayama.jp/" }, "geometry": { "type": "Point", "coordinates": [ 133.5135047, 34.5999271 ] } },
{ "type": "Feature", "properties": { "内容": "介護老人福祉施設　光憂舘【介護老人福祉施設】岡山県総社市日羽454番地介護老人福祉施設光憂舘", "url": "https://www.kaigokensaku.mhlw.go.jp/33/index.php?action_kouhyou_detail_004_kani=true&JigyosyoCd=3370800173-00&ServiceCd=510&Type=search", "url2": "https://www.k5963.com/" }, "geometry": { "type": "Point", "coordinates": [ 133.676505300000031, 34.7241044 ] } },
{ "type": "Feature", "properties": { "内容": "特別養護老人ホーム　いずみの杜【介護老人福祉施設】総社市小寺958番地", "url": "https://www.kaigokensaku.mhlw.go.jp/33/index.php?action_kouhyou_detail_004_kani=true&JigyosyoCd=3370801015-00&ServiceCd=510&Type=search", "url2": "http://choujukai.or.jp/" }, "geometry": { "type": "Point", "coordinates": [ 133.745338801852427, 34.689898374225884 ] } },
{ "type": "Feature", "properties": { "内容": "特別養護老人ホーム　シルバーセンター　セレーノ総社【介護老人福祉施設】岡山県総社市久代5127番地", "url": "https://www.kaigokensaku.mhlw.go.jp/33/index.php?action_kouhyou_detail_004_kani=true&JigyosyoCd=3370800215-00&ServiceCd=510&Type=search", "url2": "http://www.sesshu-fukushikai.or.jp/sereno/" }, "geometry": { "type": "Point", "coordinates": [ 133.699285300000042, 34.6775123 ] } },
{ "type": "Feature", "properties": { "内容": "特別養護老人ホーム三清荘【介護老人福祉施設】岡山県総社市久米48番地の1", "url": "https://www.kaigokensaku.mhlw.go.jp/33/index.php?action_kouhyou_detail_004_kani=true&JigyosyoCd=3370801130-00&ServiceCd=510&Type=search", "url2": "http://www.keizankai.or.jp/" }, "geometry": { "type": "Point", "coordinates": [ 133.777213299999971, 34.6985327 ] } },
{ "type": "Feature", "properties": { "内容": "特別養護老人ホーム三清荘【介護老人福祉施設】岡山県総社市久米48番地の1", "url": "https://www.kaigokensaku.mhlw.go.jp/33/index.php?action_kouhyou_detail_004_kani=true&JigyosyoCd=3370800132-00&ServiceCd=510&Type=search", "url2": "http://www.keizankai.or.jp/" }, "geometry": { "type": "Point", "coordinates": [ 133.777213299999971, 34.6985327 ] } },
{ "type": "Feature", "properties": { "内容": "特別養護老人ホーム　グリーンアンドリバーホーム（従来型）【介護老人福祉施設】岡山県総社市清音三因1074-1", "url": "https://www.kaigokensaku.mhlw.go.jp/33/index.php?action_kouhyou_detail_004_kani=true&JigyosyoCd=3372600035-00&ServiceCd=510&Type=search", "url2": "http://www.green-river.or.jp" }, "geometry": { "type": "Point", "coordinates": [ 133.755753499999969, 34.6544177 ] } },
{ "type": "Feature", "properties": { "内容": "特別養護老人ホーム　グリーンアンドリバーホーム（ユニット型）【介護老人福祉施設】岡山県総社市清音三因1074-1", "url": "https://www.kaigokensaku.mhlw.go.jp/33/index.php?action_kouhyou_detail_004_kani=true&JigyosyoCd=3370801114-00&ServiceCd=510&Type=search", "url2": "http://www.green-river.or.jp" }, "geometry": { "type": "Point", "coordinates": [ 133.755753499999969, 34.6544177 ] } },
{ "type": "Feature", "properties": { "内容": "特別養護老人ホーム　まごころの里　備中【介護老人福祉施設】高梁市落合町福地394", "url": "https://www.kaigokensaku.mhlw.go.jp/33/index.php?action_kouhyou_detail_004_kani=true&JigyosyoCd=3370900569-00&ServiceCd=510&Type=search", "url2": "https://magokoro-ok.com/list/hotaru.html" }, "geometry": { "type": "Point", "coordinates": [ 133.554881669897441, 34.783597459049915 ] } },
{ "type": "Feature", "properties": { "内容": "特別養護老人ホーム　有漢荘【介護老人福祉施設】岡山県高梁市有漢町有漢7945-16", "url": "https://www.kaigokensaku.mhlw.go.jp/33/index.php?action_kouhyou_detail_004_kani=true&JigyosyoCd=3373100183-00&ServiceCd=510&Type=search", "url2": "http://yoshimikai.com" }, "geometry": { "type": "Point", "coordinates": [ 133.679705600000034, 34.901967 ] } },
{ "type": "Feature", "properties": { "内容": "特別養護老人ホームグリーンヒル順正【介護老人福祉施設】岡山県高梁市松原町神原２２８１-８", "url": "https://www.kaigokensaku.mhlw.go.jp/33/index.php?action_kouhyou_detail_004_kani=true&JigyosyoCd=3370900635-00&ServiceCd=510&Type=search", "url2": "ｈｔｔｐ//www.kibi.ne.jp/～green101" }, "geometry": { "type": "Point", "coordinates": [ 133.595367, 34.8143886 ] } },
{ "type": "Feature", "properties": { "内容": "特別養護老人ホームグリーンヒル順正【介護老人福祉施設】岡山県高梁市松原町神原2281-8", "url": "https://www.kaigokensaku.mhlw.go.jp/33/index.php?action_kouhyou_detail_004_kani=true&JigyosyoCd=3370900148-00&ServiceCd=510&Type=search", "url2": "http://www.kibi.ne.jp/~greent01" }, "geometry": { "type": "Point", "coordinates": [ 133.595367, 34.8143886 ] } },
{ "type": "Feature", "properties": { "内容": "特別養護老人ホーム　白和荘　ユニット型【介護老人福祉施設】岡山県高梁市高倉町大瀬八長２６６３－１", "url": "https://www.kaigokensaku.mhlw.go.jp/33/index.php?action_kouhyou_detail_004_kani=true&JigyosyoCd=3370900643-00&ServiceCd=510&Type=search", "url2": "http://www.jyunshinkai.or.jp" }, "geometry": { "type": "Point", "coordinates": [ 133.612040500000035, 34.8214605 ] } },
{ "type": "Feature", "properties": { "内容": "特別養護老人ホーム　白和荘（従来型）【介護老人福祉施設】岡山県高梁市高倉町大瀬八長２６６３－１", "url": "https://www.kaigokensaku.mhlw.go.jp/33/index.php?action_kouhyou_detail_004_kani=true&JigyosyoCd=3370900130-00&ServiceCd=510&Type=search", "url2": "http://www.jyunshinkai.or.jp" }, "geometry": { "type": "Point", "coordinates": [ 133.612040500000035, 34.8214605 ] } },
{ "type": "Feature", "properties": { "内容": "高梁市特別養護老人ホーム鶴寿荘【介護老人福祉施設】岡山県高梁市成羽町下原２６８番地１", "url": "https://www.kaigokensaku.mhlw.go.jp/33/index.php?action_kouhyou_detail_004_kani=true&JigyosyoCd=3373200199-00&ServiceCd=510&Type=search", "url2": "http://www.city.takahashi.lg.jp/soshiki/17/" }, "geometry": { "type": "Point", "coordinates": [ 133.546699206745842, 34.782959712103718 ] } },
{ "type": "Feature", "properties": { "内容": "特別養護老人ホームケアポート生き活き館神郷【介護老人福祉施設】新見市神郷下神代4390", "url": "https://www.kaigokensaku.mhlw.go.jp/33/index.php?action_kouhyou_detail_004_kani=true&JigyosyoCd=3371000351-00&ServiceCd=510&Type=search", "url2": "http://kokoro-net.org" }, "geometry": { "type": "Point", "coordinates": [ 133.398659400000042, 34.9964795 ] } },
{ "type": "Feature", "properties": { "内容": "特別養護老人ホームおおさ苑【介護老人福祉施設】岡山県新見市大佐田治部3221番地", "url": "https://www.kaigokensaku.mhlw.go.jp/33/index.php?action_kouhyou_detail_004_kani=true&JigyosyoCd=3373300163-00&ServiceCd=510&Type=search", "url2": "https://keiaikai-osa.jp" }, "geometry": { "type": "Point", "coordinates": [ 133.5563469, 35.0413254 ] } },
{ "type": "Feature", "properties": { "内容": "特別養護老人ホーム哲西荘【介護老人福祉施設】岡山県新見市哲西町矢田４３５１", "url": "https://www.kaigokensaku.mhlw.go.jp/33/index.php?action_kouhyou_detail_004_kani=true&JigyosyoCd=3373300304-00&ServiceCd=510&Type=search", "url2": "http://www.tesseisou.jp/index.html" }, "geometry": { "type": "Point", "coordinates": [ 133.334514, 34.923884 ] } },
{ "type": "Feature", "properties": { "内容": "特別養護老人ホーム唐松荘【介護老人福祉施設】岡山県新見市唐松１７４９番地２", "url": "https://www.kaigokensaku.mhlw.go.jp/33/index.php?action_kouhyou_detail_004_kani=true&JigyosyoCd=3371000112-00&ServiceCd=510&Type=search", "url2": "http://www.karamatsu-so.jp" }, "geometry": { "type": "Point", "coordinates": [ 133.508350800000017, 34.9640904 ] } },
{ "type": "Feature", "properties": { "内容": "特別養護老人ホームゆずり葉【介護老人福祉施設】岡山県新見市新見８９７－７", "url": "https://www.kaigokensaku.mhlw.go.jp/33/index.php?action_kouhyou_detail_004_kani=true&JigyosyoCd=3371000500-00&ServiceCd=510&Type=search", "url2": "https://west-koseikai.jp" }, "geometry": { "type": "Point", "coordinates": [ 133.468035919573907, 34.984727362724833 ] } },
{ "type": "Feature", "properties": { "内容": "特別養護老人ホーム亀楽荘【介護老人福祉施設】岡山県備前市吉永町吉永中363番地", "url": "https://www.kaigokensaku.mhlw.go.jp/33/index.php?action_kouhyou_detail_004_kani=true&JigyosyoCd=3372300305-00&ServiceCd=510&Type=search", "url2": "http://kirakuso.or.jp/" }, "geometry": { "type": "Point", "coordinates": [ 134.208206099999984, 34.8109874 ] } },
{ "type": "Feature", "properties": { "内容": "備前市特別養護老人ホーム大ヶ池荘【介護老人福祉施設】岡山県備前市伊部964-1", "url": "https://www.kaigokensaku.mhlw.go.jp/33/index.php?action_kouhyou_detail_004_kani=true&JigyosyoCd=3371100557-00&ServiceCd=510&Type=search", "url2": null }, "geometry": { "type": "Point", "coordinates": [ 134.145619600000032, 34.7390312 ] } },
{ "type": "Feature", "properties": { "内容": "特別養護老人ホーム　深谷荘【介護老人福祉施設】岡山県備前市三石2791-1", "url": "https://www.kaigokensaku.mhlw.go.jp/33/index.php?action_kouhyou_detail_004_kani=true&JigyosyoCd=3371100334-00&ServiceCd=510&Type=search", "url2": "http://mitanisou.com/" }, "geometry": { "type": "Point", "coordinates": [ 134.27995420000002, 34.8159254 ] } },
{ "type": "Feature", "properties": { "内容": "特別養護老人ホーム備前多聞荘【介護老人福祉施設】岡山県備前市鶴海２４０１番地", "url": "https://www.kaigokensaku.mhlw.go.jp/33/index.php?action_kouhyou_detail_004_kani=true&JigyosyoCd=3371100763-00&ServiceCd=510&Type=search", "url2": "http://www.tensetsukai.or.jp" }, "geometry": { "type": "Point", "coordinates": [ 134.185256200000026, 34.697636399999986 ] } },
{ "type": "Feature", "properties": { "内容": "特別養護老人ホーム　あじさいのおか牛窓（従来型）【介護老人福祉施設】岡山県瀬戸内市牛窓町長浜1745-1", "url": "https://www.kaigokensaku.mhlw.go.jp/33/index.php?action_kouhyou_detail_004_kani=true&JigyosyoCd=3372400170-00&ServiceCd=510&Type=search", "url2": "http://www.ajisai-s.or.jp" }, "geometry": { "type": "Point", "coordinates": [ 134.133278300000029, 34.6375462 ] } },
{ "type": "Feature", "properties": { "内容": "特別養護老人ホーム　あじさいのおか牛窓（ユニット型）【介護老人福祉施設】岡山県瀬戸内市牛窓町長浜1745番地1", "url": "https://www.kaigokensaku.mhlw.go.jp/33/index.php?action_kouhyou_detail_004_kani=true&JigyosyoCd=3372400840-00&ServiceCd=510&Type=search", "url2": "http://ajisai-s.or.jp/" }, "geometry": { "type": "Point", "coordinates": [ 134.133278300000029, 34.6375462 ] } },
{ "type": "Feature", "properties": { "内容": "特別養護老人ホームせとの夢【介護老人福祉施設】岡山県瀬戸内市邑久町虫明6268番地2", "url": "https://www.kaigokensaku.mhlw.go.jp/33/index.php?action_kouhyou_detail_004_kani=true&JigyosyoCd=3372400972-00&ServiceCd=510&Type=search", "url2": "www.okayama-junshinkai.co.jp/aiaikai/index.html" }, "geometry": { "type": "Point", "coordinates": [ 134.202713200000062, 34.6823968 ] } },
{ "type": "Feature", "properties": { "内容": "特別養護老人ホーム　錦海荘【介護老人福祉施設】岡山県瀬戸内市邑久町尻海5513-1", "url": "https://www.kaigokensaku.mhlw.go.jp/33/index.php?action_kouhyou_detail_004_kani=true&JigyosyoCd=3372400121-00&ServiceCd=510&Type=search", "url2": "https://kenrokai.net/" }, "geometry": { "type": "Point", "coordinates": [ 134.1821132, 34.6558432 ] } },
{ "type": "Feature", "properties": { "内容": "特別養護老人ホームせとうち【介護老人福祉施設】岡山県瀬戸内市邑久町福中1180", "url": "https://www.kaigokensaku.mhlw.go.jp/33/index.php?action_kouhyou_detail_004_kani=true&JigyosyoCd=3372400675-00&ServiceCd=510&Type=search", "url2": "http://www.tohkakai.jp/" }, "geometry": { "type": "Point", "coordinates": [ 134.066753799999987, 34.6703333 ] } },
{ "type": "Feature", "properties": { "内容": "特別養護老人ホームグランディアあじさい【介護老人福祉施設】岡山県瀬戸内市長船町服部1141番地", "url": "https://www.kaigokensaku.mhlw.go.jp/33/index.php?action_kouhyou_detail_004_kani=true&JigyosyoCd=3372401178-00&ServiceCd=510&Type=search", "url2": null }, "geometry": { "type": "Point", "coordinates": [ 134.1101396, 34.7092465 ] } },
{ "type": "Feature", "properties": { "内容": "特別養護老人ホームさくら木【介護老人福祉施設】岡山県赤磐市河本４８８番地１", "url": "https://www.kaigokensaku.mhlw.go.jp/33/index.php?action_kouhyou_detail_004_kani=true&JigyosyoCd=3372201339-00&ServiceCd=510&Type=search", "url2": "https://yufukai.com" }, "geometry": { "type": "Point", "coordinates": [ 134.01451748081206, 34.746588106903914 ] } },
{ "type": "Feature", "properties": { "内容": "特別養護老人ホ－ム広虫荘【介護老人福祉施設】岡山県赤磐市沢原１３９５", "url": "https://www.kaigokensaku.mhlw.go.jp/33/index.php?action_kouhyou_detail_004_kani=true&JigyosyoCd=3372200430-00&ServiceCd=510&Type=search", "url2": "www.hiromushisou.jp" }, "geometry": { "type": "Point", "coordinates": [ 134.083096899999987, 34.7932442 ] } },
{ "type": "Feature", "properties": { "内容": "特別養護老人ホーム　桃香の里【介護老人福祉施設】岡山県赤磐市熊崎２７６－１", "url": "https://www.kaigokensaku.mhlw.go.jp/33/index.php?action_kouhyou_detail_004_kani=true&JigyosyoCd=3372200729-00&ServiceCd=510&Type=search", "url2": "https://kyokusuikai-momoka.com/" }, "geometry": { "type": "Point", "coordinates": [ 134.01174889999993, 34.7565372 ] } },
{ "type": "Feature", "properties": { "内容": "特別養護老人ホーム　桃香の里【介護老人福祉施設】岡山県赤磐市熊崎276-1", "url": "https://www.kaigokensaku.mhlw.go.jp/33/index.php?action_kouhyou_detail_004_kani=true&JigyosyoCd=3372201255-00&ServiceCd=510&Type=search", "url2": "https://kyokusuikai-momoka.com/" }, "geometry": { "type": "Point", "coordinates": [ 134.01174889999993, 34.7565372 ] } },
{ "type": "Feature", "properties": { "内容": "特別養護老人ホーム山陽寿荘【介護老人福祉施設】岡山県赤磐市桜が丘西９丁目１番1号", "url": "https://www.kaigokensaku.mhlw.go.jp/33/index.php?action_kouhyou_detail_004_kani=true&JigyosyoCd=3372200216-00&ServiceCd=510&Type=search", "url2": "http://ww9.tiki.ne.jp/~kotobuki/" }, "geometry": { "type": "Point", "coordinates": [ 134.025025345507856, 34.777743867019645 ] } },
{ "type": "Feature", "properties": { "内容": "特別養護老人ホーム　パインスクエア【介護老人福祉施設】岡山県赤磐市稲蒔１２２２", "url": "https://www.kaigokensaku.mhlw.go.jp/33/index.php?action_kouhyou_detail_004_kani=true&JigyosyoCd=3372201008-00&ServiceCd=510&Type=search", "url2": "www.eharakeimeikai.jp" }, "geometry": { "type": "Point", "coordinates": [ 134.08226860000002, 34.8957051 ] } },
{ "type": "Feature", "properties": { "内容": "特別養護老人ホーム神庭荘【介護老人福祉施設】岡山県真庭市組370番地1", "url": "https://www.kaigokensaku.mhlw.go.jp/33/index.php?action_kouhyou_detail_004_kani=true&JigyosyoCd=3373400492-00&ServiceCd=510&Type=search", "url2": "http://f-keishinkai.jp" }, "geometry": { "type": "Point", "coordinates": [ 133.688943028836093, 35.095506489139233 ] } },
{ "type": "Feature", "properties": { "内容": "特別養護老人ホーム　高瀬　Ⅱ【介護老人福祉施設】岡山県真庭市中島380番地1特別養護老人ホーム　高瀬　Ⅱ", "url": "https://www.kaigokensaku.mhlw.go.jp/33/index.php?action_kouhyou_detail_004_kani=true&JigyosyoCd=3373401185-00&ServiceCd=510&Type=search", "url2": "http://f-keishinkai.jp" }, "geometry": { "type": "Point", "coordinates": [ 133.749424800000043, 35.0721855 ] } },
{ "type": "Feature", "properties": { "内容": "特別養護老人ホーム　花岡荘【介護老人福祉施設】岡山県真庭市下中津井505", "url": "https://www.kaigokensaku.mhlw.go.jp/33/index.php?action_kouhyou_detail_004_kani=true&JigyosyoCd=3373100191-00&ServiceCd=510&Type=search", "url2": "http://yoshimikai.com" }, "geometry": { "type": "Point", "coordinates": [ 133.627258819704053, 34.943594738541954 ] } },
{ "type": "Feature", "properties": { "内容": "特別養護老人ホーム千寿荘【介護老人福祉施設】岡山県真庭市蒜山上長田２８－１", "url": "https://www.kaigokensaku.mhlw.go.jp/33/index.php?action_kouhyou_detail_004_kani=true&JigyosyoCd=3373400534-00&ServiceCd=510&Type=search", "url2": "https://senju-sou.com/" }, "geometry": { "type": "Point", "coordinates": [ 133.687347199999977, 35.2863203 ] } },
{ "type": "Feature", "properties": { "内容": "特別養護老人ホーム十字園【介護老人福祉施設】岡山県真庭市下河内２２７５番地", "url": "https://www.kaigokensaku.mhlw.go.jp/33/index.php?action_kouhyou_detail_004_kani=true&JigyosyoCd=3373400518-00&ServiceCd=510&Type=search", "url2": "http://www.jyujikai.or.jp" }, "geometry": { "type": "Point", "coordinates": [ 133.786581800000022, 35.03251 ] } },
{ "type": "Feature", "properties": { "内容": "特別養護老人ホーム　檜山荘【介護老人福祉施設】岡山県真庭市上市瀬1050-39", "url": "https://www.kaigokensaku.mhlw.go.jp/33/index.php?action_kouhyou_detail_004_kani=true&JigyosyoCd=3373400500-00&ServiceCd=510&Type=search", "url2": "http://Kaizansou.nobushi.jp" }, "geometry": { "type": "Point", "coordinates": [ 133.741922191509929, 35.029796731874754 ] } },
{ "type": "Feature", "properties": { "内容": "特別養護老人ホーム緑風荘【介護老人福祉施設】岡山県真庭市美甘３２６番地", "url": "https://www.kaigokensaku.mhlw.go.jp/33/index.php?action_kouhyou_detail_004_kani=true&JigyosyoCd=3373400526-00&ServiceCd=510&Type=search", "url2": "http://www.suimeikai.or.jp" }, "geometry": { "type": "Point", "coordinates": [ 133.62589360000004, 35.1548254 ] } },
{ "type": "Feature", "properties": { "内容": "特別養護老人ホーム　ロマンシティあいだ【介護老人福祉施設】岡山県美作市井口４１－２", "url": "https://www.kaigokensaku.mhlw.go.jp/33/index.php?action_kouhyou_detail_004_kani=true&JigyosyoCd=3373700263-00&ServiceCd=510&Type=search", "url2": "https://uguisuen.com/" }, "geometry": { "type": "Point", "coordinates": [ 134.128276300000039, 34.9384179 ] } },
{ "type": "Feature", "properties": { "内容": "特別養護老人ホーム　蛍流荘【介護老人福祉施設】岡山県美作市湯郷903", "url": "https://www.kaigokensaku.mhlw.go.jp/33/index.php?action_kouhyou_detail_004_kani=true&JigyosyoCd=3373700834-00&ServiceCd=510&Type=search", "url2": "http://www.keiryusou.com/" }, "geometry": { "type": "Point", "coordinates": [ 134.131202199999962, 34.9915589 ] } },
{ "type": "Feature", "properties": { "内容": "美作特別養護老人ホームやすらぎ荘【介護老人福祉施設】岡山県美作市古町1707-3", "url": "https://www.kaigokensaku.mhlw.go.jp/33/index.php?action_kouhyou_detail_004_kani=true&JigyosyoCd=3373700636-00&ServiceCd=510&Type=search", "url2": "http://www.keizankai.or.jp/" }, "geometry": { "type": "Point", "coordinates": [ 134.327219800000023, 35.120564800000025 ] } },
{ "type": "Feature", "properties": { "内容": "みまさか園【介護老人福祉施設】岡山県美作市北山404-1", "url": "https://www.kaigokensaku.mhlw.go.jp/33/index.php?action_kouhyou_detail_004_kani=true&JigyosyoCd=3373700388-00&ServiceCd=510&Type=search", "url2": "http://www.fukushi-koukikai.jp/" }, "geometry": { "type": "Point", "coordinates": [ 134.156314599999973, 35.0319002 ] } },
{ "type": "Feature", "properties": { "内容": "特別養護老人ホーム　作東寮【介護老人福祉施設】岡山県美作市川北１０８９", "url": "https://www.kaigokensaku.mhlw.go.jp/33/index.php?action_kouhyou_detail_004_kani=true&JigyosyoCd=3373700164-00&ServiceCd=510&Type=search", "url2": "http://www.fukushi-koukikai.jp" }, "geometry": { "type": "Point", "coordinates": [ 134.214695900000038, 35.0144164 ] } },
{ "type": "Feature", "properties": { "内容": "特別養護老人ホーム　オペラハウス鴨方【介護老人福祉施設】岡山県浅口市鴨方町地頭上567番地", "url": "https://www.kaigokensaku.mhlw.go.jp/33/index.php?action_kouhyou_detail_004_kani=true&JigyosyoCd=3372700348-00&ServiceCd=510&Type=search", "url2": "http://www.okayama-chidori.or.jp/opera/" }, "geometry": { "type": "Point", "coordinates": [ 133.5903399, 34.5589695 ] } },
{ "type": "Feature", "properties": { "内容": "特別養護老人ホーム寿光園【介護老人福祉施設】岡山県浅口市金光町下竹１７７５番の1", "url": "https://www.kaigokensaku.mhlw.go.jp/33/index.php?action_kouhyou_detail_004_kani=true&JigyosyoCd=3372700330-00&ServiceCd=510&Type=search", "url2": "http://www.kcv.ne.jp/~jukoukai" }, "geometry": { "type": "Point", "coordinates": [ 133.641425600000048, 34.5595466 ] } },
{ "type": "Feature", "properties": { "内容": "特別養護老人ホームひまわり園【介護老人福祉施設】岡山県和気郡和気町佐伯158", "url": "https://www.kaigokensaku.mhlw.go.jp/33/index.php?action_kouhyou_detail_004_kani=true&JigyosyoCd=3372300313-00&ServiceCd=510&Type=search", "url2": "http://www.himawarien.org." }, "geometry": { "type": "Point", "coordinates": [ 134.092529399999989, 34.8448716 ] } },
{ "type": "Feature", "properties": { "内容": "特別養護老人ホーム　和気広虫荘【介護老人福祉施設】岡山県和気郡和気町和気108", "url": "https://www.kaigokensaku.mhlw.go.jp/33/index.php?action_kouhyou_detail_004_kani=true&JigyosyoCd=3372300321-00&ServiceCd=510&Type=search", "url2": "http://www.hiromushisou.jp" }, "geometry": { "type": "Point", "coordinates": [ 134.144989799999962, 34.8066261 ] } },
{ "type": "Feature", "properties": { "内容": "特別養護老人ホーム　和気えんじゅの里【介護老人福祉施設】岡山県和気郡和気町衣笠834－1", "url": "https://www.kaigokensaku.mhlw.go.jp/33/index.php?action_kouhyou_detail_004_kani=true&JigyosyoCd=3372300784-00&ServiceCd=510&Type=search", "url2": "http://www.takufukai-group.or.jp/" }, "geometry": { "type": "Point", "coordinates": [ 134.156099002210283, 34.796619128775795 ] } },
{ "type": "Feature", "properties": { "内容": "特別養護老人ホーム　白亜館【介護老人福祉施設】岡山県都窪郡早島町早島4962-11", "url": "https://www.kaigokensaku.mhlw.go.jp/33/index.php?action_kouhyou_detail_004_kani=true&JigyosyoCd=3372600233-00&ServiceCd=510&Type=search", "url2": "http://hakuakan.ec-net.jp" }, "geometry": { "type": "Point", "coordinates": [ 133.807008399999972, 34.6094839 ] } },
{ "type": "Feature", "properties": { "内容": "特別養護老人ホーム　矢掛荘　従来型【介護老人福祉施設】岡山県小田郡矢掛町南山田3044-12", "url": "https://www.kaigokensaku.mhlw.go.jp/33/index.php?action_kouhyou_detail_004_kani=true&JigyosyoCd=3372800122-00&ServiceCd=510&Type=search", "url2": "yakage-so.jp" }, "geometry": { "type": "Point", "coordinates": [ 133.613008900000068, 34.5853672 ] } },
{ "type": "Feature", "properties": { "内容": "特別養護老人ホーム奥津広済園【介護老人福祉施設】岡山県苫田郡鏡野町杉７５０－４", "url": "https://www.kaigokensaku.mhlw.go.jp/33/index.php?action_kouhyou_detail_004_kani=true&JigyosyoCd=3373500481-00&ServiceCd=510&Type=search", "url2": "https://okutsu-kousaikai.net/" }, "geometry": { "type": "Point", "coordinates": [ 133.9121319, 35.174723099999966 ] } },
{ "type": "Feature", "properties": { "内容": "特別養護老人ホームいずみ山荘【介護老人福祉施設】岡山県苫田郡鏡野町公保田７３－２", "url": "https://www.kaigokensaku.mhlw.go.jp/33/index.php?action_kouhyou_detail_004_kani=true&JigyosyoCd=3373500242-00&ServiceCd=510&Type=search", "url2": "http://www.mto.ne.jp/tyoujyu/" }, "geometry": { "type": "Point", "coordinates": [ 133.955854400000021, 35.1086678 ] } },
{ "type": "Feature", "properties": { "内容": "特別養護老人ホーム　あかり【介護老人福祉施設】岡山県勝田郡勝央町小矢田653番地1", "url": "https://www.kaigokensaku.mhlw.go.jp/33/index.php?action_kouhyou_detail_004_kani=true&JigyosyoCd=3373600539-00&ServiceCd=510&Type=search", "url2": "https://www.f-akari.jp/" }, "geometry": { "type": "Point", "coordinates": [ 134.126370899999984, 35.0277302 ] } },
{ "type": "Feature", "properties": { "内容": "特別養護老人ホーム南光荘【介護老人福祉施設】岡山県勝田郡勝央町美野１８７７番地", "url": "https://www.kaigokensaku.mhlw.go.jp/33/index.php?action_kouhyou_detail_004_kani=true&JigyosyoCd=3373600299-00&ServiceCd=510&Type=search", "url2": "http://www.shoumei-fukushikai.or.jp/" }, "geometry": { "type": "Point", "coordinates": [ 134.152872900000034, 35.0668656 ] } },
{ "type": "Feature", "properties": { "内容": "特別養護老人ホームなぎみ苑（従来型）【介護老人福祉施設】岡山県勝田郡奈義町広岡30", "url": "https://www.kaigokensaku.mhlw.go.jp/33/index.php?action_kouhyou_detail_004_kani=true&JigyosyoCd=3373600307-00&ServiceCd=510&Type=search", "url2": "http://www.jifu-kai.or.jp" }, "geometry": { "type": "Point", "coordinates": [ 134.166784199999938, 35.1158719 ] } },
{ "type": "Feature", "properties": { "内容": "特別養護老人ホームイーエスサウスヒルズ【介護老人福祉施設】岡山県久米郡久米南町下弓削647", "url": "https://www.kaigokensaku.mhlw.go.jp/33/index.php?action_kouhyou_detail_004_kani=true&JigyosyoCd=3373800162-00&ServiceCd=510&Type=search", "url2": "http://www.eharakeimeikai.jp/essouthhills/index.html" }, "geometry": { "type": "Point", "coordinates": [ 133.9662889, 34.9317299 ] } },
{ "type": "Feature", "properties": { "内容": "特別養護老人ホーム　川柳の里三清荘【介護老人福祉施設】岡山県久米郡久米南町羽出木753-11", "url": "https://www.kaigokensaku.mhlw.go.jp/33/index.php?action_kouhyou_detail_004_kani=true&JigyosyoCd=3373800600-00&ServiceCd=510&Type=search", "url2": "http://www.keizankai.or.jp/" }, "geometry": { "type": "Point", "coordinates": [ 133.992122699999982, 34.9440867 ] } },
{ "type": "Feature", "properties": { "内容": "特別養護老人ホーム吉井川荘【介護老人福祉施設】岡山県久米郡美咲町吉ヶ原８３８", "url": "https://www.kaigokensaku.mhlw.go.jp/33/index.php?action_kouhyou_detail_004_kani=true&JigyosyoCd=3373800121-00&ServiceCd=510&Type=search", "url2": "https://yoshiigawa.jp" }, "geometry": { "type": "Point", "coordinates": [ 134.076601100000062, 34.9432725 ] } },
{ "type": "Feature", "properties": { "内容": "特別養護老人ホーム　白寿荘【介護老人福祉施設】岡山県久米郡美咲町錦織2357-1", "url": "https://www.kaigokensaku.mhlw.go.jp/33/index.php?action_kouhyou_detail_004_kani=true&JigyosyoCd=3373800295-00&ServiceCd=510&Type=search", "url2": "http://www.hakujuso.or.jp/" }, "geometry": { "type": "Point", "coordinates": [ 133.944332499999973, 35.0287464 ] } },
{ "type": "Feature", "properties": { "内容": "特別養護老人ホームかもがわ荘【介護老人福祉施設】岡山県加賀郡吉備中央町上加茂５１７－３", "url": "https://www.kaigokensaku.mhlw.go.jp/33/index.php?action_kouhyou_detail_004_kani=true&JigyosyoCd=3372100093-00&ServiceCd=510&Type=search", "url2": "https://makotokai.okayama.jp/" }, "geometry": { "type": "Point", "coordinates": [ 133.80536589999997, 34.8508132 ] } },
{ "type": "Feature", "properties": { "内容": "吉備高原賀陽荘【介護老人福祉施設】岡山県加賀郡吉備中央町上竹７５３番地", "url": "https://www.kaigokensaku.mhlw.go.jp/33/index.php?action_kouhyou_detail_004_kani=true&JigyosyoCd=3373100209-00&ServiceCd=510&Type=search", "url2": "care-net.biz/33/kayousou753/" }, "geometry": { "type": "Point", "coordinates": [ 133.6793983, 34.8539105 ] } },
{ "type": "Feature", "properties": { "内容": "特別養護老人ホームきびハイツ【介護老人福祉施設】岡山県加賀郡吉備中央町上野1883-5", "url": "https://www.kaigokensaku.mhlw.go.jp/33/index.php?action_kouhyou_detail_004_kani=true&JigyosyoCd=3372100374-00&ServiceCd=510&Type=search", "url2": "https://www.amical.or.jp/kibi/" }, "geometry": { "type": "Point", "coordinates": [ 133.770994299999984, 34.8357139 ] } }
]
}
