{
"type": "FeatureCollection",
"name": "geo_33_幼稚園",
"crs": { "type": "name", "properties": { "name": "urn:ogc:def:crs:EPSG::6668" } },
"features": [
{ "type": "Feature", "properties": { "P29_001": "33102", "P29_002": "A133110000014", "P29_003": "16011", "P29_004": "岡山大学教育学部附属幼稚園", "P29_005": "岡山県岡山市中区東山2-9-20", "P29_006": "1", "P29_007": "0", "P29_008": "00", "P29_009": null }, "geometry": { "type": "Point", "coordinates": [ 133.942836726527332, 34.654730885250629 ] } },
{ "type": "Feature", "properties": { "P29_001": "33102", "P29_002": "A133210000012", "P29_003": "16011", "P29_004": "岡山市立旭東幼稚園", "P29_005": "岡山県岡山市中区門田屋敷本町1-5", "P29_006": "3", "P29_007": "0", "P29_008": "00", "P29_009": null }, "geometry": { "type": "Point", "coordinates": [ 133.936618500805253, 34.655647710815529 ] } },
{ "type": "Feature", "properties": { "P29_001": "33102", "P29_002": "A133210000021", "P29_003": "16011", "P29_004": "岡山市立三勲幼稚園", "P29_005": "岡山県岡山市中区国富1-7-13", "P29_006": "3", "P29_007": "0", "P29_008": "00", "P29_009": null }, "geometry": { "type": "Point", "coordinates": [ 133.944405559156849, 34.661817732351885 ] } },
{ "type": "Feature", "properties": { "P29_001": "33102", "P29_002": "A133210000030", "P29_003": "16011", "P29_004": "岡山市立操南幼稚園", "P29_005": "岡山県岡山市中区藤崎65-5", "P29_006": "3", "P29_007": "0", "P29_008": "00", "P29_009": null }, "geometry": { "type": "Point", "coordinates": [ 133.965791461204162, 34.630528186056694 ] } },
{ "type": "Feature", "properties": { "P29_001": "33102", "P29_002": "A133210000049", "P29_003": "16011", "P29_004": "岡山市立富山幼稚園", "P29_005": "岡山県岡山市中区福泊233", "P29_006": "3", "P29_007": "0", "P29_008": "00", "P29_009": null }, "geometry": { "type": "Point", "coordinates": [ 133.973324750007663, 34.655206945487336 ] } },
{ "type": "Feature", "properties": { "P29_001": "33101", "P29_002": "A133210000058", "P29_003": "16011", "P29_004": "岡山市立大野幼稚園", "P29_005": "岡山県岡山市北区大安寺南町2-8-23", "P29_006": "3", "P29_007": "0", "P29_008": "00", "P29_009": null }, "geometry": { "type": "Point", "coordinates": [ 133.886438513498319, 34.660598633883453 ] } },
{ "type": "Feature", "properties": { "P29_001": "33104", "P29_002": "A133210000067", "P29_003": "16011", "P29_004": "岡山市立芳田幼稚園", "P29_005": "岡山県岡山市南区泉田411", "P29_006": "3", "P29_007": "0", "P29_008": "00", "P29_009": null }, "geometry": { "type": "Point", "coordinates": [ 133.907047803043952, 34.627438663599726 ] } },
{ "type": "Feature", "properties": { "P29_001": "33102", "P29_002": "A133210000076", "P29_003": "16011", "P29_004": "岡山市立財田幼稚園", "P29_005": "岡山県岡山市中区長岡138-2", "P29_006": "3", "P29_007": "0", "P29_008": "00", "P29_009": null }, "geometry": { "type": "Point", "coordinates": [ 133.986021172080086, 34.683677243596108 ] } },
{ "type": "Feature", "properties": { "P29_001": "33102", "P29_002": "A133210000085", "P29_003": "16011", "P29_004": "岡山市立幡多幼稚園", "P29_005": "岡山県岡山市中区高屋220-3", "P29_006": "3", "P29_007": "0", "P29_008": "00", "P29_009": null }, "geometry": { "type": "Point", "coordinates": [ 133.967947131254732, 34.676083252663496 ] } },
{ "type": "Feature", "properties": { "P29_001": "33104", "P29_002": "A133210000094", "P29_003": "16011", "P29_004": "岡山市立小串幼稚園", "P29_005": "岡山県岡山市南区小串3489", "P29_006": "3", "P29_007": "0", "P29_008": "00", "P29_009": null }, "geometry": { "type": "Point", "coordinates": [ 134.027074688274524, 34.596563083138015 ] } },
{ "type": "Feature", "properties": { "P29_001": "33104", "P29_002": "A133210000101", "P29_003": "16011", "P29_004": "岡山市立浦安幼稚園", "P29_005": "岡山県岡山市南区浦安本町204-3", "P29_006": "3", "P29_007": "0", "P29_008": "00", "P29_009": null }, "geometry": { "type": "Point", "coordinates": [ 133.920235833713548, 34.602959264121857 ] } },
{ "type": "Feature", "properties": { "P29_001": "33104", "P29_002": "A133210000110", "P29_003": "16011", "P29_004": "岡山市立福浜幼稚園", "P29_005": "岡山県岡山市南区福富東2-1-1", "P29_006": "3", "P29_007": "0", "P29_008": "00", "P29_009": null }, "geometry": { "type": "Point", "coordinates": [ 133.938280556498768, 34.622403417436388 ] } },
{ "type": "Feature", "properties": { "P29_001": "33101", "P29_002": "A133210000129", "P29_003": "16011", "P29_004": "岡山市立御野幼稚園", "P29_005": "岡山県岡山市北区北方4-1-1", "P29_006": "3", "P29_007": "0", "P29_008": "00", "P29_009": null }, "geometry": { "type": "Point", "coordinates": [ 133.932211001531925, 34.684691998773125 ] } },
{ "type": "Feature", "properties": { "P29_001": "33101", "P29_002": "A133210000138", "P29_003": "16011", "P29_004": "岡山市立石井幼稚園", "P29_005": "岡山県岡山市北区富町2-9-30", "P29_006": "3", "P29_007": "0", "P29_008": "00", "P29_009": null }, "geometry": { "type": "Point", "coordinates": [ 133.910224505980807, 34.665193926731824 ] } },
{ "type": "Feature", "properties": { "P29_001": "33101", "P29_002": "A133210000147", "P29_003": "16011", "P29_004": "岡山市立三門幼稚園", "P29_005": "岡山県岡山市北区下伊福西町1-30", "P29_006": "3", "P29_007": "0", "P29_008": "00", "P29_009": null }, "geometry": { "type": "Point", "coordinates": [ 133.901527996954115, 34.664658002312038 ] } },
{ "type": "Feature", "properties": { "P29_001": "33101", "P29_002": "A133210000156", "P29_003": "16011", "P29_004": "岡山市立大元幼稚園", "P29_005": "岡山県岡山市北区大元上町9-18", "P29_006": "3", "P29_007": "0", "P29_008": "00", "P29_009": null }, "geometry": { "type": "Point", "coordinates": [ 133.899972566054373, 34.6488821009671 ] } },
{ "type": "Feature", "properties": { "P29_001": "33102", "P29_002": "A133210000165", "P29_003": "16011", "P29_004": "岡山市立平井幼稚園", "P29_005": "岡山県岡山市中区平井3-927-1", "P29_006": "3", "P29_007": "0", "P29_008": "00", "P29_009": null }, "geometry": { "type": "Point", "coordinates": [ 133.94978191000331, 34.637429637271829 ] } },
{ "type": "Feature", "properties": { "P29_001": "33101", "P29_002": "A133210000174", "P29_003": "16011", "P29_004": "岡山市立牧石幼稚園", "P29_005": "岡山県岡山市北区玉柏2094-2", "P29_006": "3", "P29_007": "0", "P29_008": "00", "P29_009": null }, "geometry": { "type": "Point", "coordinates": [ 133.95098081116646, 34.71571505916404 ] } },
{ "type": "Feature", "properties": { "P29_001": "33104", "P29_002": "A133210000192", "P29_003": "16011", "P29_004": "岡山市立芳泉幼稚園", "P29_005": "岡山県岡山市南区芳泉3-2-5", "P29_006": "3", "P29_007": "0", "P29_008": "00", "P29_009": null }, "geometry": { "type": "Point", "coordinates": [ 133.916641662137494, 34.6214338994101 ] } },
{ "type": "Feature", "properties": { "P29_001": "33104", "P29_002": "A133210000209", "P29_003": "16011", "P29_004": "岡山市立平福幼稚園", "P29_005": "岡山県岡山市南区平福2-4-7", "P29_006": "3", "P29_007": "0", "P29_008": "00", "P29_009": null }, "geometry": { "type": "Point", "coordinates": [ 133.95004364131492, 34.617724468894849 ] } },
{ "type": "Feature", "properties": { "P29_001": "33102", "P29_002": "A133210000218", "P29_003": "16011", "P29_004": "岡山市立操明幼稚園", "P29_005": "岡山県岡山市中区藤崎721-3", "P29_006": "3", "P29_007": "0", "P29_008": "00", "P29_009": null }, "geometry": { "type": "Point", "coordinates": [ 133.974823062864772, 34.616887491594696 ] } },
{ "type": "Feature", "properties": { "P29_001": "33102", "P29_002": "A133210000227", "P29_003": "16011", "P29_004": "岡山市立旭操幼稚園", "P29_005": "岡山県岡山市中区倉富171-2", "P29_006": "3", "P29_007": "0", "P29_008": "00", "P29_009": null }, "geometry": { "type": "Point", "coordinates": [ 133.970507016428513, 34.645499715873413 ] } },
{ "type": "Feature", "properties": { "P29_001": "33103", "P29_002": "A133210000236", "P29_003": "16011", "P29_004": "岡山市立芥子山幼稚園", "P29_005": "岡山県岡山市東区西大寺松崎144-1", "P29_006": "3", "P29_007": "0", "P29_008": "00", "P29_009": null }, "geometry": { "type": "Point", "coordinates": [ 134.012503087364422, 34.662682050201056 ] } },
{ "type": "Feature", "properties": { "P29_001": "33202", "P29_002": "A133210000245", "P29_003": "16011", "P29_004": "倉敷市立倉敷幼稚園", "P29_005": "岡山県倉敷市中央2-7-1", "P29_006": "3", "P29_007": "0", "P29_008": "00", "P29_009": null }, "geometry": { "type": "Point", "coordinates": [ 133.768125746310062, 34.595582549372672 ] } },
{ "type": "Feature", "properties": { "P29_001": "33202", "P29_002": "A133210000254", "P29_003": "16011", "P29_004": "倉敷市立老松幼稚園", "P29_005": "岡山県倉敷市老松町4-11-29", "P29_006": "3", "P29_007": "0", "P29_008": "00", "P29_009": null }, "geometry": { "type": "Point", "coordinates": [ 133.76225258906959, 34.59218657421895 ] } },
{ "type": "Feature", "properties": { "P29_001": "33202", "P29_002": "A133210000263", "P29_003": "16011", "P29_004": "倉敷市立万寿幼稚園", "P29_005": "岡山県倉敷市浜町2-3-1", "P29_006": "3", "P29_007": "0", "P29_008": "00", "P29_009": null }, "geometry": { "type": "Point", "coordinates": [ 133.772346566261888, 34.607713065178281 ] } },
{ "type": "Feature", "properties": { "P29_001": "33202", "P29_002": "A133210000272", "P29_003": "16011", "P29_004": "倉敷市立大高幼稚園", "P29_005": "岡山県倉敷市沖新町96-1", "P29_006": "3", "P29_007": "0", "P29_008": "00", "P29_009": null }, "geometry": { "type": "Point", "coordinates": [ 133.756385222330664, 34.584486259412181 ] } },
{ "type": "Feature", "properties": { "P29_001": "33202", "P29_002": "A133210000281", "P29_003": "16011", "P29_004": "倉敷市立粒江幼稚園", "P29_005": "岡山県倉敷市粒江1726", "P29_006": "3", "P29_007": "0", "P29_008": "00", "P29_009": null }, "geometry": { "type": "Point", "coordinates": [ 133.78890153112269, 34.563113005100142 ] } },
{ "type": "Feature", "properties": { "P29_001": "33202", "P29_002": "A133210000290", "P29_003": "16011", "P29_004": "倉敷市立中庄幼稚園", "P29_005": "岡山県倉敷市中庄2700", "P29_006": "3", "P29_007": "0", "P29_008": "00", "P29_009": null }, "geometry": { "type": "Point", "coordinates": [ 133.79880834581968, 34.614669248485022 ] } },
{ "type": "Feature", "properties": { "P29_001": "33202", "P29_002": "A133210000307", "P29_003": "16011", "P29_004": "倉敷市立帯江幼稚園", "P29_005": "岡山県倉敷市加須山466-2", "P29_006": "3", "P29_007": "0", "P29_008": "00", "P29_009": null }, "geometry": { "type": "Point", "coordinates": [ 133.794995760248327, 34.583897596429203 ] } },
{ "type": "Feature", "properties": { "P29_001": "33202", "P29_002": "A133210000316", "P29_003": "16011", "P29_004": "倉敷市立西阿知幼稚園", "P29_005": "岡山県倉敷市西阿知西原1003", "P29_006": "3", "P29_007": "0", "P29_008": "00", "P29_009": null }, "geometry": { "type": "Point", "coordinates": [ 133.723218001595598, 34.585282999158949 ] } },
{ "type": "Feature", "properties": { "P29_001": "33202", "P29_002": "A133210000325", "P29_003": "16011", "P29_004": "倉敷市立第二福田幼稚園", "P29_005": "岡山県倉敷市福田町古新田620-2", "P29_006": "3", "P29_007": "0", "P29_008": "00", "P29_009": null }, "geometry": { "type": "Point", "coordinates": [ 133.766497933500858, 34.545172305867382 ] } },
{ "type": "Feature", "properties": { "P29_001": "33202", "P29_002": "A133210000334", "P29_003": "16011", "P29_004": "倉敷市立第四福田幼稚園", "P29_005": "岡山県倉敷市北畝3-8-1", "P29_006": "3", "P29_007": "0", "P29_008": "00", "P29_009": null }, "geometry": { "type": "Point", "coordinates": [ 133.749274277182934, 34.545719002037266 ] } },
{ "type": "Feature", "properties": { "P29_001": "33202", "P29_002": "A133210000343", "P29_003": "16011", "P29_004": "倉敷市立連島東幼稚園", "P29_005": "岡山県倉敷市連島町連島2851", "P29_006": "3", "P29_007": "0", "P29_008": "00", "P29_009": null }, "geometry": { "type": "Point", "coordinates": [ 133.735623420604071, 34.555976306775975 ] } },
{ "type": "Feature", "properties": { "P29_001": "33202", "P29_002": "A133210000352", "P29_003": "16011", "P29_004": "倉敷市立連島南幼稚園", "P29_005": "岡山県倉敷市連島町鶴新田1705", "P29_006": "3", "P29_007": "0", "P29_008": "00", "P29_009": null }, "geometry": { "type": "Point", "coordinates": [ 133.715846136006775, 34.538637233329574 ] } },
{ "type": "Feature", "properties": { "P29_001": "33202", "P29_002": "A133210000361", "P29_003": "16011", "P29_004": "倉敷市立天城幼稚園", "P29_005": "岡山県倉敷市藤戸町天城2276", "P29_006": "3", "P29_007": "0", "P29_008": "00", "P29_009": null }, "geometry": { "type": "Point", "coordinates": [ 133.812732797230069, 34.560510151036375 ] } },
{ "type": "Feature", "properties": { "P29_001": "33202", "P29_002": "A133210000370", "P29_003": "16011", "P29_004": "倉敷市立味野幼稚園", "P29_005": "岡山県倉敷市児島味野城2-1-34", "P29_006": "3", "P29_007": "0", "P29_008": "00", "P29_009": null }, "geometry": { "type": "Point", "coordinates": [ 133.800256945139807, 34.470295903687223 ] } },
{ "type": "Feature", "properties": { "P29_001": "33202", "P29_002": "A133210000398", "P29_003": "16011", "P29_004": "倉敷市立稗田幼稚園", "P29_005": "岡山県倉敷市児島稗田町793", "P29_006": "3", "P29_007": "0", "P29_008": "00", "P29_009": null }, "geometry": { "type": "Point", "coordinates": [ 133.808787217724955, 34.499663846632536 ] } },
{ "type": "Feature", "properties": { "P29_001": "33202", "P29_002": "A133210000414", "P29_003": "16011", "P29_004": "倉敷市立郷内幼稚園", "P29_005": "岡山県倉敷市林870", "P29_006": "3", "P29_007": "0", "P29_008": "00", "P29_009": null }, "geometry": { "type": "Point", "coordinates": [ 133.81585317736085, 34.536084181892505 ] } },
{ "type": "Feature", "properties": { "P29_001": "33202", "P29_002": "A133210000432", "P29_003": "16011", "P29_004": "倉敷市立玉島幼稚園", "P29_005": "岡山県倉敷市玉島中央町3-8-1", "P29_006": "3", "P29_007": "0", "P29_008": "00", "P29_009": null }, "geometry": { "type": "Point", "coordinates": [ 133.667986151666867, 34.544849274178233 ] } },
{ "type": "Feature", "properties": { "P29_001": "33202", "P29_002": "A133210000441", "P29_003": "16011", "P29_004": "倉敷市立上成幼稚園", "P29_005": "岡山県倉敷市玉島上成1143-1", "P29_006": "3", "P29_007": "0", "P29_008": "00", "P29_009": null }, "geometry": { "type": "Point", "coordinates": [ 133.689863573004459, 34.556472900638276 ] } },
{ "type": "Feature", "properties": { "P29_001": "33202", "P29_002": "A133210000469", "P29_003": "16011", "P29_004": "倉敷市立長尾幼稚園", "P29_005": "岡山県倉敷市玉島長尾2608", "P29_006": "3", "P29_007": "0", "P29_008": "00", "P29_009": null }, "geometry": { "type": "Point", "coordinates": [ 133.681901717453513, 34.569749075961582 ] } },
{ "type": "Feature", "properties": { "P29_001": "33202", "P29_002": "A133210000478", "P29_003": "16011", "P29_004": "倉敷市立富田幼稚園", "P29_005": "岡山県倉敷市玉島八島1760-3", "P29_006": "3", "P29_007": "0", "P29_008": "00", "P29_009": null }, "geometry": { "type": "Point", "coordinates": [ 133.658023965966578, 34.560791446431423 ] } },
{ "type": "Feature", "properties": { "P29_001": "33202", "P29_002": "A133210000487", "P29_003": "16011", "P29_004": "倉敷市立中島幼稚園", "P29_005": "岡山県倉敷市中島717", "P29_006": "3", "P29_007": "0", "P29_008": "00", "P29_009": null }, "geometry": { "type": "Point", "coordinates": [ 133.738098852982944, 34.584409937656318 ] } },
{ "type": "Feature", "properties": { "P29_001": "33202", "P29_002": "A133210000496", "P29_003": "16011", "P29_004": "倉敷市立第一福田幼稚園", "P29_005": "岡山県倉敷市東塚3-1-1", "P29_006": "3", "P29_007": "0", "P29_008": "00", "P29_009": null }, "geometry": { "type": "Point", "coordinates": [ 133.756357351312545, 34.527126890015523 ] } },
{ "type": "Feature", "properties": { "P29_001": "33202", "P29_002": "A133210000502", "P29_003": "16011", "P29_004": "倉敷市立葦高幼稚園", "P29_005": "岡山県倉敷市笹沖23", "P29_006": "3", "P29_007": "0", "P29_008": "00", "P29_009": null }, "geometry": { "type": "Point", "coordinates": [ 133.760473612638094, 34.571776829434121 ] } },
{ "type": "Feature", "properties": { "P29_001": "33202", "P29_002": "A133210000511", "P29_003": "16011", "P29_004": "倉敷市立万寿東幼稚園", "P29_005": "岡山県倉敷市大島202-2", "P29_006": "3", "P29_007": "0", "P29_008": "00", "P29_009": null }, "geometry": { "type": "Point", "coordinates": [ 133.781972258389828, 34.606229070066853 ] } },
{ "type": "Feature", "properties": { "P29_001": "33202", "P29_002": "A133210000520", "P29_003": "16011", "P29_004": "倉敷市立倉敷東幼稚園", "P29_005": "岡山県倉敷市鶴形2-8-23", "P29_006": "3", "P29_007": "0", "P29_008": "00", "P29_009": null }, "geometry": { "type": "Point", "coordinates": [ 133.773564173119297, 34.599147478336981 ] } },
{ "type": "Feature", "properties": { "P29_001": "33202", "P29_002": "A133210000539", "P29_003": "16011", "P29_004": "倉敷市立菅生幼稚園", "P29_005": "岡山県倉敷市西坂738", "P29_006": "3", "P29_007": "0", "P29_008": "00", "P29_009": null }, "geometry": { "type": "Point", "coordinates": [ 133.776149300331014, 34.622113629494628 ] } },
{ "type": "Feature", "properties": { "P29_001": "33202", "P29_002": "A133210000548", "P29_003": "16011", "P29_004": "倉敷市立連島西浦幼稚園", "P29_005": "岡山県倉敷市連島町亀島新田126", "P29_006": "3", "P29_007": "0", "P29_008": "00", "P29_009": null }, "geometry": { "type": "Point", "coordinates": [ 133.725388427972206, 34.549104309438725 ] } },
{ "type": "Feature", "properties": { "P29_001": "33202", "P29_002": "A133210000557", "P29_003": "16011", "P29_004": "倉敷市立旭丘幼稚園", "P29_005": "岡山県倉敷市連島町連島2239", "P29_006": "3", "P29_007": "0", "P29_008": "00", "P29_009": null }, "geometry": { "type": "Point", "coordinates": [ 133.743322675954971, 34.563294568547491 ] } },
{ "type": "Feature", "properties": { "P29_001": "33202", "P29_002": "A133210000566", "P29_003": "16011", "P29_004": "倉敷市立豊洲幼稚園", "P29_005": "岡山県倉敷市中帯江148-1", "P29_006": "3", "P29_007": "0", "P29_008": "00", "P29_009": null }, "geometry": { "type": "Point", "coordinates": [ 133.80301540432194, 34.596273947615209 ] } },
{ "type": "Feature", "properties": { "P29_001": "33204", "P29_002": "A133210000575", "P29_003": "16011", "P29_004": "玉野市立日比幼稚園", "P29_005": "岡山県玉野市御崎2-3-7", "P29_006": "3", "P29_007": "0", "P29_008": "00", "P29_009": null }, "geometry": { "type": "Point", "coordinates": [ 133.927886630292221, 34.461010099660648 ] } },
{ "type": "Feature", "properties": { "P29_001": "33204", "P29_002": "A133210000584", "P29_003": "16011", "P29_004": "玉野市立荘内幼稚園", "P29_005": "岡山県玉野市用吉1102", "P29_006": "3", "P29_007": "0", "P29_008": "00", "P29_009": null }, "geometry": { "type": "Point", "coordinates": [ 133.895257004116218, 34.512053995701862 ] } },
{ "type": "Feature", "properties": { "P29_001": "33204", "P29_002": "A133210000593", "P29_003": "16011", "P29_004": "玉野市立宇野幼稚園", "P29_005": "岡山県玉野市宇野2-14-16", "P29_006": "3", "P29_007": "0", "P29_008": "00", "P29_009": null }, "geometry": { "type": "Point", "coordinates": [ 133.942209277246803, 34.490937733168884 ] } },
{ "type": "Feature", "properties": { "P29_001": "33204", "P29_002": "A133210000600", "P29_003": "16011", "P29_004": "玉野市立和田幼稚園", "P29_005": "岡山県玉野市和田6-12-2", "P29_006": "3", "P29_007": "0", "P29_008": "00", "P29_009": null }, "geometry": { "type": "Point", "coordinates": [ 133.917082023348343, 34.472761725863329 ] } },
{ "type": "Feature", "properties": { "P29_001": "33204", "P29_002": "A133210000619", "P29_003": "16011", "P29_004": "玉野市立田井幼稚園", "P29_005": "岡山県玉野市田井3-22-36", "P29_006": "3", "P29_007": "0", "P29_008": "00", "P29_009": null }, "geometry": { "type": "Point", "coordinates": [ 133.948866752969252, 34.516415577174314 ] } },
{ "type": "Feature", "properties": { "P29_001": "33204", "P29_002": "A133210000628", "P29_003": "16011", "P29_004": "玉野市立荘内南幼稚園", "P29_005": "岡山県玉野市滝58", "P29_006": "3", "P29_007": "0", "P29_008": "00", "P29_009": null }, "geometry": { "type": "Point", "coordinates": [ 133.884277553786688, 34.495908729752998 ] } },
{ "type": "Feature", "properties": { "P29_001": "33205", "P29_002": "A133210000637", "P29_003": "16011", "P29_004": "笠岡市立笠岡幼稚園", "P29_005": "岡山県笠岡市笠岡3031-6", "P29_006": "3", "P29_007": "0", "P29_008": "00", "P29_009": null }, "geometry": { "type": "Point", "coordinates": [ 133.508037635405401, 34.509626102585166 ] } },
{ "type": "Feature", "properties": { "P29_001": "33205", "P29_002": "A133210000655", "P29_003": "16011", "P29_004": "笠岡市立金浦幼稚園", "P29_005": "岡山県笠岡市吉浜2253", "P29_006": "3", "P29_007": "0", "P29_008": "00", "P29_009": null }, "geometry": { "type": "Point", "coordinates": [ 133.486255880453825, 34.515764694240879 ] } },
{ "type": "Feature", "properties": { "P29_001": "33205", "P29_002": "A133210000664", "P29_003": "16011", "P29_004": "笠岡市立陶山幼稚園", "P29_005": "岡山県笠岡市押撫915-1", "P29_006": "3", "P29_007": "0", "P29_008": "00", "P29_009": null }, "geometry": { "type": "Point", "coordinates": [ 133.459097437550753, 34.530072112214029 ] } },
{ "type": "Feature", "properties": { "P29_001": "33205", "P29_002": "A133210000673", "P29_003": "16011", "P29_004": "笠岡市立尾坂幼稚園", "P29_005": "岡山県笠岡市尾坂1986", "P29_006": "3", "P29_007": "0", "P29_008": "00", "P29_009": null }, "geometry": { "type": "Point", "coordinates": [ 133.549671885109973, 34.559571911913757 ] } },
{ "type": "Feature", "properties": { "P29_001": "33205", "P29_002": "A133210000682", "P29_003": "16011", "P29_004": "笠岡市立横江幼稚園", "P29_005": "岡山県笠岡市横島1388-1", "P29_006": "3", "P29_007": "0", "P29_008": "00", "P29_009": null }, "geometry": { "type": "Point", "coordinates": [ 133.524501850590156, 34.483018636148664 ] } },
{ "type": "Feature", "properties": { "P29_001": "33205", "P29_002": "A133210000708", "P29_003": "16011", "P29_004": "笠岡市立今井幼稚園", "P29_005": "岡山県笠岡市今立13-5", "P29_006": "3", "P29_007": "0", "P29_008": "00", "P29_009": null }, "geometry": { "type": "Point", "coordinates": [ 133.528452936599734, 34.526864838533442 ] } },
{ "type": "Feature", "properties": { "P29_001": "33205", "P29_002": "A133210000717", "P29_003": "16011", "P29_004": "笠岡市立大島幼稚園", "P29_005": "岡山県笠岡市西大島4431-3", "P29_006": "3", "P29_007": "0", "P29_008": "00", "P29_009": null }, "geometry": { "type": "Point", "coordinates": [ 133.535641252104739, 34.483173784048475 ] } },
{ "type": "Feature", "properties": { "P29_001": "33205", "P29_002": "A133210000726", "P29_003": "16011", "P29_004": "笠岡市立大井幼稚園", "P29_005": "岡山県笠岡市小平井1959-1", "P29_006": "3", "P29_007": "0", "P29_008": "00", "P29_009": null }, "geometry": { "type": "Point", "coordinates": [ 133.50842418007872, 34.538462635130074 ] } },
{ "type": "Feature", "properties": { "P29_001": "33205", "P29_002": "A133210000735", "P29_003": "16011", "P29_004": "笠岡市立北木西幼稚園", "P29_005": "岡山県笠岡市北木島町7887-42", "P29_006": "3", "P29_007": "0", "P29_008": "00", "P29_009": null }, "geometry": { "type": "Point", "coordinates": [ 133.527895640154554, 34.387828396547491 ] } },
{ "type": "Feature", "properties": { "P29_001": "33103", "P29_002": "A133210000753", "P29_003": "16011", "P29_004": "岡山市立可知幼稚園", "P29_005": "岡山県岡山市東区可知1-390", "P29_006": "3", "P29_007": "0", "P29_008": "00", "P29_009": null }, "geometry": { "type": "Point", "coordinates": [ 134.000876849791211, 34.660594475993129 ] } },
{ "type": "Feature", "properties": { "P29_001": "33103", "P29_002": "A133210000762", "P29_003": "16011", "P29_004": "岡山市立政田幼稚園", "P29_005": "岡山県岡山市東区政津961-19", "P29_006": "3", "P29_007": "0", "P29_008": "00", "P29_009": null }, "geometry": { "type": "Point", "coordinates": [ 134.003599766679883, 34.633567948699678 ] } },
{ "type": "Feature", "properties": { "P29_001": "33103", "P29_002": "A133210000771", "P29_003": "16011", "P29_004": "岡山市立開成幼稚園", "P29_005": "岡山県岡山市東区金田1521-1", "P29_006": "3", "P29_007": "0", "P29_008": "00", "P29_009": null }, "geometry": { "type": "Point", "coordinates": [ 134.023519343708557, 34.627130575229685 ] } },
{ "type": "Feature", "properties": { "P29_001": "33103", "P29_002": "A133210000780", "P29_003": "16011", "P29_004": "岡山市立西大寺幼稚園", "P29_005": "岡山県岡山市東区西大寺上1-19-23", "P29_006": "3", "P29_007": "0", "P29_008": "00", "P29_009": null }, "geometry": { "type": "Point", "coordinates": [ 134.031615614007819, 34.6573319446318 ] } },
{ "type": "Feature", "properties": { "P29_001": "33103", "P29_002": "A133210000799", "P29_003": "16011", "P29_004": "岡山市立西大寺南幼稚園", "P29_005": "岡山県岡山市東区金岡西町435-1", "P29_006": "3", "P29_007": "0", "P29_008": "00", "P29_009": null }, "geometry": { "type": "Point", "coordinates": [ 134.025727746844325, 34.642579847556341 ] } },
{ "type": "Feature", "properties": { "P29_001": "33103", "P29_002": "A133210000806", "P29_003": "16011", "P29_004": "岡山市立雄神幼稚園", "P29_005": "岡山県岡山市東区富崎671", "P29_006": "3", "P29_007": "0", "P29_008": "00", "P29_009": null }, "geometry": { "type": "Point", "coordinates": [ 134.042038354681551, 34.67111352625956 ] } },
{ "type": "Feature", "properties": { "P29_001": "33103", "P29_002": "A133210000815", "P29_003": "16011", "P29_004": "岡山市立豊幼稚園", "P29_005": "岡山県岡山市東区西大寺川口279", "P29_006": "3", "P29_007": "0", "P29_008": "00", "P29_009": null }, "geometry": { "type": "Point", "coordinates": [ 134.046341998087797, 34.6492819979389 ] } },
{ "type": "Feature", "properties": { "P29_001": "33207", "P29_002": "A133210000851", "P29_003": "16011", "P29_004": "井原市立高屋幼稚園", "P29_005": "岡山県井原市高屋町1417", "P29_006": "3", "P29_007": "0", "P29_008": "00", "P29_009": null }, "geometry": { "type": "Point", "coordinates": [ 133.430701324308728, 34.585083237920131 ] } },
{ "type": "Feature", "properties": { "P29_001": "33207", "P29_002": "A133210000860", "P29_003": "16011", "P29_004": "井原市立県主幼稚園", "P29_005": "岡山県井原市門田町712-1", "P29_006": "3", "P29_007": "0", "P29_008": "00", "P29_009": null }, "geometry": { "type": "Point", "coordinates": [ 133.485427887504585, 34.570624034579062 ] } },
{ "type": "Feature", "properties": { "P29_001": "33207", "P29_002": "A133210000879", "P29_003": "16011", "P29_004": "井原市立木之子幼稚園", "P29_005": "岡山県井原市木之子町3047-1", "P29_006": "3", "P29_007": "0", "P29_008": "00", "P29_009": null }, "geometry": { "type": "Point", "coordinates": [ 133.498455931221628, 34.587858564329117 ] } },
{ "type": "Feature", "properties": { "P29_001": "33207", "P29_002": "A133210000888", "P29_003": "16011", "P29_004": "井原市立荏原幼稚園", "P29_005": "岡山県井原市東江原町2788-1", "P29_006": "3", "P29_007": "0", "P29_008": "00", "P29_009": null }, "geometry": { "type": "Point", "coordinates": [ 133.511632301117544, 34.602161893032083 ] } },
{ "type": "Feature", "properties": { "P29_001": "33207", "P29_002": "A133210000897", "P29_003": "16011", "P29_004": "井原市立西江原幼稚園", "P29_005": "岡山県井原市西江原町1414", "P29_006": "3", "P29_007": "0", "P29_008": "00", "P29_009": null }, "geometry": { "type": "Point", "coordinates": [ 133.486503453391236, 34.600433169010344 ] } },
{ "type": "Feature", "properties": { "P29_001": "33207", "P29_002": "A133210000904", "P29_003": "16011", "P29_004": "井原市立野上幼稚園", "P29_005": "岡山県井原市野上町3218", "P29_006": "3", "P29_007": "0", "P29_008": "00", "P29_009": null }, "geometry": { "type": "Point", "coordinates": [ 133.499664893030854, 34.641857069966036 ] } },
{ "type": "Feature", "properties": { "P29_001": "33207", "P29_002": "A133210000913", "P29_003": "16011", "P29_004": "井原市立青野幼稚園", "P29_005": "岡山県井原市青野町2575-1", "P29_006": "3", "P29_007": "0", "P29_008": "00", "P29_009": null }, "geometry": { "type": "Point", "coordinates": [ 133.470254367043765, 34.625404690273477 ] } },
{ "type": "Feature", "properties": { "P29_001": "33207", "P29_002": "A133210000922", "P29_003": "16011", "P29_004": "井原市立井原幼稚園", "P29_005": "岡山県井原市井原町1123-5", "P29_006": "3", "P29_007": "0", "P29_008": "00", "P29_009": null }, "geometry": { "type": "Point", "coordinates": [ 133.462026377972677, 34.602973218951711 ] } },
{ "type": "Feature", "properties": { "P29_001": "33207", "P29_002": "A133210000931", "P29_003": "16011", "P29_004": "井原市立出部幼稚園", "P29_005": "岡山県井原市上出部町318", "P29_006": "3", "P29_007": "0", "P29_008": "00", "P29_009": null }, "geometry": { "type": "Point", "coordinates": [ 133.459683903703535, 34.593292238153474 ] } },
{ "type": "Feature", "properties": { "P29_001": "33207", "P29_002": "A133210000940", "P29_003": "16011", "P29_004": "井原市立大江幼稚園", "P29_005": "岡山県井原市大江町2953", "P29_006": "3", "P29_007": "0", "P29_008": "00", "P29_009": null }, "geometry": { "type": "Point", "coordinates": [ 133.441982972470981, 34.572102251216641 ] } },
{ "type": "Feature", "properties": { "P29_001": "33207", "P29_002": "A133210000959", "P29_003": "16011", "P29_004": "井原市立稲倉幼稚園", "P29_005": "岡山県井原市下稲木町949-6", "P29_006": "3", "P29_007": "0", "P29_008": "00", "P29_009": null }, "geometry": { "type": "Point", "coordinates": [ 133.463048685216336, 34.568264254712915 ] } },
{ "type": "Feature", "properties": { "P29_001": "33208", "P29_002": "A133210000968", "P29_003": "16011", "P29_004": "総社市立総社幼稚園", "P29_005": "岡山県総社市総社2-17-15", "P29_006": "3", "P29_007": "0", "P29_008": "00", "P29_009": null }, "geometry": { "type": "Point", "coordinates": [ 133.754059466248094, 34.676121551617221 ] } },
{ "type": "Feature", "properties": { "P29_001": "33208", "P29_002": "A133210000977", "P29_003": "16011", "P29_004": "総社市立常盤幼稚園", "P29_005": "岡山県総社市駅南1-13-8", "P29_006": "3", "P29_007": "0", "P29_008": "00", "P29_009": null }, "geometry": { "type": "Point", "coordinates": [ 133.73842432136837, 34.667588636205792 ] } },
{ "type": "Feature", "properties": { "P29_001": "33208", "P29_002": "A133210000986", "P29_003": "16011", "P29_004": "総社市立三須幼稚園", "P29_005": "岡山県総社市上林303-1", "P29_006": "3", "P29_007": "0", "P29_008": "00", "P29_009": null }, "geometry": { "type": "Point", "coordinates": [ 133.777945806343098, 34.678773237629478 ] } },
{ "type": "Feature", "properties": { "P29_001": "33208", "P29_002": "A133210000995", "P29_003": "16011", "P29_004": "総社市立服部幼稚園", "P29_005": "岡山県総社市窪木885-5", "P29_006": "3", "P29_007": "0", "P29_008": "00", "P29_009": null }, "geometry": { "type": "Point", "coordinates": [ 133.780487885707743, 34.68484478964951 ] } },
{ "type": "Feature", "properties": { "P29_001": "33208", "P29_002": "A133210001002", "P29_003": "16011", "P29_004": "総社市立池田幼稚園", "P29_005": "岡山県総社市見延640", "P29_006": "3", "P29_007": "0", "P29_008": "00", "P29_009": null }, "geometry": { "type": "Point", "coordinates": [ 133.724033444086132, 34.736278567505941 ] } },
{ "type": "Feature", "properties": { "P29_001": "33208", "P29_002": "A133210001011", "P29_003": "16011", "P29_004": "総社市立秦幼稚園", "P29_005": "岡山県総社市秦2987", "P29_006": "3", "P29_007": "0", "P29_008": "00", "P29_009": null }, "geometry": { "type": "Point", "coordinates": [ 133.720444510852673, 34.698268842744682 ] } },
{ "type": "Feature", "properties": { "P29_001": "33208", "P29_002": "A133210001020", "P29_003": "16011", "P29_004": "総社市立神在幼稚園", "P29_005": "岡山県総社市富原407-1", "P29_006": "3", "P29_007": "0", "P29_008": "00", "P29_009": null }, "geometry": { "type": "Point", "coordinates": [ 133.718015407862652, 34.668200648339329 ] } },
{ "type": "Feature", "properties": { "P29_001": "33208", "P29_002": "A133210001039", "P29_003": "16011", "P29_004": "総社市立久代幼稚園", "P29_005": "岡山県総社市久代4584", "P29_006": "3", "P29_007": "0", "P29_008": "00", "P29_009": null }, "geometry": { "type": "Point", "coordinates": [ 133.688250342203929, 34.676045906259105 ] } },
{ "type": "Feature", "properties": { "P29_001": "33208", "P29_002": "A133210001048", "P29_003": "16011", "P29_004": "総社市立山田幼稚園", "P29_005": "岡山県総社市山田205-1", "P29_006": "3", "P29_007": "0", "P29_008": "00", "P29_009": null }, "geometry": { "type": "Point", "coordinates": [ 133.661627275353453, 34.67425444254593 ] } },
{ "type": "Feature", "properties": { "P29_001": "33208", "P29_002": "A133210001057", "P29_003": "16011", "P29_004": "総社市立新本幼稚園", "P29_005": "岡山県総社市新本7274", "P29_006": "3", "P29_007": "0", "P29_008": "00", "P29_009": null }, "geometry": { "type": "Point", "coordinates": [ 133.646206196093488, 34.666312808211281 ] } },
{ "type": "Feature", "properties": { "P29_001": "33208", "P29_002": "A133210001066", "P29_003": "16011", "P29_004": "総社市立総社南幼稚園", "P29_005": "岡山県総社市中央3-9-101", "P29_006": "3", "P29_007": "0", "P29_008": "00", "P29_009": null }, "geometry": { "type": "Point", "coordinates": [ 133.748459011212077, 34.671777576924207 ] } },
{ "type": "Feature", "properties": { "P29_001": "33208", "P29_002": "A133210001075", "P29_003": "16011", "P29_004": "総社市立総社北幼稚園", "P29_005": "岡山県総社市泉1-192", "P29_006": "3", "P29_007": "0", "P29_008": "00", "P29_009": null }, "geometry": { "type": "Point", "coordinates": [ 133.75027943436956, 34.688126946171778 ] } },
{ "type": "Feature", "properties": { "P29_001": "33208", "P29_002": "A133210001084", "P29_003": "16011", "P29_004": "総社市立阿曽幼稚園", "P29_005": "岡山県総社市西阿曽141", "P29_006": "3", "P29_007": "0", "P29_008": "00", "P29_009": null }, "geometry": { "type": "Point", "coordinates": [ 133.785316999366501, 34.704032001152051 ] } },
{ "type": "Feature", "properties": { "P29_001": "33209", "P29_002": "A133210001093", "P29_003": "16011", "P29_004": "高梁市立高梁幼稚園", "P29_005": "岡山県高梁市中之町7", "P29_006": "3", "P29_007": "0", "P29_008": "00", "P29_009": null }, "geometry": { "type": "Point", "coordinates": [ 133.617403314032771, 34.796968267812623 ] } },
{ "type": "Feature", "properties": { "P29_001": "33209", "P29_002": "A133210001119", "P29_003": "16011", "P29_004": "高梁市立玉川幼稚園", "P29_005": "岡山県高梁市玉川町玉1528-2", "P29_006": "3", "P29_007": "0", "P29_008": "00", "P29_009": null }, "geometry": { "type": "Point", "coordinates": [ 133.601613000706578, 34.754037002775156 ] } },
{ "type": "Feature", "properties": { "P29_001": "33209", "P29_002": "A133210001128", "P29_003": "16011", "P29_004": "高梁市立津川幼稚園", "P29_005": "岡山県高梁市津川町今津1069-2", "P29_006": "3", "P29_007": "0", "P29_008": "00", "P29_009": null }, "geometry": { "type": "Point", "coordinates": [ 133.618808583067732, 34.825312911227954 ] } },
{ "type": "Feature", "properties": { "P29_001": "33209", "P29_002": "A133210001137", "P29_003": "16011", "P29_004": "高梁市立川面幼稚園", "P29_005": "岡山県高梁市川面町1801-1", "P29_006": "3", "P29_007": "0", "P29_008": "00", "P29_009": null }, "geometry": { "type": "Point", "coordinates": [ 133.596849781610615, 34.849247432557981 ] } },
{ "type": "Feature", "properties": { "P29_001": "33209", "P29_002": "A133210001146", "P29_003": "16011", "P29_004": "高梁市立松原幼稚園", "P29_005": "岡山県高梁市松原町春木683-2", "P29_006": "3", "P29_007": "0", "P29_008": "00", "P29_009": null }, "geometry": { "type": "Point", "coordinates": [ 133.558183185912185, 34.820462876552483 ] } },
{ "type": "Feature", "properties": { "P29_001": "33209", "P29_002": "A133210001155", "P29_003": "16011", "P29_004": "高梁市立巨瀬幼稚園", "P29_005": "岡山県高梁市巨瀬町4972-5", "P29_006": "3", "P29_007": "0", "P29_008": "00", "P29_009": null }, "geometry": { "type": "Point", "coordinates": [ 133.639878356570108, 34.871323616122901 ] } },
{ "type": "Feature", "properties": { "P29_001": "33209", "P29_002": "A133210001164", "P29_003": "16011", "P29_004": "高梁市立宇治幼稚園", "P29_005": "岡山県高梁市宇治町宇治1677", "P29_006": "3", "P29_007": "0", "P29_008": "00", "P29_009": null }, "geometry": { "type": "Point", "coordinates": [ 133.490258739103126, 34.827040637705203 ] } },
{ "type": "Feature", "properties": { "P29_001": "33209", "P29_002": "A133210001173", "P29_003": "16011", "P29_004": "高梁市立落合幼稚園", "P29_005": "岡山県高梁市落合町阿部1682", "P29_006": "3", "P29_007": "0", "P29_008": "00", "P29_009": null }, "geometry": { "type": "Point", "coordinates": [ 133.58697199750813, 34.778667999478529 ] } },
{ "type": "Feature", "properties": { "P29_001": "33209", "P29_002": "A133210001182", "P29_003": "16011", "P29_004": "高梁市立中井幼稚園", "P29_005": "岡山県高梁市中井町西方301-1", "P29_006": "3", "P29_007": "0", "P29_008": "00", "P29_009": null }, "geometry": { "type": "Point", "coordinates": [ 133.583689642513406, 34.910315775585708 ] } },
{ "type": "Feature", "properties": { "P29_001": "33209", "P29_002": "A133210001191", "P29_003": "16011", "P29_004": "高梁市立福地幼稚園", "P29_005": "岡山県高梁市落合町福地1578", "P29_006": "3", "P29_007": "0", "P29_008": "00", "P29_009": null }, "geometry": { "type": "Point", "coordinates": [ 133.549238582317258, 34.797279081922241 ] } },
{ "type": "Feature", "properties": { "P29_001": "33681", "P29_002": "A133210001208", "P29_003": "16011", "P29_004": "吉備中央町立円城幼稚園", "P29_005": "岡山県加賀郡吉備中央町円城788-1", "P29_006": "3", "P29_007": "0", "P29_008": "00", "P29_009": null }, "geometry": { "type": "Point", "coordinates": [ 133.808007531984231, 34.891321205035169 ] } },
{ "type": "Feature", "properties": { "P29_001": "33681", "P29_002": "A133210001226", "P29_003": "16011", "P29_004": "吉備中央町立御北幼稚園", "P29_005": "岡山県加賀郡吉備中央町豊岡上147-3", "P29_006": "3", "P29_007": "0", "P29_008": "00", "P29_009": null }, "geometry": { "type": "Point", "coordinates": [ 133.761804922408544, 34.897742738185215 ] } },
{ "type": "Feature", "properties": { "P29_001": "33101", "P29_002": "A133210001235", "P29_003": "16011", "P29_004": "岡山市立馬屋下幼稚園", "P29_005": "岡山県岡山市北区大窪50-1", "P29_006": "3", "P29_007": "0", "P29_008": "00", "P29_009": null }, "geometry": { "type": "Point", "coordinates": [ 133.861529867489452, 34.695530993096838 ] } },
{ "type": "Feature", "properties": { "P29_001": "33101", "P29_002": "A133210001244", "P29_003": "16011", "P29_004": "岡山市立平津幼稚園", "P29_005": "岡山県岡山市北区楢津2232-2", "P29_006": "3", "P29_007": "0", "P29_008": "00", "P29_009": null }, "geometry": { "type": "Point", "coordinates": [ 133.883154453049883, 34.681869761208887 ] } },
{ "type": "Feature", "properties": { "P29_001": "33101", "P29_002": "A133210001253", "P29_003": "16011", "P29_004": "岡山市立横井幼稚園", "P29_005": "岡山県岡山市北区横井上194", "P29_006": "3", "P29_007": "0", "P29_008": "00", "P29_009": null }, "geometry": { "type": "Point", "coordinates": [ 133.903747062044914, 34.705994529174689 ] } },
{ "type": "Feature", "properties": { "P29_001": "33213", "P29_002": "A133210001271", "P29_003": "16011", "P29_004": "赤磐市立山陽幼稚園", "P29_005": "岡山県赤磐市高屋434", "P29_006": "3", "P29_007": "0", "P29_008": "00", "P29_009": null }, "geometry": { "type": "Point", "coordinates": [ 134.023844999215413, 34.75830100060179 ] } },
{ "type": "Feature", "properties": { "P29_001": "33213", "P29_002": "A133210001280", "P29_003": "16011", "P29_004": "赤磐市立ひかり幼稚園", "P29_005": "岡山県赤磐市桜が丘西3-30", "P29_006": "3", "P29_007": "0", "P29_008": "00", "P29_009": null }, "geometry": { "type": "Point", "coordinates": [ 134.039869102251856, 34.774588202162583 ] } },
{ "type": "Feature", "properties": { "P29_001": "33213", "P29_002": "A133210001299", "P29_003": "16011", "P29_004": "赤磐市立山陽北幼稚園", "P29_005": "岡山県赤磐市桜が丘西9-13-1", "P29_006": "3", "P29_007": "0", "P29_008": "00", "P29_009": null }, "geometry": { "type": "Point", "coordinates": [ 134.031180241378394, 34.781319164603609 ] } },
{ "type": "Feature", "properties": { "P29_001": "33213", "P29_002": "A133210001306", "P29_003": "16011", "P29_004": "赤磐市立山陽西幼稚園", "P29_005": "岡山県赤磐市山陽3-10", "P29_006": "3", "P29_007": "0", "P29_008": "00", "P29_009": null }, "geometry": { "type": "Point", "coordinates": [ 134.007585469131584, 34.750001739448379 ] } },
{ "type": "Feature", "properties": { "P29_001": "33213", "P29_002": "A133210001315", "P29_003": "16011", "P29_004": "赤磐市立桜が丘幼稚園", "P29_005": "岡山県赤磐市桜が丘東6-6-692", "P29_006": "3", "P29_007": "0", "P29_008": "00", "P29_009": null }, "geometry": { "type": "Point", "coordinates": [ 134.043177878516019, 34.789548296216019 ] } },
{ "type": "Feature", "properties": { "P29_001": "33213", "P29_002": "A133210001324", "P29_003": "16011", "P29_004": "赤磐市立いわなし幼稚園", "P29_005": "岡山県赤磐市沢原357", "P29_006": "3", "P29_007": "0", "P29_008": "00", "P29_009": null }, "geometry": { "type": "Point", "coordinates": [ 134.079676997476895, 34.802036999529996 ] } },
{ "type": "Feature", "properties": { "P29_001": "33346", "P29_002": "A133210001333", "P29_003": "16011", "P29_004": "和気町立本荘にこにこ園", "P29_005": "岡山県和気郡和気町衣笠570", "P29_006": "3", "P29_007": "0", "P29_008": "00", "P29_009": null }, "geometry": { "type": "Point", "coordinates": [ 134.164518822398747, 34.795477061717492 ] } },
{ "type": "Feature", "properties": { "P29_001": "33346", "P29_002": "A133210001342", "P29_003": "16011", "P29_004": "和気町立和気にこにこ園", "P29_005": "岡山県和気郡和気町藤野463", "P29_006": "3", "P29_007": "0", "P29_008": "00", "P29_009": null }, "geometry": { "type": "Point", "coordinates": [ 134.174493447566391, 34.810156159040098 ] } },
{ "type": "Feature", "properties": { "P29_001": "33346", "P29_002": "A133210001351", "P29_003": "16011", "P29_004": "和気町立佐伯にこにこ園", "P29_005": "岡山県和気郡和気町矢田418-1", "P29_006": "3", "P29_007": "0", "P29_008": "00", "P29_009": null }, "geometry": { "type": "Point", "coordinates": [ 134.097468871740773, 34.850577856878971 ] } },
{ "type": "Feature", "properties": { "P29_001": "33212", "P29_002": "A133210001360", "P29_003": "16011", "P29_004": "瀬戸内市立牛窓東幼稚園", "P29_005": "岡山県瀬戸内市牛窓町牛窓4433-8", "P29_006": "3", "P29_007": "0", "P29_008": "00", "P29_009": null }, "geometry": { "type": "Point", "coordinates": [ 134.156149003240188, 34.616702998281106 ] } },
{ "type": "Feature", "properties": { "P29_001": "33212", "P29_002": "A133210001379", "P29_003": "16011", "P29_004": "瀬戸内市立牛窓西幼稚園", "P29_005": "岡山県瀬戸内市牛窓町鹿忍2205", "P29_006": "3", "P29_007": "0", "P29_008": "00", "P29_009": null }, "geometry": { "type": "Point", "coordinates": [ 134.133376889431418, 34.617743466310422 ] } },
{ "type": "Feature", "properties": { "P29_001": "33212", "P29_002": "A133210001397", "P29_003": "16011", "P29_004": "瀬戸内市立邑久幼稚園", "P29_005": "岡山県瀬戸内市邑久町山田庄736", "P29_006": "3", "P29_007": "0", "P29_008": "00", "P29_009": null }, "geometry": { "type": "Point", "coordinates": [ 134.09678240646835, 34.666648161410997 ] } },
{ "type": "Feature", "properties": { "P29_001": "33212", "P29_002": "A133210001413", "P29_003": "16011", "P29_004": "瀬戸内市立美和幼稚園", "P29_005": "岡山県瀬戸内市長船町東須恵1666", "P29_006": "3", "P29_007": "0", "P29_008": "00", "P29_009": null }, "geometry": { "type": "Point", "coordinates": [ 134.142680102265587, 34.685825832801093 ] } },
{ "type": "Feature", "properties": { "P29_001": "33212", "P29_002": "A133210001422", "P29_003": "16011", "P29_004": "瀬戸内市立国府幼稚園", "P29_005": "岡山県瀬戸内市長船町福里839", "P29_006": "3", "P29_007": "0", "P29_008": "00", "P29_009": null }, "geometry": { "type": "Point", "coordinates": [ 134.121110292458951, 34.697832112420116 ] } },
{ "type": "Feature", "properties": { "P29_001": "33212", "P29_002": "A133210001431", "P29_003": "16011", "P29_004": "瀬戸内市立行幸幼稚園", "P29_005": "岡山県瀬戸内市長船町服部160-1", "P29_006": "3", "P29_007": "0", "P29_008": "00", "P29_009": null }, "geometry": { "type": "Point", "coordinates": [ 134.098747125695979, 34.708319728880674 ] } },
{ "type": "Feature", "properties": { "P29_001": "33103", "P29_002": "A133210001440", "P29_003": "16011", "P29_004": "岡山市立平島幼稚園", "P29_005": "岡山県岡山市東区東平島1269-3", "P29_006": "3", "P29_007": "0", "P29_008": "00", "P29_009": null }, "geometry": { "type": "Point", "coordinates": [ 134.048535995625969, 34.714247998219328 ] } },
{ "type": "Feature", "properties": { "P29_001": "33103", "P29_002": "A133210001459", "P29_003": "16011", "P29_004": "岡山市立御休幼稚園", "P29_005": "岡山県岡山市東区西祖187-1", "P29_006": "3", "P29_007": "0", "P29_008": "00", "P29_009": null }, "geometry": { "type": "Point", "coordinates": [ 134.072640279243501, 34.709060149090384 ] } },
{ "type": "Feature", "properties": { "P29_001": "33103", "P29_002": "A133210001468", "P29_003": "16011", "P29_004": "岡山市立角山幼稚園", "P29_005": "岡山県岡山市東区才崎360-1", "P29_006": "3", "P29_007": "0", "P29_008": "00", "P29_009": null }, "geometry": { "type": "Point", "coordinates": [ 134.063701319382233, 34.691875049760576 ] } },
{ "type": "Feature", "properties": { "P29_001": "33101", "P29_002": "A133210001486", "P29_003": "16011", "P29_004": "岡山市立吉備東幼稚園", "P29_005": "岡山県岡山市北区庭瀬210-2", "P29_006": "3", "P29_007": "0", "P29_008": "00", "P29_009": null }, "geometry": { "type": "Point", "coordinates": [ 133.851206108193168, 34.648198782824977 ] } },
{ "type": "Feature", "properties": { "P29_001": "33101", "P29_002": "A133210001495", "P29_003": "16011", "P29_004": "岡山市立吉備西幼稚園", "P29_005": "岡山県岡山市北区撫川1243-2", "P29_006": "3", "P29_007": "0", "P29_008": "00", "P29_009": null }, "geometry": { "type": "Point", "coordinates": [ 133.841462999292986, 34.642136001506408 ] } },
{ "type": "Feature", "properties": { "P29_001": "33423", "P29_002": "A133210001501", "P29_003": "16011", "P29_004": "早島町立早島幼稚園", "P29_005": "岡山県都窪郡早島町前潟138", "P29_006": "3", "P29_007": "0", "P29_008": "00", "P29_009": null }, "geometry": { "type": "Point", "coordinates": [ 133.825638998669433, 34.602192996189721 ] } },
{ "type": "Feature", "properties": { "P29_001": "33104", "P29_002": "A133210001529", "P29_003": "16011", "P29_004": "岡山市立福田幼稚園", "P29_005": "岡山県岡山市南区古新田1190-1", "P29_006": "3", "P29_007": "0", "P29_008": "00", "P29_009": null }, "geometry": { "type": "Point", "coordinates": [ 133.872330765722353, 34.625382720531718 ] } },
{ "type": "Feature", "properties": { "P29_001": "33208", "P29_002": "A133210001538", "P29_003": "16011", "P29_004": "総社市立山手幼稚園", "P29_005": "岡山県総社市岡谷627", "P29_006": "3", "P29_007": "0", "P29_008": "00", "P29_009": null }, "geometry": { "type": "Point", "coordinates": [ 133.769914558083201, 34.656135271910003 ] } },
{ "type": "Feature", "properties": { "P29_001": "33202", "P29_002": "A133210001547", "P29_003": "16011", "P29_004": "倉敷市立船穂幼稚園", "P29_005": "岡山県倉敷市船穂町船穂2864", "P29_006": "3", "P29_007": "0", "P29_008": "00", "P29_009": null }, "geometry": { "type": "Point", "coordinates": [ 133.706927714557025, 34.585980434883133 ] } },
{ "type": "Feature", "properties": { "P29_001": "33216", "P29_002": "A133210001556", "P29_003": "16011", "P29_004": "浅口市立金光幼稚園", "P29_005": "岡山県浅口市金光町占見新田288-1", "P29_006": "3", "P29_007": "0", "P29_008": "00", "P29_009": null }, "geometry": { "type": "Point", "coordinates": [ 133.618220504735035, 34.542197686451658 ] } },
{ "type": "Feature", "properties": { "P29_001": "33216", "P29_002": "A133210001565", "P29_003": "16011", "P29_004": "浅口市立鴨方東幼稚園", "P29_005": "岡山県浅口市鴨方町鴨方141", "P29_006": "3", "P29_007": "0", "P29_008": "00", "P29_009": null }, "geometry": { "type": "Point", "coordinates": [ 133.588712591815607, 34.545238431152285 ] } },
{ "type": "Feature", "properties": { "P29_001": "33216", "P29_002": "A133210001574", "P29_003": "16011", "P29_004": "浅口市立鴨方西幼稚園", "P29_005": "岡山県浅口市鴨方町小坂東2207", "P29_006": "3", "P29_007": "0", "P29_008": "00", "P29_009": null }, "geometry": { "type": "Point", "coordinates": [ 133.568352237098338, 34.548681413483656 ] } },
{ "type": "Feature", "properties": { "P29_001": "33445", "P29_002": "A133210001583", "P29_003": "16011", "P29_004": "里庄町立里庄東幼稚園", "P29_005": "岡山県浅口郡里庄町里見6606-3", "P29_006": "3", "P29_007": "0", "P29_008": "00", "P29_009": null }, "geometry": { "type": "Point", "coordinates": [ 133.56833700344157, 34.521289001952077 ] } },
{ "type": "Feature", "properties": { "P29_001": "33445", "P29_002": "A133210001592", "P29_003": "16011", "P29_004": "里庄町立里庄西幼稚園", "P29_005": "岡山県浅口郡里庄町新庄5774", "P29_006": "3", "P29_007": "0", "P29_008": "00", "P29_009": null }, "geometry": { "type": "Point", "coordinates": [ 133.54517799557658, 34.502312999802335 ] } },
{ "type": "Feature", "properties": { "P29_001": "33207", "P29_002": "A133210001609", "P29_003": "16011", "P29_004": "井原市立美星幼稚園", "P29_005": "岡山県井原市美星町大字大倉2456-5", "P29_006": "3", "P29_007": "0", "P29_008": "00", "P29_009": null }, "geometry": { "type": "Point", "coordinates": [ 133.533545000726974, 34.674321004693589 ] } },
{ "type": "Feature", "properties": { "P29_001": "33207", "P29_002": "A133210001618", "P29_003": "16011", "P29_004": "井原市立芳井幼稚園", "P29_005": "岡山県井原市芳井町吉井4103-1", "P29_006": "3", "P29_007": "0", "P29_008": "00", "P29_009": null }, "geometry": { "type": "Point", "coordinates": [ 133.432605044960724, 34.628931622986897 ] } },
{ "type": "Feature", "properties": { "P29_001": "33101", "P29_002": "A133210001627", "P29_003": "16011", "P29_004": "岡山市立鯉山幼稚園", "P29_005": "岡山県岡山市北区吉備津1736-5", "P29_006": "3", "P29_007": "0", "P29_008": "00", "P29_009": null }, "geometry": { "type": "Point", "coordinates": [ 133.844935094068234, 34.670304872015471 ] } },
{ "type": "Feature", "properties": { "P29_001": "33101", "P29_002": "A133210001636", "P29_003": "16011", "P29_004": "岡山市立加茂幼稚園", "P29_005": "岡山県岡山市北区加茂1104-1", "P29_006": "3", "P29_007": "0", "P29_008": "00", "P29_009": null }, "geometry": { "type": "Point", "coordinates": [ 133.822826996085666, 34.67590999815971 ] } },
{ "type": "Feature", "properties": { "P29_001": "33101", "P29_002": "A133210001654", "P29_003": "16011", "P29_004": "岡山市立足守幼稚園", "P29_005": "岡山県岡山市北区足守1588-1", "P29_006": "3", "P29_007": "0", "P29_008": "00", "P29_009": null }, "geometry": { "type": "Point", "coordinates": [ 133.805587940438102, 34.724227891750978 ] } },
{ "type": "Feature", "properties": { "P29_001": "33202", "P29_002": "A133210001663", "P29_003": "16011", "P29_004": "倉敷市立二万幼稚園", "P29_005": "岡山県倉敷市真備町上二万2493", "P29_006": "3", "P29_007": "0", "P29_008": "00", "P29_009": null }, "geometry": { "type": "Point", "coordinates": [ 133.708284996448441, 34.607556685608849 ] } },
{ "type": "Feature", "properties": { "P29_001": "33202", "P29_002": "A133210001672", "P29_003": "16011", "P29_004": "倉敷市立箭田幼稚園", "P29_005": "岡山県倉敷市真備町箭田1858", "P29_006": "3", "P29_007": "0", "P29_008": "00", "P29_009": null }, "geometry": { "type": "Point", "coordinates": [ 133.688095288755534, 34.629868556121707 ] } },
{ "type": "Feature", "properties": { "P29_001": "33202", "P29_002": "A133210001681", "P29_003": "16011", "P29_004": "倉敷市立呉妹幼稚園", "P29_005": "岡山県倉敷市真備町尾崎2418-1", "P29_006": "3", "P29_007": "0", "P29_008": "00", "P29_009": null }, "geometry": { "type": "Point", "coordinates": [ 133.656917770080184, 34.624243945464073 ] } },
{ "type": "Feature", "properties": { "P29_001": "33202", "P29_002": "A133210001690", "P29_003": "16011", "P29_004": "倉敷市立川辺幼稚園", "P29_005": "岡山県倉敷市真備町川辺718", "P29_006": "3", "P29_007": "0", "P29_008": "00", "P29_009": null }, "geometry": { "type": "Point", "coordinates": [ 133.721535448987566, 34.639446361156494 ] } },
{ "type": "Feature", "properties": { "P29_001": "33202", "P29_002": "A133210001707", "P29_003": "16011", "P29_004": "倉敷市立岡田幼稚園", "P29_005": "岡山県倉敷市真備町岡田625-2", "P29_006": "3", "P29_007": "0", "P29_008": "00", "P29_009": null }, "geometry": { "type": "Point", "coordinates": [ 133.705976698446392, 34.646275868369862 ] } },
{ "type": "Feature", "properties": { "P29_001": "33202", "P29_002": "A133210001716", "P29_003": "16011", "P29_004": "倉敷市立薗幼稚園", "P29_005": "岡山県倉敷市真備町市場4351", "P29_006": "3", "P29_007": "0", "P29_008": "00", "P29_009": null }, "geometry": { "type": "Point", "coordinates": [ 133.693594813684314, 34.648175108396714 ] } },
{ "type": "Feature", "properties": { "P29_001": "33208", "P29_002": "A133210001725", "P29_003": "16011", "P29_004": "総社市立昭和幼稚園", "P29_005": "岡山県総社市美袋245-1", "P29_006": "3", "P29_007": "0", "P29_008": "00", "P29_009": null }, "geometry": { "type": "Point", "coordinates": [ 133.654507489916284, 34.719072968157079 ] } },
{ "type": "Feature", "properties": { "P29_001": "33208", "P29_002": "A133210001734", "P29_003": "16011", "P29_004": "総社市立維新幼稚園", "P29_005": "岡山県総社市原2257-1", "P29_006": "3", "P29_007": "0", "P29_008": "00", "P29_009": null }, "geometry": { "type": "Point", "coordinates": [ 133.634346927829711, 34.728768654408505 ] } },
{ "type": "Feature", "properties": { "P29_001": "33214", "P29_002": "A133210001761", "P29_003": "16011", "P29_004": "真庭市立草加部幼稚園", "P29_005": "岡山県真庭市草加部538", "P29_006": "3", "P29_007": "0", "P29_008": "00", "P29_009": null }, "geometry": { "type": "Point", "coordinates": [ 133.719625701418408, 35.080862618198985 ] } },
{ "type": "Feature", "properties": { "P29_001": "33606", "P29_002": "A133210001770", "P29_003": "16011", "P29_004": "鏡野町立郷幼稚園", "P29_005": "岡山県苫田郡鏡野町薪森原721-1", "P29_006": "3", "P29_007": "0", "P29_008": "00", "P29_009": null }, "geometry": { "type": "Point", "coordinates": [ 133.909590232109167, 35.080042310980495 ] } },
{ "type": "Feature", "properties": { "P29_001": "33623", "P29_002": "A133210001798", "P29_003": "16011", "P29_004": "奈義町立滝川つくし幼稚園", "P29_005": "岡山県勝田郡奈義町滝本1444-2", "P29_006": "3", "P29_007": "0", "P29_008": "00", "P29_009": null }, "geometry": { "type": "Point", "coordinates": [ 134.157220937547947, 35.11807748548582 ] } },
{ "type": "Feature", "properties": { "P29_001": "33623", "P29_002": "A133210001805", "P29_003": "16011", "P29_004": "奈義町立中央東幼稚園", "P29_005": "岡山県勝田郡奈義町行方430-2", "P29_006": "3", "P29_007": "0", "P29_008": "00", "P29_009": null }, "geometry": { "type": "Point", "coordinates": [ 134.193957038354796, 35.128977894901475 ] } },
{ "type": "Feature", "properties": { "P29_001": "33215", "P29_002": "A133210001823", "P29_003": "16011", "P29_004": "美作市立土居幼稚園", "P29_005": "岡山県美作市土居174", "P29_006": "3", "P29_007": "0", "P29_008": "00", "P29_009": null }, "geometry": { "type": "Point", "coordinates": [ 134.266179888804061, 34.989231674425227 ] } },
{ "type": "Feature", "properties": { "P29_001": "33215", "P29_002": "A133210001832", "P29_003": "16011", "P29_004": "美作市立英田幼稚園", "P29_005": "岡山県美作市福本708-1", "P29_006": "3", "P29_007": "0", "P29_008": "00", "P29_009": null }, "geometry": { "type": "Point", "coordinates": [ 134.125137004366024, 34.934620995349164 ] } },
{ "type": "Feature", "properties": { "P29_001": "33643", "P29_002": "A133210001850", "P29_003": "16011", "P29_004": "西粟倉村立西粟倉幼稚園", "P29_005": "岡山県英田郡西粟倉村長尾1567", "P29_006": "3", "P29_007": "0", "P29_008": "00", "P29_009": null }, "geometry": { "type": "Point", "coordinates": [ 134.336475060627947, 35.166735666702124 ] } },
{ "type": "Feature", "properties": { "P29_001": "33102", "P29_002": "A133210001869", "P29_003": "16011", "P29_004": "岡山市立竜之口幼稚園", "P29_005": "岡山県岡山市中区四御神266", "P29_006": "3", "P29_007": "0", "P29_008": "00", "P29_009": null }, "geometry": { "type": "Point", "coordinates": [ 133.9749802678582, 34.693611676481083 ] } },
{ "type": "Feature", "properties": { "P29_001": "33104", "P29_002": "A133210001878", "P29_003": "16011", "P29_004": "岡山市立芳明幼稚園", "P29_005": "岡山県岡山市南区万倍98", "P29_006": "3", "P29_007": "0", "P29_008": "00", "P29_009": null }, "geometry": { "type": "Point", "coordinates": [ 133.900552337891639, 34.627965850065053 ] } },
{ "type": "Feature", "properties": { "P29_001": "33101", "P29_002": "A133210001896", "P29_003": "16011", "P29_004": "岡山市立桃丘幼稚園", "P29_005": "岡山県岡山市北区芳賀5112-2", "P29_006": "3", "P29_007": "0", "P29_008": "00", "P29_009": null }, "geometry": { "type": "Point", "coordinates": [ 133.877892205816238, 34.709091081337441 ] } },
{ "type": "Feature", "properties": { "P29_001": "33202", "P29_002": "A133210001903", "P29_003": "16011", "P29_004": "倉敷市立茶屋町東幼稚園", "P29_005": "岡山県倉敷市茶屋町早沖442", "P29_006": "3", "P29_007": "0", "P29_008": "00", "P29_009": null }, "geometry": { "type": "Point", "coordinates": [ 133.829219139372526, 34.582699557171253 ] } },
{ "type": "Feature", "properties": { "P29_001": "33202", "P29_002": "A133210001912", "P29_003": "16011", "P29_004": "倉敷市立茶屋町西幼稚園", "P29_005": "岡山県倉敷市茶屋町291-5", "P29_006": "3", "P29_007": "0", "P29_008": "00", "P29_009": null }, "geometry": { "type": "Point", "coordinates": [ 133.822635872320518, 34.575696250571724 ] } },
{ "type": "Feature", "properties": { "P29_001": "33203", "P29_002": "A133210001921", "P29_003": "16011", "P29_004": "津山市立つやま東幼稚園", "P29_005": "岡山県津山市高野本郷1270-1", "P29_006": "3", "P29_007": "0", "P29_008": "00", "P29_009": null }, "geometry": { "type": "Point", "coordinates": [ 134.050348823698528, 35.072687925296052 ] } },
{ "type": "Feature", "properties": { "P29_001": "33203", "P29_002": "A133210001930", "P29_003": "16011", "P29_004": "津山市立つやま西幼稚園", "P29_005": "岡山県津山市二宮1982-2", "P29_006": "3", "P29_007": "0", "P29_008": "00", "P29_009": null }, "geometry": { "type": "Point", "coordinates": [ 133.968607889011622, 35.060640775930146 ] } },
{ "type": "Feature", "properties": { "P29_001": "33101", "P29_002": "A133310000010", "P29_003": "16011", "P29_004": "岡山聖園マリア幼稚園", "P29_005": "岡山県岡山市北区天神町6-34", "P29_006": "4", "P29_007": "0", "P29_008": "00", "P29_009": null }, "geometry": { "type": "Point", "coordinates": [ 133.928564231942858, 34.667824770389352 ] } },
{ "type": "Feature", "properties": { "P29_001": "33101", "P29_002": "A133310000029", "P29_003": "16011", "P29_004": "学校法人みその学園岡山聖園幼稚園", "P29_005": "岡山県岡山市北区清輝橋3-8-26", "P29_006": "4", "P29_007": "0", "P29_008": "00", "P29_009": null }, "geometry": { "type": "Point", "coordinates": [ 133.923813001728718, 34.648082001549369 ] } },
{ "type": "Feature", "properties": { "P29_001": "33101", "P29_002": "A133310000038", "P29_003": "16011", "P29_004": "内山下幼稚園", "P29_005": "岡山県岡山市北区丸の内2-6-5", "P29_006": "4", "P29_007": "0", "P29_008": "00", "P29_009": null }, "geometry": { "type": "Point", "coordinates": [ 133.934280994067393, 34.663319996243303 ] } },
{ "type": "Feature", "properties": { "P29_001": "33104", "P29_002": "A133310000047", "P29_003": "16011", "P29_004": "あけぼの幼稚園", "P29_005": "岡山県岡山市南区築港栄町23-32", "P29_006": "4", "P29_007": "0", "P29_008": "00", "P29_009": null }, "geometry": { "type": "Point", "coordinates": [ 133.943261110480648, 34.605798245268751 ] } },
{ "type": "Feature", "properties": { "P29_001": "33101", "P29_002": "A133310000056", "P29_003": "16011", "P29_004": "つしま幼稚園", "P29_005": "岡山県岡山市北区津島南1-3-9", "P29_006": "4", "P29_007": "0", "P29_008": "00", "P29_009": null }, "geometry": { "type": "Point", "coordinates": [ 133.913314824836107, 34.682171571027226 ] } },
{ "type": "Feature", "properties": { "P29_001": "33101", "P29_002": "A133310000065", "P29_003": "16011", "P29_004": "ノートルダム清心女子大学附属幼稚園", "P29_005": "岡山県岡山市北区伊福町2-16-9", "P29_006": "4", "P29_007": "0", "P29_008": "00", "P29_009": null }, "geometry": { "type": "Point", "coordinates": [ 133.915351357936601, 34.672552835188938 ] } },
{ "type": "Feature", "properties": { "P29_001": "33104", "P29_002": "A133310000074", "P29_003": "16011", "P29_004": "第一ひかり幼稚園", "P29_005": "岡山県岡山市南区築港新町2-17-10", "P29_006": "4", "P29_007": "0", "P29_008": "00", "P29_009": null }, "geometry": { "type": "Point", "coordinates": [ 133.935261998855822, 34.603267996923549 ] } },
{ "type": "Feature", "properties": { "P29_001": "33102", "P29_002": "A133310000083", "P29_003": "16011", "P29_004": "山陽学園短期大学附属幼稚園", "P29_005": "岡山県岡山市中区平井1-13-69", "P29_006": "4", "P29_007": "0", "P29_008": "00", "P29_009": null }, "geometry": { "type": "Point", "coordinates": [ 133.943625602641418, 34.644550894064672 ] } },
{ "type": "Feature", "properties": { "P29_001": "33104", "P29_002": "A133310000092", "P29_003": "16011", "P29_004": "第二ひかり幼稚園", "P29_005": "岡山県岡山市南区浦安本町33", "P29_006": "4", "P29_007": "0", "P29_008": "00", "P29_009": null }, "geometry": { "type": "Point", "coordinates": [ 133.931343366013465, 34.610108154367019 ] } },
{ "type": "Feature", "properties": { "P29_001": "33101", "P29_002": "A133310000109", "P29_003": "16011", "P29_004": "中仙道幼稚園", "P29_005": "岡山県岡山市北区中仙道2-10-17", "P29_006": "4", "P29_007": "0", "P29_008": "00", "P29_009": null }, "geometry": { "type": "Point", "coordinates": [ 133.883960391132575, 34.645615035344584 ] } },
{ "type": "Feature", "properties": { "P29_001": "33104", "P29_002": "A133310000118", "P29_003": "16011", "P29_004": "朝日塾幼稚園", "P29_005": "岡山県岡山市南区万倍30-20", "P29_006": "4", "P29_007": "0", "P29_008": "00", "P29_009": null }, "geometry": { "type": "Point", "coordinates": [ 133.900161969396663, 34.625049127323514 ] } },
{ "type": "Feature", "properties": { "P29_001": "33103", "P29_002": "A133310000127", "P29_003": "16011", "P29_004": "学校法人のぞみ学園　しいのみ幼稚園", "P29_005": "岡山県岡山市東区上道北方590", "P29_006": "4", "P29_007": "0", "P29_008": "00", "P29_009": null }, "geometry": { "type": "Point", "coordinates": [ 134.020742433082518, 34.695501428826233 ] } },
{ "type": "Feature", "properties": { "P29_001": "33202", "P29_002": "A133310000136", "P29_003": "16011", "P29_004": "認定こども園竹中幼稚園", "P29_005": "岡山県倉敷市鶴形1-5-15", "P29_006": "4", "P29_007": "0", "P29_008": "00", "P29_009": null }, "geometry": { "type": "Point", "coordinates": [ 133.770839559709913, 34.600600829359614 ] } },
{ "type": "Feature", "properties": { "P29_001": "33202", "P29_002": "A133310000145", "P29_003": "16011", "P29_004": "御国幼稚園", "P29_005": "岡山県倉敷市阿知3-20-7", "P29_006": "4", "P29_007": "0", "P29_008": "00", "P29_009": null }, "geometry": { "type": "Point", "coordinates": [ 133.76855897681321, 34.597996995318198 ] } },
{ "type": "Feature", "properties": { "P29_001": "33202", "P29_002": "A133310000154", "P29_003": "16011", "P29_004": "同心幼稚園", "P29_005": "岡山県倉敷市北浜町5-7", "P29_006": "4", "P29_007": "0", "P29_008": "00", "P29_009": null }, "geometry": { "type": "Point", "coordinates": [ 133.764589362527886, 34.608657500145739 ] } },
{ "type": "Feature", "properties": { "P29_001": "33202", "P29_002": "A133310000163", "P29_003": "16011", "P29_004": "慈愛幼稚園", "P29_005": "岡山県倉敷市水島南幸町1-9", "P29_006": "4", "P29_007": "0", "P29_008": "00", "P29_009": null }, "geometry": { "type": "Point", "coordinates": [ 133.739856683991349, 34.537908917957786 ] } },
{ "type": "Feature", "properties": { "P29_001": "33202", "P29_002": "A133310000172", "P29_003": "16011", "P29_004": "みのり幼稚園", "P29_005": "岡山県倉敷市酒津1711-1", "P29_006": "4", "P29_007": "0", "P29_008": "00", "P29_009": null }, "geometry": { "type": "Point", "coordinates": [ 133.750662945629159, 34.617019926487671 ] } },
{ "type": "Feature", "properties": { "P29_001": "33202", "P29_002": "A133310000181", "P29_003": "16011", "P29_004": "しらゆり幼稚園", "P29_005": "岡山県倉敷市中庄団地5-4", "P29_006": "4", "P29_007": "0", "P29_008": "00", "P29_009": null }, "geometry": { "type": "Point", "coordinates": [ 133.790113264470875, 34.613077649331231 ] } },
{ "type": "Feature", "properties": { "P29_001": "33202", "P29_002": "A133310000190", "P29_003": "16011", "P29_004": "まこと幼稚園", "P29_005": "岡山県倉敷市鶴の浦1-4-11", "P29_006": "4", "P29_007": "0", "P29_008": "00", "P29_009": null }, "geometry": { "type": "Point", "coordinates": [ 133.706383375930045, 34.548859355619683 ] } },
{ "type": "Feature", "properties": { "P29_001": "33202", "P29_002": "A133310000207", "P29_003": "16011", "P29_004": "勇崎幼稚園", "P29_005": "岡山県倉敷市玉島勇崎984", "P29_006": "4", "P29_007": "0", "P29_008": "00", "P29_009": null }, "geometry": { "type": "Point", "coordinates": [ 133.655356409325037, 34.520794265556269 ] } },
{ "type": "Feature", "properties": { "P29_001": "33202", "P29_002": "A133310000216", "P29_003": "16011", "P29_004": "認定こども園海星幼稚園", "P29_005": "岡山県倉敷市玉島中央町1-4-20", "P29_006": "4", "P29_007": "0", "P29_008": "00", "P29_009": null }, "geometry": { "type": "Point", "coordinates": [ 133.672916884653688, 34.545930770962052 ] } },
{ "type": "Feature", "properties": { "P29_001": "33202", "P29_002": "A133310000225", "P29_003": "16011", "P29_004": "敬愛幼稚園", "P29_005": "岡山県倉敷市玉島黒崎4591", "P29_006": "4", "P29_007": "0", "P29_008": "00", "P29_009": null }, "geometry": { "type": "Point", "coordinates": [ 133.647419504914126, 34.507138676904873 ] } },
{ "type": "Feature", "properties": { "P29_001": "33202", "P29_002": "A133310000234", "P29_003": "16011", "P29_004": "認定こども園第二まこと幼稚園", "P29_005": "岡山県倉敷市鶴の浦2-3-10", "P29_006": "4", "P29_007": "0", "P29_008": "00", "P29_009": null }, "geometry": { "type": "Point", "coordinates": [ 133.706909699734297, 34.545628422581771 ] } },
{ "type": "Feature", "properties": { "P29_001": "33202", "P29_002": "A133310000243", "P29_003": "16011", "P29_004": "倉敷マリア・インマクラダ幼稚園", "P29_005": "岡山県倉敷市北畝2-17-37", "P29_006": "4", "P29_007": "0", "P29_008": "00", "P29_009": null }, "geometry": { "type": "Point", "coordinates": [ 133.748970807569123, 34.54315730069051 ] } },
{ "type": "Feature", "properties": { "P29_001": "33202", "P29_002": "A133310000252", "P29_003": "16011", "P29_004": "第二敬愛幼稚園", "P29_005": "岡山県倉敷市玉島柏台2-7-16", "P29_006": "4", "P29_007": "0", "P29_008": "00", "P29_009": null }, "geometry": { "type": "Point", "coordinates": [ 133.648134956074244, 34.532229438568294 ] } },
{ "type": "Feature", "properties": { "P29_001": "33202", "P29_002": "A133310000261", "P29_003": "16011", "P29_004": "奈良佐保短期大学附属倉敷幼稚園", "P29_005": "岡山県倉敷市徳芳869-116", "P29_006": "4", "P29_007": "0", "P29_008": "00", "P29_009": null }, "geometry": { "type": "Point", "coordinates": [ 133.820073145494661, 34.623829569446137 ] } },
{ "type": "Feature", "properties": { "P29_001": "33202", "P29_002": "A133310000270", "P29_003": "16011", "P29_004": "認定こども園あさひ幼稚園", "P29_005": "岡山県倉敷市東塚7-13-13", "P29_006": "4", "P29_007": "0", "P29_008": "00", "P29_009": null }, "geometry": { "type": "Point", "coordinates": [ 133.769070527632636, 34.524608948316448 ] } },
{ "type": "Feature", "properties": { "P29_001": "33203", "P29_002": "A133310000289", "P29_003": "16011", "P29_004": "明星幼稚園", "P29_005": "岡山県津山市平福875-1", "P29_006": "4", "P29_007": "0", "P29_008": "00", "P29_009": null }, "geometry": { "type": "Point", "coordinates": [ 133.965697520269003, 35.046174312304878 ] } },
{ "type": "Feature", "properties": { "P29_001": "33203", "P29_002": "A133310000298", "P29_003": "16011", "P29_004": "美作大学附属幼稚園", "P29_005": "岡山県津山市北園町75", "P29_006": "4", "P29_007": "0", "P29_008": "00", "P29_009": null }, "geometry": { "type": "Point", "coordinates": [ 134.007490491908754, 35.075366503751134 ] } },
{ "type": "Feature", "properties": { "P29_001": "33102", "P29_002": "A133310000305", "P29_003": "16011", "P29_004": "就実大学・就実短期大学附属幼稚園", "P29_005": "岡山県岡山市中区西川原15-1", "P29_006": "4", "P29_007": "0", "P29_008": "00", "P29_009": null }, "geometry": { "type": "Point", "coordinates": [ 133.935029941057934, 34.679057864106341 ] } }
]
}
