{
"type": "FeatureCollection",
"name": "geo_33_幼保連携型認定こども園",
"crs": { "type": "name", "properties": { "name": "urn:ogc:def:crs:EPSG::6668" } },
"features": [
{ "type": "Feature", "properties": { "P29_001": "33210", "P29_002": "A233210000011", "P29_003": "16013", "P29_004": "新見市立新見中央認定こども園", "P29_005": "岡山県新見市新見1874", "P29_006": "3", "P29_007": "0", "P29_008": "00", "P29_009": null }, "geometry": { "type": "Point", "coordinates": [ 133.473125935458938, 34.986286178913367 ] } },
{ "type": "Feature", "properties": { "P29_001": "33210", "P29_002": "A233210000020", "P29_003": "16013", "P29_004": "新見市立上市認定こども園", "P29_005": "岡山県新見市上市433", "P29_006": "3", "P29_007": "0", "P29_008": "00", "P29_009": null }, "geometry": { "type": "Point", "coordinates": [ 133.432491728724273, 35.00882907070887 ] } },
{ "type": "Feature", "properties": { "P29_001": "33210", "P29_002": "A233210000039", "P29_003": "16013", "P29_004": "新見市立熊谷認定こども園", "P29_005": "岡山県新見市上熊谷3761-2", "P29_006": "3", "P29_007": "0", "P29_008": "00", "P29_009": null }, "geometry": { "type": "Point", "coordinates": [ 133.512055364580931, 35.017553841279437 ] } },
{ "type": "Feature", "properties": { "P29_001": "33211", "P29_002": "A233210000048", "P29_003": "16013", "P29_004": "備前市立片上認定こども園", "P29_005": "岡山県備前市西片上335", "P29_006": "3", "P29_007": "0", "P29_008": "00", "P29_009": null }, "geometry": { "type": "Point", "coordinates": [ 134.182162684659005, 34.749120844787129 ] } },
{ "type": "Feature", "properties": { "P29_001": "33211", "P29_002": "A233210000057", "P29_003": "16013", "P29_004": "備前市立伊里認定こども園", "P29_005": "岡山県備前市友延1-2", "P29_006": "3", "P29_007": "0", "P29_008": "00", "P29_009": null }, "geometry": { "type": "Point", "coordinates": [ 134.22554020651728, 34.747282701940335 ] } },
{ "type": "Feature", "properties": { "P29_001": "33211", "P29_002": "A233210000066", "P29_003": "16013", "P29_004": "備前市立三石認定こども園", "P29_005": "岡山県備前市三石54-1", "P29_006": "3", "P29_007": "0", "P29_008": "00", "P29_009": null }, "geometry": { "type": "Point", "coordinates": [ 134.271168332869479, 34.801168264576738 ] } },
{ "type": "Feature", "properties": { "P29_001": "33210", "P29_002": "A233210000075", "P29_003": "16013", "P29_004": "新見市立大佐認定こども園", "P29_005": "岡山県新見市大佐小阪部1509-1", "P29_006": "3", "P29_007": "0", "P29_008": "00", "P29_009": null }, "geometry": { "type": "Point", "coordinates": [ 133.566563637919728, 35.08232133936594 ] } },
{ "type": "Feature", "properties": { "P29_001": "33210", "P29_002": "A233210000084", "P29_003": "16013", "P29_004": "新見市立神代認定こども園", "P29_005": "岡山県新見市神郷下神代3952", "P29_006": "3", "P29_007": "0", "P29_008": "00", "P29_009": null }, "geometry": { "type": "Point", "coordinates": [ 133.39658368234214, 34.993578551794783 ] } },
{ "type": "Feature", "properties": { "P29_001": "33210", "P29_002": "A233210000093", "P29_003": "16013", "P29_004": "新見市立哲西認定こども園", "P29_005": "岡山県新見市哲西町矢田3604", "P29_006": "3", "P29_007": "0", "P29_008": "00", "P29_009": null }, "geometry": { "type": "Point", "coordinates": [ 133.331486843859125, 34.933186553404397 ] } },
{ "type": "Feature", "properties": { "P29_001": "33214", "P29_002": "A233210000100", "P29_003": "16013", "P29_004": "真庭市立河内こども園", "P29_005": "岡山県真庭市中河内2125-1", "P29_006": "3", "P29_007": "0", "P29_008": "00", "P29_009": null }, "geometry": { "type": "Point", "coordinates": [ 133.800179012153848, 35.048722241300588 ] } },
{ "type": "Feature", "properties": { "P29_001": "33214", "P29_002": "A233210000119", "P29_003": "16013", "P29_004": "真庭市立美川こども園", "P29_005": "岡山県真庭市栗原780-2", "P29_006": "3", "P29_007": "0", "P29_008": "00", "P29_009": null }, "geometry": { "type": "Point", "coordinates": [ 133.699195998379821, 34.985648002245725 ] } },
{ "type": "Feature", "properties": { "P29_001": "33214", "P29_002": "A233210000128", "P29_003": "16013", "P29_004": "真庭市立落合こども園", "P29_005": "岡山県真庭市落合垂水938-1", "P29_006": "3", "P29_007": "0", "P29_008": "00", "P29_009": null }, "geometry": { "type": "Point", "coordinates": [ 133.745701713916048, 35.013410251657142 ] } },
{ "type": "Feature", "properties": { "P29_001": "33101", "P29_002": "A233210000137", "P29_003": "16013", "P29_004": "岡山市中山認定こども園", "P29_005": "岡山県岡山市北区一宮638-3", "P29_006": "3", "P29_007": "0", "P29_008": "00", "P29_009": null }, "geometry": { "type": "Point", "coordinates": [ 133.867603869339348, 34.676803543419048 ] } },
{ "type": "Feature", "properties": { "P29_001": "33101", "P29_002": "A233210000146", "P29_003": "16013", "P29_004": "岡山市御津金川認定こども園", "P29_005": "岡山県岡山市北区御津金川476", "P29_006": "3", "P29_007": "0", "P29_008": "00", "P29_009": null }, "geometry": { "type": "Point", "coordinates": [ 133.931642709578654, 34.796593774876591 ] } },
{ "type": "Feature", "properties": { "P29_001": "33103", "P29_002": "A233210000155", "P29_003": "16013", "P29_004": "岡山市太伯認定こども園", "P29_005": "岡山県岡山市東区神崎町22-1", "P29_006": "3", "P29_007": "0", "P29_008": "00", "P29_009": null }, "geometry": { "type": "Point", "coordinates": [ 134.058765075561325, 34.629157592264818 ] } },
{ "type": "Feature", "properties": { "P29_001": "33104", "P29_002": "A233210000164", "P29_003": "16013", "P29_004": "岡山市灘崎認定こども園", "P29_005": "岡山県岡山市南区片岡188", "P29_006": "3", "P29_007": "0", "P29_008": "00", "P29_009": null }, "geometry": { "type": "Point", "coordinates": [ 133.866648019132384, 34.543292015163232 ] } },
{ "type": "Feature", "properties": { "P29_001": "33202", "P29_002": "A233210000173", "P29_003": "16013", "P29_004": "倉敷市立中洲認定こども園", "P29_005": "岡山県倉敷市水江1594-1", "P29_006": "3", "P29_007": "0", "P29_008": "00", "P29_009": null }, "geometry": { "type": "Point", "coordinates": [ 133.744207156501659, 34.595412010334073 ] } },
{ "type": "Feature", "properties": { "P29_001": "33208", "P29_002": "A233210000182", "P29_003": "16013", "P29_004": "総社市立きよね認定こども園", "P29_005": "岡山県総社市清音軽部762", "P29_006": "3", "P29_007": "0", "P29_008": "00", "P29_009": null }, "geometry": { "type": "Point", "coordinates": [ 133.738357992049174, 34.650377637371768 ] } },
{ "type": "Feature", "properties": { "P29_001": "33209", "P29_002": "A233210000191", "P29_003": "16013", "P29_004": "高梁市立有漢こども園", "P29_005": "岡山県高梁市有漢町有漢3328-3", "P29_006": "3", "P29_007": "0", "P29_008": "00", "P29_009": null }, "geometry": { "type": "Point", "coordinates": [ 133.660826556703228, 34.903771824088736 ] } },
{ "type": "Feature", "properties": { "P29_001": "33209", "P29_002": "A233210000208", "P29_003": "16013", "P29_004": "高梁市立川上こども園", "P29_005": "岡山県高梁市川上町地頭1365", "P29_006": "3", "P29_007": "0", "P29_008": "00", "P29_009": null }, "geometry": { "type": "Point", "coordinates": [ 133.484749794644387, 34.740841319079536 ] } },
{ "type": "Feature", "properties": { "P29_001": "33101", "P29_002": "A233210000217", "P29_003": "16013", "P29_004": "岡山市岡南認定こども園", "P29_005": "岡山県岡山市北区七日市西町1-14", "P29_006": "3", "P29_007": "0", "P29_008": "00", "P29_009": null }, "geometry": { "type": "Point", "coordinates": [ 133.927937454841555, 34.64123740061558 ] } },
{ "type": "Feature", "properties": { "P29_001": "33202", "P29_002": "A233210000226", "P29_003": "16013", "P29_004": "倉敷市立柳田認定こども園", "P29_005": "岡山県倉敷市児島小川9-3-1", "P29_006": "3", "P29_007": "0", "P29_008": "00", "P29_009": null }, "geometry": { "type": "Point", "coordinates": [ 133.801725317691506, 34.491128764075043 ] } },
{ "type": "Feature", "properties": { "P29_001": "33202", "P29_002": "A233210000235", "P29_003": "16013", "P29_004": "倉敷市立穂井田認定こども園", "P29_005": "岡山県倉敷市玉島陶1852-1", "P29_006": "3", "P29_007": "0", "P29_008": "00", "P29_009": null }, "geometry": { "type": "Point", "coordinates": [ 133.674387401911247, 34.590336958583464 ] } },
{ "type": "Feature", "properties": { "P29_001": "33202", "P29_002": "A233210000244", "P29_003": "16013", "P29_004": "倉敷市立乙島東認定こども園", "P29_005": "岡山県倉敷市玉島乙島7416-6", "P29_006": "3", "P29_007": "0", "P29_008": "00", "P29_009": null }, "geometry": { "type": "Point", "coordinates": [ 133.680707180639502, 34.529943638137532 ] } },
{ "type": "Feature", "properties": { "P29_001": "33203", "P29_002": "A233210000253", "P29_003": "16013", "P29_004": "津山市立勝北風の子こども園", "P29_005": "岡山県津山市新野東600-1", "P29_006": "3", "P29_007": "0", "P29_008": "00", "P29_009": null }, "geometry": { "type": "Point", "coordinates": [ 134.108971134618969, 35.105578271443058 ] } },
{ "type": "Feature", "properties": { "P29_001": "33214", "P29_002": "A233210000262", "P29_003": "16013", "P29_004": "真庭市立天の川こども園", "P29_005": "岡山県真庭市野川797", "P29_006": "3", "P29_007": "0", "P29_008": "00", "P29_009": null }, "geometry": { "type": "Point", "coordinates": [ 133.75809932951816, 35.050287812714586 ] } },
{ "type": "Feature", "properties": { "P29_001": "33216", "P29_002": "A233210000271", "P29_003": "16013", "P29_004": "浅口市立寄島こども園", "P29_005": "岡山県浅口市寄島町16089-4", "P29_006": "3", "P29_007": "0", "P29_008": "00", "P29_009": null }, "geometry": { "type": "Point", "coordinates": [ 133.585544878733884, 34.479394610363165 ] } },
{ "type": "Feature", "properties": { "P29_001": "33101", "P29_002": "A233210000280", "P29_003": "16013", "P29_004": "岡山市建部認定こども園", "P29_005": "岡山県岡山市北区建部町市場330", "P29_006": "3", "P29_007": "0", "P29_008": "00", "P29_009": null }, "geometry": { "type": "Point", "coordinates": [ 133.901704643916048, 34.852384209927926 ] } },
{ "type": "Feature", "properties": { "P29_001": "33202", "P29_002": "A233210000299", "P29_003": "16013", "P29_004": "倉敷市立琴浦西認定こども園", "P29_005": "岡山県倉敷市児島下の町5-3-15", "P29_006": "3", "P29_007": "0", "P29_008": "00", "P29_009": null }, "geometry": { "type": "Point", "coordinates": [ 133.822042437378741, 34.478659931275601 ] } },
{ "type": "Feature", "properties": { "P29_001": "33210", "P29_002": "A233210000306", "P29_003": "16013", "P29_004": "新見市立新見南認定こども園", "P29_005": "岡山県新見市正田27-5", "P29_006": "3", "P29_007": "0", "P29_008": "00", "P29_009": null }, "geometry": { "type": "Point", "coordinates": [ 133.465555859592882, 34.968117164474172 ] } },
{ "type": "Feature", "properties": { "P29_001": "33211", "P29_002": "A233210000315", "P29_003": "16013", "P29_004": "備前市立吉永認定こども園", "P29_005": "岡山県備前市吉永町吉永中484-1", "P29_006": "3", "P29_007": "0", "P29_008": "00", "P29_009": null }, "geometry": { "type": "Point", "coordinates": [ 134.205600269479163, 34.811727941647248 ] } },
{ "type": "Feature", "properties": { "P29_001": "33216", "P29_002": "A233210000324", "P29_003": "16013", "P29_004": "浅口市立六条院こども園", "P29_005": "岡山県浅口市鴨方町六条院中2072", "P29_006": "3", "P29_007": "0", "P29_008": "00", "P29_009": null }, "geometry": { "type": "Point", "coordinates": [ 133.582812996931352, 34.523316997448468 ] } },
{ "type": "Feature", "properties": { "P29_001": "33101", "P29_002": "A233210000333", "P29_003": "16013", "P29_004": "岡山市南方岡山中央認定こども園", "P29_005": "岡山県岡山市北区南方1-3-30", "P29_006": "3", "P29_007": "0", "P29_008": "00", "P29_009": null }, "geometry": { "type": "Point", "coordinates": [ 133.923787534086387, 34.673046590895915 ] } },
{ "type": "Feature", "properties": { "P29_001": "33104", "P29_002": "A233210000342", "P29_003": "16013", "P29_004": "岡山市甲浦認定こども園", "P29_005": "岡山県岡山市南区飽浦322-1", "P29_006": "3", "P29_007": "0", "P29_008": "00", "P29_009": null }, "geometry": { "type": "Point", "coordinates": [ 133.971741041625137, 34.591423757379239 ] } },
{ "type": "Feature", "properties": { "P29_001": "33103", "P29_002": "A233210000351", "P29_003": "16013", "P29_004": "岡山市千種認定こども園", "P29_005": "岡山県岡山市東区瀬戸町鍛冶屋178-1", "P29_006": "3", "P29_007": "0", "P29_008": "00", "P29_009": null }, "geometry": { "type": "Point", "coordinates": [ 134.072797948604915, 34.759911151908845 ] } },
{ "type": "Feature", "properties": { "P29_001": "33104", "P29_002": "A233210000360", "P29_003": "16013", "P29_004": "岡山市興除認定こども園", "P29_005": "岡山県岡山市南区中畦645-11", "P29_006": "3", "P29_007": "0", "P29_008": "00", "P29_009": null }, "geometry": { "type": "Point", "coordinates": [ 133.856309708680698, 34.591963607790404 ] } },
{ "type": "Feature", "properties": { "P29_001": "33104", "P29_002": "A233210000379", "P29_003": "16013", "P29_004": "岡山市錦認定こども園", "P29_005": "岡山県岡山市南区藤田610-11", "P29_006": "3", "P29_007": "0", "P29_008": "00", "P29_009": null }, "geometry": { "type": "Point", "coordinates": [ 133.893931740432294, 34.606453734738608 ] } },
{ "type": "Feature", "properties": { "P29_001": "33211", "P29_002": "A233210000388", "P29_003": "16013", "P29_004": "備前市立香登認定こども園", "P29_005": "岡山県備前市香登本1059", "P29_006": "3", "P29_007": "0", "P29_008": "00", "P29_009": null }, "geometry": { "type": "Point", "coordinates": [ 134.122588846853404, 34.733085128277992 ] } },
{ "type": "Feature", "properties": { "P29_001": "33214", "P29_002": "A233210000397", "P29_003": "16013", "P29_004": "真庭市立北房こども園", "P29_005": "岡山県真庭市下呰部289", "P29_006": "3", "P29_007": "0", "P29_008": "00", "P29_009": null }, "geometry": { "type": "Point", "coordinates": [ 133.632653076398952, 34.963535085304414 ] } },
{ "type": "Feature", "properties": { "P29_001": "33215", "P29_002": "A233210000404", "P29_003": "16013", "P29_004": "美作市立湯郷こども園", "P29_005": "岡山県美作市湯郷67-1", "P29_006": "3", "P29_007": "0", "P29_008": "00", "P29_009": null }, "geometry": { "type": "Point", "coordinates": [ 134.139703846948578, 34.996505843396214 ] } },
{ "type": "Feature", "properties": { "P29_001": "33681", "P29_002": "A233210000413", "P29_003": "16013", "P29_004": "吉備中央町立吉備高原こども園", "P29_005": "岡山県加賀郡吉備中央町竹部7520-25", "P29_006": "3", "P29_007": "0", "P29_008": "00", "P29_009": null }, "geometry": { "type": "Point", "coordinates": [ 133.763262737584654, 34.838757427396899 ] } },
{ "type": "Feature", "properties": { "P29_001": "33214", "P29_002": "A233210000422", "P29_003": "16013", "P29_004": "真庭市立久世こども園", "P29_005": "岡山県真庭市鍋屋111-1", "P29_006": "3", "P29_007": "0", "P29_008": "00", "P29_009": null }, "geometry": { "type": "Point", "coordinates": [ 133.752212056173477, 35.081265151243628 ] } },
{ "type": "Feature", "properties": { "P29_001": "33101", "P29_002": "A233210000431", "P29_003": "16013", "P29_004": "岡山市伊島認定こども園", "P29_005": "岡山県岡山市北区いずみ町9-18", "P29_006": "3", "P29_007": "0", "P29_008": "00", "P29_009": null }, "geometry": { "type": "Point", "coordinates": [ 133.914042641066828, 34.676865089404416 ] } },
{ "type": "Feature", "properties": { "P29_001": "33208", "P29_002": "A233210000440", "P29_003": "16013", "P29_004": "総社市立いじりの認定こども園", "P29_005": "岡山県総社市井尻野1722", "P29_006": "3", "P29_007": "0", "P29_008": "00", "P29_009": null }, "geometry": { "type": "Point", "coordinates": [ 133.736361008918777, 34.680111664184601 ] } },
{ "type": "Feature", "properties": { "P29_001": "33209", "P29_002": "A233210000459", "P29_003": "16013", "P29_004": "高梁市立成羽こども園", "P29_005": "岡山県高梁市成羽町成羽2251-1", "P29_006": "3", "P29_007": "0", "P29_008": "00", "P29_009": null }, "geometry": { "type": "Point", "coordinates": [ 133.531685399838267, 34.786522923744378 ] } },
{ "type": "Feature", "properties": { "P29_001": "33211", "P29_002": "A233210000468", "P29_003": "16013", "P29_004": "備前市立伊部認定こども園", "P29_005": "岡山県備前市伊部1808-1", "P29_006": "3", "P29_007": "0", "P29_008": "00", "P29_009": null }, "geometry": { "type": "Point", "coordinates": [ 134.164389009912185, 34.738181358826957 ] } },
{ "type": "Feature", "properties": { "P29_001": "33211", "P29_002": "A233210000477", "P29_003": "16013", "P29_004": "備前市立東鶴山認定こども園", "P29_005": "岡山県備前市佐山2616", "P29_006": "3", "P29_007": "0", "P29_008": "00", "P29_009": null }, "geometry": { "type": "Point", "coordinates": [ 134.18167789471957, 34.700257854238757 ] } },
{ "type": "Feature", "properties": { "P29_001": "33101", "P29_002": "A233210000486", "P29_003": "16013", "P29_004": "岡山市今認定こども園", "P29_005": "岡山県岡山市北区今7-16-43", "P29_006": "3", "P29_007": "0", "P29_008": "00", "P29_009": null }, "geometry": { "type": "Point", "coordinates": [ 133.893298598199721, 34.641770074366619 ] } },
{ "type": "Feature", "properties": { "P29_001": "33101", "P29_002": "A233210000495", "P29_003": "16013", "P29_004": "岡山市鹿田認定こども園", "P29_005": "岡山県岡山市北区大供表町16-10", "P29_006": "3", "P29_007": "0", "P29_008": "00", "P29_009": null }, "geometry": { "type": "Point", "coordinates": [ 133.913418801894522, 34.652986576752753 ] } },
{ "type": "Feature", "properties": { "P29_001": "33102", "P29_002": "A233210000501", "P29_003": "16013", "P29_004": "岡山市旭竜認定こども園", "P29_005": "岡山県岡山市中区高島1-5-7", "P29_006": "3", "P29_007": "0", "P29_008": "00", "P29_009": null }, "geometry": { "type": "Point", "coordinates": [ 133.950558351687022, 34.684499650611883 ] } },
{ "type": "Feature", "properties": { "P29_001": "33102", "P29_002": "A233210000510", "P29_003": "16013", "P29_004": "岡山市宇野認定こども園", "P29_005": "岡山県岡山市中区西川原351-12", "P29_006": "3", "P29_007": "0", "P29_008": "00", "P29_009": null }, "geometry": { "type": "Point", "coordinates": [ 133.941148354594475, 34.675853827736397 ] } },
{ "type": "Feature", "properties": { "P29_001": "33202", "P29_002": "A233210000529", "P29_003": "16013", "P29_004": "倉敷市立第五福田認定こども園", "P29_005": "岡山県倉敷市水島東千鳥町4-21", "P29_006": "3", "P29_007": "0", "P29_008": "00", "P29_009": null }, "geometry": { "type": "Point", "coordinates": [ 133.741516521827549, 34.531290963627228 ] } },
{ "type": "Feature", "properties": { "P29_001": "33205", "P29_002": "A233210000538", "P29_003": "16013", "P29_004": "笠岡市立青空認定こども園", "P29_005": "岡山県笠岡市カブト南町188", "P29_006": "3", "P29_007": "0", "P29_008": "00", "P29_009": null }, "geometry": { "type": "Point", "coordinates": [ 133.507216013732744, 34.47013399695328 ] } },
{ "type": "Feature", "properties": { "P29_001": "33211", "P29_002": "A233210000547", "P29_003": "16013", "P29_004": "備前市立日生認定こども園", "P29_005": "岡山県備前市日生町寒河380-36", "P29_006": "3", "P29_007": "0", "P29_008": "00", "P29_009": null }, "geometry": { "type": "Point", "coordinates": [ 134.294588865786721, 34.740744224713474 ] } },
{ "type": "Feature", "properties": { "P29_001": "33461", "P29_002": "A233210000556", "P29_003": "16013", "P29_004": "矢掛町立矢掛認定こども園", "P29_005": "岡山県小田郡矢掛町矢掛2540-1", "P29_006": "3", "P29_007": "0", "P29_008": "00", "P29_009": null }, "geometry": { "type": "Point", "coordinates": [ 133.589651386637854, 34.627086729082123 ] } },
{ "type": "Feature", "properties": { "P29_001": "33101", "P29_002": "A233210000565", "P29_003": "16013", "P29_004": "岡山市陵南認定こども園", "P29_005": "岡山県岡山市北区東花尻266-1", "P29_006": "3", "P29_007": "0", "P29_008": "00", "P29_009": null }, "geometry": { "type": "Point", "coordinates": [ 133.862745002215775, 34.651160000682125 ] } },
{ "type": "Feature", "properties": { "P29_001": "33202", "P29_002": "A233210000574", "P29_003": "16013", "P29_004": "倉敷市立庄認定こども園", "P29_005": "岡山県倉敷市上東1051-1", "P29_006": "3", "P29_007": "0", "P29_008": "00", "P29_009": null }, "geometry": { "type": "Point", "coordinates": [ 133.825777999611489, 34.644747000499898 ] } },
{ "type": "Feature", "properties": { "P29_001": "33214", "P29_002": "A233210000583", "P29_003": "16013", "P29_004": "真庭市立米来こども園", "P29_005": "岡山県真庭市目木1804", "P29_006": "3", "P29_007": "0", "P29_008": "00", "P29_009": null }, "geometry": { "type": "Point", "coordinates": [ 133.778367602642049, 35.077970797993558 ] } },
{ "type": "Feature", "properties": { "P29_001": "33215", "P29_002": "A233210000592", "P29_003": "16013", "P29_004": "美作市立むさしこども園", "P29_005": "岡山県美作市宮本82-1", "P29_006": "3", "P29_007": "0", "P29_008": "00", "P29_009": null }, "geometry": { "type": "Point", "coordinates": [ 134.325316996353649, 35.09543099711383 ] } },
{ "type": "Feature", "properties": { "P29_001": "33215", "P29_002": "A233210000609", "P29_003": "16013", "P29_004": "美作市立美作北こども園", "P29_005": "岡山県美作市楢原中277-1", "P29_006": "3", "P29_007": "0", "P29_008": "00", "P29_009": null }, "geometry": { "type": "Point", "coordinates": [ 134.172580438137402, 35.027493074884859 ] } },
{ "type": "Feature", "properties": { "P29_001": "33101", "P29_002": "A233210000618", "P29_003": "16013", "P29_004": "岡山市庄内認定こども園", "P29_005": "岡山県岡山市北区三手15-1", "P29_006": "3", "P29_007": "0", "P29_008": "00", "P29_009": null }, "geometry": { "type": "Point", "coordinates": [ 133.815108868695489, 34.686943197779584 ] } },
{ "type": "Feature", "properties": { "P29_001": "33104", "P29_002": "A233210000627", "P29_003": "16013", "P29_004": "岡山市妹尾認定こども園", "P29_005": "岡山県岡山市南区箕島1024-2", "P29_006": "3", "P29_007": "0", "P29_008": "00", "P29_009": null }, "geometry": { "type": "Point", "coordinates": [ 133.860401655763923, 34.610652503569071 ] } },
{ "type": "Feature", "properties": { "P29_001": "33205", "P29_002": "A233210000636", "P29_003": "16013", "P29_004": "笠岡市立ひまわり認定こども園", "P29_005": "岡山県笠岡市八番町1-8", "P29_006": "3", "P29_007": "0", "P29_008": "00", "P29_009": null }, "geometry": { "type": "Point", "coordinates": [ 133.520536552485765, 34.494886139493502 ] } },
{ "type": "Feature", "properties": { "P29_001": "33101", "P29_002": "A233210000645", "P29_003": "16013", "P29_004": "岡山市野谷認定こども園", "P29_005": "岡山県岡山市北区栢谷1724-3", "P29_006": "3", "P29_007": "0", "P29_008": "00", "P29_009": null }, "geometry": { "type": "Point", "coordinates": [ 133.903359406433282, 34.731280537975067 ] } },
{ "type": "Feature", "properties": { "P29_001": "33202", "P29_002": "A233210000654", "P29_003": "16013", "P29_004": "倉敷市立田の口認定こども園", "P29_005": "岡山県倉敷市児島田の口3-13-16", "P29_006": "3", "P29_007": "0", "P29_008": "00", "P29_009": null }, "geometry": { "type": "Point", "coordinates": [ 133.84510293974688, 34.473559835371738 ] } },
{ "type": "Feature", "properties": { "P29_001": "33210", "P29_002": "A233210000663", "P29_003": "16013", "P29_004": "新見市立哲多認定こども園", "P29_005": "岡山県新見市哲多町本郷678", "P29_006": "3", "P29_007": "0", "P29_008": "00", "P29_009": null }, "geometry": { "type": "Point", "coordinates": [ 133.451804100288228, 34.938838400420032 ] } },
{ "type": "Feature", "properties": { "P29_001": "33202", "P29_002": "A233310000019", "P29_003": "16013", "P29_004": "くらしき作陽大学附属認定こども園", "P29_005": "岡山県倉敷市玉島長尾3524-5", "P29_006": "4", "P29_007": "0", "P29_008": "00", "P29_009": null }, "geometry": { "type": "Point", "coordinates": [ 133.679064909489398, 34.576066886580172 ] } },
{ "type": "Feature", "properties": { "P29_001": "33202", "P29_002": "A233310000028", "P29_003": "16013", "P29_004": "幼保連携型認定こども園小ざくら保育園", "P29_005": "岡山県倉敷市水島北幸町2-3", "P29_006": "4", "P29_007": "0", "P29_008": "00", "P29_009": null }, "geometry": { "type": "Point", "coordinates": [ 133.7410577544604, 34.541178886414997 ] } },
{ "type": "Feature", "properties": { "P29_001": "33101", "P29_002": "A233310000037", "P29_003": "16013", "P29_004": "認定こども園白ゆり", "P29_005": "岡山県岡山市北区辛川市場321-1", "P29_006": "4", "P29_007": "0", "P29_008": "00", "P29_009": null }, "geometry": { "type": "Point", "coordinates": [ 133.866986532365303, 34.685966091602602 ] } },
{ "type": "Feature", "properties": { "P29_001": "33216", "P29_002": "A233310000046", "P29_003": "16013", "P29_004": "金光学園こども園", "P29_005": "岡山県浅口市金光町大谷499-1", "P29_006": "4", "P29_007": "0", "P29_008": "00", "P29_009": null }, "geometry": { "type": "Point", "coordinates": [ 133.62433096162269, 34.536773656651761 ] } },
{ "type": "Feature", "properties": { "P29_001": "33101", "P29_002": "A233310000055", "P29_003": "16013", "P29_004": "岡北学園", "P29_005": "岡山県岡山市北区津島東2-2-20", "P29_006": "4", "P29_007": "0", "P29_008": "00", "P29_009": null }, "geometry": { "type": "Point", "coordinates": [ 133.92781700933341, 34.689692733301762 ] } },
{ "type": "Feature", "properties": { "P29_001": "33101", "P29_002": "A233310000064", "P29_003": "16013", "P29_004": "若草幼児舎", "P29_005": "岡山県岡山市北区富町2-14-9", "P29_006": "4", "P29_007": "0", "P29_008": "00", "P29_009": null }, "geometry": { "type": "Point", "coordinates": [ 133.908908306795183, 34.664731195005615 ] } },
{ "type": "Feature", "properties": { "P29_001": "33103", "P29_002": "A233310000073", "P29_003": "16013", "P29_004": "めぐみ幼保連携型認定こども園", "P29_005": "岡山県岡山市東区久保408-1", "P29_006": "4", "P29_007": "0", "P29_008": "00", "P29_009": null }, "geometry": { "type": "Point", "coordinates": [ 134.04387846056531, 34.664557910835377 ] } },
{ "type": "Feature", "properties": { "P29_001": "33103", "P29_002": "A233310000082", "P29_003": "16013", "P29_004": "めぐみ第二幼保連携型認定こども園", "P29_005": "岡山県岡山市東区久保411-1", "P29_006": "4", "P29_007": "0", "P29_008": "00", "P29_009": null }, "geometry": { "type": "Point", "coordinates": [ 134.044027171950773, 34.664450032705005 ] } },
{ "type": "Feature", "properties": { "P29_001": "33203", "P29_002": "A233310000091", "P29_003": "16013", "P29_004": "幼保連携型認定こども園しらゆり幼稚園", "P29_005": "岡山県津山市上河原153", "P29_006": "4", "P29_007": "0", "P29_008": "00", "P29_009": null }, "geometry": { "type": "Point", "coordinates": [ 134.005573258228821, 35.081219267276055 ] } },
{ "type": "Feature", "properties": { "P29_001": "33101", "P29_002": "A233310000108", "P29_003": "16013", "P29_004": "御南認定こども園", "P29_005": "岡山県岡山市北区今保247-1", "P29_006": "4", "P29_007": "0", "P29_008": "00", "P29_009": null }, "geometry": { "type": "Point", "coordinates": [ 133.87316426357782, 34.640507837029837 ] } },
{ "type": "Feature", "properties": { "P29_001": "33102", "P29_002": "A233310000117", "P29_003": "16013", "P29_004": "こども園城東チャイルドセンター", "P29_005": "岡山県岡山市中区長利194-1", "P29_006": "4", "P29_007": "0", "P29_008": "00", "P29_009": null }, "geometry": { "type": "Point", "coordinates": [ 133.998988287894662, 34.677601652717321 ] } },
{ "type": "Feature", "properties": { "P29_001": "33213", "P29_002": "A233310000126", "P29_003": "16013", "P29_004": "いちょうの森こども園", "P29_005": "岡山県赤磐市桜が丘東3-3-496", "P29_006": "4", "P29_007": "0", "P29_008": "00", "P29_009": null }, "geometry": { "type": "Point", "coordinates": [ 134.050130549259592, 34.780370929403077 ] } },
{ "type": "Feature", "properties": { "P29_001": "33216", "P29_002": "A233310000135", "P29_003": "16013", "P29_004": "浅口はちまん認定こども園", "P29_005": "岡山県浅口市鴨方町鴨方1540-1", "P29_006": "4", "P29_007": "0", "P29_008": "00", "P29_009": null }, "geometry": { "type": "Point", "coordinates": [ 133.592601334987705, 34.540410093629561 ] } },
{ "type": "Feature", "properties": { "P29_001": "33681", "P29_002": "A233310000144", "P29_003": "16013", "P29_004": "にこにこふたばこども園", "P29_005": "岡山県加賀郡吉備中央町下加茂1892", "P29_006": "4", "P29_007": "0", "P29_008": "00", "P29_009": null }, "geometry": { "type": "Point", "coordinates": [ 133.819205309935882, 34.858204269160858 ] } },
{ "type": "Feature", "properties": { "P29_001": "33101", "P29_002": "A233310000153", "P29_003": "16013", "P29_004": "弘西こども園", "P29_005": "岡山県岡山市北区弓之町9-2", "P29_006": "4", "P29_007": "0", "P29_008": "00", "P29_009": null }, "geometry": { "type": "Point", "coordinates": [ 133.928038882698814, 34.66997733557578 ] } },
{ "type": "Feature", "properties": { "P29_001": "33103", "P29_002": "A233310000162", "P29_003": "16013", "P29_004": "江西桜こども園", "P29_005": "岡山県岡山市東区瀬戸町下286-1", "P29_006": "4", "P29_007": "0", "P29_008": "00", "P29_009": null }, "geometry": { "type": "Point", "coordinates": [ 134.043957995729414, 34.726717000203585 ] } },
{ "type": "Feature", "properties": { "P29_001": "33101", "P29_002": "A233310000171", "P29_003": "16013", "P29_004": "こじかこども園", "P29_005": "岡山県岡山市北区大供本町715-5", "P29_006": "4", "P29_007": "0", "P29_008": "00", "P29_009": null }, "geometry": { "type": "Point", "coordinates": [ 133.910924457623906, 34.652702593373192 ] } },
{ "type": "Feature", "properties": { "P29_001": "33101", "P29_002": "A233310000180", "P29_003": "16013", "P29_004": "ふたばこども園", "P29_005": "岡山県岡山市北区平田122-102", "P29_006": "4", "P29_007": "0", "P29_008": "00", "P29_009": null }, "geometry": { "type": "Point", "coordinates": [ 133.891389943434689, 34.63243332661802 ] } },
{ "type": "Feature", "properties": { "P29_001": "33101", "P29_002": "A233310000199", "P29_003": "16013", "P29_004": "第一吉備こども園", "P29_005": "岡山県岡山市北区平野1071-1", "P29_006": "4", "P29_007": "0", "P29_008": "00", "P29_009": null }, "geometry": { "type": "Point", "coordinates": [ 133.85696177305465, 34.651601810584758 ] } },
{ "type": "Feature", "properties": { "P29_001": "33101", "P29_002": "A233310000206", "P29_003": "16013", "P29_004": "第二吉備こども園", "P29_005": "岡山県岡山市北区庭瀬1032-1", "P29_006": "4", "P29_007": "0", "P29_008": "00", "P29_009": null }, "geometry": { "type": "Point", "coordinates": [ 133.854085631658563, 34.640252658970979 ] } },
{ "type": "Feature", "properties": { "P29_001": "33102", "P29_002": "A233310000215", "P29_003": "16013", "P29_004": "とみやまこども園", "P29_005": "岡山県岡山市中区福泊138-2", "P29_006": "4", "P29_007": "0", "P29_008": "00", "P29_009": null }, "geometry": { "type": "Point", "coordinates": [ 133.978082167157396, 34.655805616450102 ] } },
{ "type": "Feature", "properties": { "P29_001": "33202", "P29_002": "A233310000224", "P29_003": "16013", "P29_004": "かわさきこども園", "P29_005": "岡山県倉敷市二子177-7", "P29_006": "4", "P29_007": "0", "P29_008": "00", "P29_009": null }, "geometry": { "type": "Point", "coordinates": [ 133.811175096896847, 34.636514865384527 ] } },
{ "type": "Feature", "properties": { "P29_001": "33205", "P29_002": "A233310000233", "P29_003": "16013", "P29_004": "つばくろ認定こども園", "P29_005": "岡山県笠岡市西大島1756", "P29_006": "4", "P29_007": "0", "P29_008": "00", "P29_009": null }, "geometry": { "type": "Point", "coordinates": [ 133.544468001178132, 34.483190999345233 ] } },
{ "type": "Feature", "properties": { "P29_001": "33205", "P29_002": "A233310000242", "P29_003": "16013", "P29_004": "笠岡認定こども園", "P29_005": "岡山県笠岡市笠岡3190-1", "P29_006": "4", "P29_007": "0", "P29_008": "00", "P29_009": null }, "geometry": { "type": "Point", "coordinates": [ 133.509159664113866, 34.511068810543378 ] } },
{ "type": "Feature", "properties": { "P29_001": "33216", "P29_002": "A233310000251", "P29_003": "16013", "P29_004": "聖華こども園", "P29_005": "岡山県浅口市鴨方六条院中2347-1", "P29_006": "4", "P29_007": "0", "P29_008": "00", "P29_009": null }, "geometry": { "type": "Point", "coordinates": [ 133.585314797864072, 34.522733308723872 ] } },
{ "type": "Feature", "properties": { "P29_001": "33101", "P29_002": "A233310000260", "P29_003": "16013", "P29_004": "中国学園大学・中国短期大学付属たねのくにこども園", "P29_005": "岡山県岡山市北区中撫川351", "P29_006": "4", "P29_007": "0", "P29_008": "00", "P29_009": null }, "geometry": { "type": "Point", "coordinates": [ 133.839166974175185, 34.651907022452392 ] } },
{ "type": "Feature", "properties": { "P29_001": "33101", "P29_002": "A233310000279", "P29_003": "16013", "P29_004": "御南まんまるこども園", "P29_005": "岡山県岡山市北区田中165-103", "P29_006": "4", "P29_007": "0", "P29_008": "00", "P29_009": null }, "geometry": { "type": "Point", "coordinates": [ 133.878013904163822, 34.641935687770051 ] } },
{ "type": "Feature", "properties": { "P29_001": "33101", "P29_002": "A233310000288", "P29_003": "16013", "P29_004": "認定こども園　白ゆりの丘", "P29_005": "岡山県岡山市北区富吉2945-7", "P29_006": "4", "P29_007": "0", "P29_008": "00", "P29_009": null }, "geometry": { "type": "Point", "coordinates": [ 133.854795653277222, 34.744499046340394 ] } },
{ "type": "Feature", "properties": { "P29_001": "33102", "P29_002": "A233310000297", "P29_003": "16013", "P29_004": "なのはなこども園", "P29_005": "岡山県岡山市中区祇園364-1", "P29_006": "4", "P29_007": "0", "P29_008": "00", "P29_009": null }, "geometry": { "type": "Point", "coordinates": [ 133.956114004793079, 34.696080003556197 ] } },
{ "type": "Feature", "properties": { "P29_001": "33102", "P29_002": "A233310000304", "P29_003": "16013", "P29_004": "旭川こども園", "P29_005": "岡山県岡山市中区赤田88", "P29_006": "4", "P29_007": "0", "P29_008": "00", "P29_009": null }, "geometry": { "type": "Point", "coordinates": [ 133.959571509051045, 34.680979002840701 ] } },
{ "type": "Feature", "properties": { "P29_001": "33102", "P29_002": "A233310000313", "P29_003": "16013", "P29_004": "柿の木こども園", "P29_005": "岡山県岡山市中区沢田473", "P29_006": "4", "P29_007": "0", "P29_008": "00", "P29_009": null }, "geometry": { "type": "Point", "coordinates": [ 133.964182353111113, 34.668510507622869 ] } },
{ "type": "Feature", "properties": { "P29_001": "33102", "P29_002": "A233310000322", "P29_003": "16013", "P29_004": "ゆりかごこども園", "P29_005": "岡山県岡山市中区倉田688-3", "P29_006": "4", "P29_007": "0", "P29_008": "00", "P29_009": null }, "geometry": { "type": "Point", "coordinates": [ 133.953933616451195, 34.635975141639939 ] } },
{ "type": "Feature", "properties": { "P29_001": "33103", "P29_002": "A233310000331", "P29_003": "16013", "P29_004": "ちとせ認定こども園", "P29_005": "岡山県岡山市東区益野町40", "P29_006": "4", "P29_007": "0", "P29_008": "00", "P29_009": null }, "geometry": { "type": "Point", "coordinates": [ 133.999458063228928, 34.659470961627463 ] } },
{ "type": "Feature", "properties": { "P29_001": "33103", "P29_002": "A233310000340", "P29_003": "16013", "P29_004": "カナダこども園", "P29_005": "岡山県岡山市東区金田1127-1", "P29_006": "4", "P29_007": "0", "P29_008": "00", "P29_009": null }, "geometry": { "type": "Point", "coordinates": [ 134.020376001042933, 34.630845000321266 ] } },
{ "type": "Feature", "properties": { "P29_001": "33212", "P29_002": "A233310000359", "P29_003": "16013", "P29_004": "長船ちとせこども園", "P29_005": "岡山県瀬戸内市長船町土師128-1", "P29_006": "4", "P29_007": "0", "P29_008": "00", "P29_009": null }, "geometry": { "type": "Point", "coordinates": [ 134.100367488835332, 34.700245806094166 ] } },
{ "type": "Feature", "properties": { "P29_001": "33202", "P29_002": "A233310000368", "P29_003": "16013", "P29_004": "幼保連携型認定こども園めばえ保育園", "P29_005": "岡山県倉敷市連島町鶴新田2235-3", "P29_006": "4", "P29_007": "0", "P29_008": "00", "P29_009": null }, "geometry": { "type": "Point", "coordinates": [ 133.708867760107779, 34.536665121310755 ] } },
{ "type": "Feature", "properties": { "P29_001": "33102", "P29_002": "A233310000377", "P29_003": "16013", "P29_004": "高島おひさまこども園", "P29_005": "岡山県岡山市中区国府市場164-1", "P29_006": "4", "P29_007": "0", "P29_008": "00", "P29_009": null }, "geometry": { "type": "Point", "coordinates": [ 133.964100315081879, 34.689748613310371 ] } },
{ "type": "Feature", "properties": { "P29_001": "33102", "P29_002": "A233310000386", "P29_003": "16013", "P29_004": "グリーン長利こども園", "P29_005": "岡山県岡山市中区長利274-1", "P29_006": "4", "P29_007": "0", "P29_008": "00", "P29_009": null }, "geometry": { "type": "Point", "coordinates": [ 133.996317342180305, 34.67300516040477 ] } },
{ "type": "Feature", "properties": { "P29_001": "33202", "P29_002": "A233310000395", "P29_003": "16013", "P29_004": "幼保連携型認定こども園遍照こども園", "P29_005": "岡山県倉敷市西阿知町465-1", "P29_006": "4", "P29_007": "0", "P29_008": "00", "P29_009": null }, "geometry": { "type": "Point", "coordinates": [ 133.735725865294143, 34.592779552366217 ] } },
{ "type": "Feature", "properties": { "P29_001": "33202", "P29_002": "A233310000402", "P29_003": "16013", "P29_004": "幼保連携型認定こども園真備かなりや保育園", "P29_005": "岡山県倉敷市真備町辻田268-1", "P29_006": "4", "P29_007": "0", "P29_008": "00", "P29_009": null }, "geometry": { "type": "Point", "coordinates": [ 133.713635770798987, 34.644930227457216 ] } },
{ "type": "Feature", "properties": { "P29_001": "33202", "P29_002": "A233310000411", "P29_003": "16013", "P29_004": "すぎのこ認定こども園", "P29_005": "岡山県倉敷市徳芳504", "P29_006": "4", "P29_007": "0", "P29_008": "00", "P29_009": null }, "geometry": { "type": "Point", "coordinates": [ 133.812822703843636, 34.621640923055132 ] } },
{ "type": "Feature", "properties": { "P29_001": "33202", "P29_002": "A233310000420", "P29_003": "16013", "P29_004": "幼保連携型認定こども園たから保育園", "P29_005": "岡山県倉敷市船穂町船穂3345", "P29_006": "4", "P29_007": "0", "P29_008": "00", "P29_009": null }, "geometry": { "type": "Point", "coordinates": [ 133.711230511805326, 34.595158539350592 ] } },
{ "type": "Feature", "properties": { "P29_001": "33205", "P29_002": "A233310000439", "P29_003": "16013", "P29_004": "和光みらい園", "P29_005": "岡山県笠岡市富岡277-5", "P29_006": "4", "P29_007": "0", "P29_008": "00", "P29_009": null }, "geometry": { "type": "Point", "coordinates": [ 133.526014999613238, 34.494333995625638 ] } },
{ "type": "Feature", "properties": { "P29_001": "33101", "P29_002": "A233310000448", "P29_003": "16013", "P29_004": "第三吉備こども園", "P29_005": "岡山県岡山市北区東花尻121-1", "P29_006": "4", "P29_007": "0", "P29_008": "00", "P29_009": null }, "geometry": { "type": "Point", "coordinates": [ 133.864815161477878, 34.654174268958485 ] } },
{ "type": "Feature", "properties": { "P29_001": "33101", "P29_002": "A233310000457", "P29_003": "16013", "P29_004": "ポエムこども園ひらつ", "P29_005": "岡山県岡山市北区楢津385-1", "P29_006": "4", "P29_007": "0", "P29_008": "00", "P29_009": null }, "geometry": { "type": "Point", "coordinates": [ 133.885284392870886, 34.680735799067513 ] } },
{ "type": "Feature", "properties": { "P29_001": "33104", "P29_002": "A233310000466", "P29_003": "16013", "P29_004": "おおふくこども園", "P29_005": "岡山県岡山市南区大福760-2", "P29_006": "4", "P29_007": "0", "P29_008": "00", "P29_009": null }, "geometry": { "type": "Point", "coordinates": [ 133.888037807995886, 34.621405228746646 ] } },
{ "type": "Feature", "properties": { "P29_001": "33103", "P29_002": "A233310000475", "P29_003": "16013", "P29_004": "古都こども園", "P29_005": "岡山県岡山市東区古都宿453-5", "P29_006": "4", "P29_007": "0", "P29_008": "00", "P29_009": null }, "geometry": { "type": "Point", "coordinates": [ 134.000175156462092, 34.693285321960133 ] } },
{ "type": "Feature", "properties": { "P29_001": "33102", "P29_002": "A233310000484", "P29_003": "16013", "P29_004": "原尾島こども園", "P29_005": "岡山県岡山市中区原尾島1-7-5", "P29_006": "4", "P29_007": "0", "P29_008": "00", "P29_009": null }, "geometry": { "type": "Point", "coordinates": [ 133.947589385203599, 34.672594884412568 ] } },
{ "type": "Feature", "properties": { "P29_001": "33103", "P29_002": "A233310000493", "P29_003": "16013", "P29_004": "浮田とちのみこども園", "P29_005": "岡山県岡山市東区沼1188", "P29_006": "4", "P29_007": "0", "P29_008": "00", "P29_009": null }, "geometry": { "type": "Point", "coordinates": [ 134.036498909005473, 34.705193009744775 ] } },
{ "type": "Feature", "properties": { "P29_001": "33202", "P29_002": "A233310000509", "P29_003": "16013", "P29_004": "よしうら認定こども園", "P29_005": "岡山県倉敷市玉島1898-3", "P29_006": "4", "P29_007": "0", "P29_008": "00", "P29_009": null }, "geometry": { "type": "Point", "coordinates": [ 133.683158972791205, 34.55628601155486 ] } },
{ "type": "Feature", "properties": { "P29_001": "33101", "P29_002": "A233310000518", "P29_003": "16013", "P29_004": "さくらこども園", "P29_005": "岡山県岡山市北区横井上1556-4", "P29_006": "4", "P29_007": "0", "P29_008": "00", "P29_009": null }, "geometry": { "type": "Point", "coordinates": [ 133.905073683481817, 34.712274152895127 ] } },
{ "type": "Feature", "properties": { "P29_001": "33101", "P29_002": "A233310000527", "P29_003": "16013", "P29_004": "第二さくらこども園", "P29_005": "岡山県岡山市北区富原3700-1", "P29_006": "4", "P29_007": "0", "P29_008": "00", "P29_009": null }, "geometry": { "type": "Point", "coordinates": [ 133.899394645304852, 34.703340880914062 ] } },
{ "type": "Feature", "properties": { "P29_001": "33205", "P29_002": "A233310000536", "P29_003": "16013", "P29_004": "金浦認定こども園", "P29_005": "岡山県笠岡市金浦1565", "P29_006": "4", "P29_007": "0", "P29_008": "00", "P29_009": null }, "geometry": { "type": "Point", "coordinates": [ 133.490782826193879, 34.511491766305575 ] } },
{ "type": "Feature", "properties": { "P29_001": "33205", "P29_002": "A233310000545", "P29_003": "16013", "P29_004": "太陽の森認定こども園", "P29_005": "岡山県笠岡市生江浜1079-5", "P29_006": "4", "P29_007": "0", "P29_008": "00", "P29_009": null }, "geometry": { "type": "Point", "coordinates": [ 133.486664026160838, 34.5060898569984 ] } },
{ "type": "Feature", "properties": { "P29_001": "33205", "P29_002": "A233310000554", "P29_003": "16013", "P29_004": "まやこども園", "P29_005": "岡山県笠岡市笠岡2786-2", "P29_006": "4", "P29_007": "0", "P29_008": "00", "P29_009": null }, "geometry": { "type": "Point", "coordinates": [ 133.504516582586575, 34.507809941317191 ] } },
{ "type": "Feature", "properties": { "P29_001": "33213", "P29_002": "A233310000563", "P29_003": "16013", "P29_004": "あすなろこども園", "P29_005": "岡山県赤磐市桜が丘西3-14-19", "P29_006": "4", "P29_007": "0", "P29_008": "00", "P29_009": null }, "geometry": { "type": "Point", "coordinates": [ 134.041135753103219, 34.773252685914642 ] } },
{ "type": "Feature", "properties": { "P29_001": "33202", "P29_002": "A233310000572", "P29_003": "16013", "P29_004": "八幡認定こども園", "P29_005": "岡山県倉敷市玉島柏島5604-1", "P29_006": "4", "P29_007": "0", "P29_008": "00", "P29_009": null }, "geometry": { "type": "Point", "coordinates": [ 133.659069786440455, 34.525405842475202 ] } },
{ "type": "Feature", "properties": { "P29_001": "33104", "P29_002": "A233310000582", "P29_003": "16013", "P29_004": "幼保連携型認定こども園妹尾保育園", "P29_005": "岡山県岡山市南区妹尾1368-1", "P29_006": "4", "P29_007": "0", "P29_008": "00", "P29_009": null }, "geometry": { "type": "Point", "coordinates": [ 133.867461486928221, 34.611052653397621 ] } },
{ "type": "Feature", "properties": { "P29_001": "33202", "P29_002": "A233310000591", "P29_003": "16013", "P29_004": "幼保連携型認定こども園連島こども園", "P29_005": "岡山県倉敷市連島中央5-1-36", "P29_006": "4", "P29_007": "0", "P29_008": "00", "P29_009": null }, "geometry": { "type": "Point", "coordinates": [ 133.72268140627412, 34.545505410450907 ] } },
{ "type": "Feature", "properties": { "P29_001": "33205", "P29_002": "A233310000607", "P29_003": "16013", "P29_004": "新川こども園", "P29_005": "岡山県笠岡市金浦737-1", "P29_006": "4", "P29_007": "0", "P29_008": "00", "P29_009": null }, "geometry": { "type": "Point", "coordinates": [ 133.489048315041174, 34.51951762907845 ] } },
{ "type": "Feature", "properties": { "P29_001": "33212", "P29_002": "A233310000616", "P29_003": "16013", "P29_004": "邑久ルンビニこども園", "P29_005": "岡山県瀬戸内市邑久町山田庄378-1", "P29_006": "4", "P29_007": "0", "P29_008": "00", "P29_009": null }, "geometry": { "type": "Point", "coordinates": [ 134.09499086532287, 34.673393007715148 ] } }
]
}
