{
"type": "FeatureCollection",
"name": "geo_33_定期巡回・随時対応型訪問介護看護",
"crs": { "type": "name", "properties": { "name": "urn:ogc:def:crs:OGC:1.3:CRS84" } },
"features": [
{ "type": "Feature", "properties": { "内容": "24時間訪問サービス　きずな【定期巡回・随時対応型訪問介護看護】厚生町3-8-35", "url": "https://www.kaigokensaku.mhlw.go.jp/33/index.php?action_kouhyou_detail_004_kani=true&JigyosyoCd=3390101339-00&ServiceCd=760&Type=search", "url2": null }, "geometry": { "type": "Point", "coordinates": [ 133.911197300000026, 34.6559119 ] } },
{ "type": "Feature", "properties": { "内容": "北方ケアサービス【定期巡回・随時対応型訪問介護看護】岡山県岡山市北区1丁目15-28102号室", "url": "https://www.kaigokensaku.mhlw.go.jp/33/index.php?action_kouhyou_detail_004_kani=true&JigyosyoCd=3390102071-00&ServiceCd=760&Type=search", "url2": "https://www.reline-families.com" }, "geometry": { "type": "Point", "coordinates": [ 133.930651335581956, 34.684436733462086 ] } },
{ "type": "Feature", "properties": { "内容": "ホームヘルパーステーション桃丘【定期巡回・随時対応型訪問介護看護】岡山県岡山市北区高松原古才４９７－１６", "url": "https://www.kaigokensaku.mhlw.go.jp/33/index.php?action_kouhyou_detail_004_kani=true&JigyosyoCd=3390101321-00&ServiceCd=760&Type=search", "url2": "gifukai.jp/facilities/" }, "geometry": { "type": "Point", "coordinates": [ 133.823868, 34.6849206 ] } },
{ "type": "Feature", "properties": { "内容": "丸の内ヒルズ　定期巡回・随時対応型訪問介護看護事業所【定期巡回・随時対応型訪問介護看護】岡山県岡山市北区丸の内二丁目1番10号", "url": "https://www.kaigokensaku.mhlw.go.jp/33/index.php?action_kouhyou_detail_004_kani=true&JigyosyoCd=3390101776-00&ServiceCd=760&Type=search", "url2": "https://ryobi-hc.jp/" }, "geometry": { "type": "Point", "coordinates": [ 133.933207825794966, 34.66543617566893 ] } },
{ "type": "Feature", "properties": { "内容": "ケアステップ　エール【定期巡回・随時対応型訪問介護看護】岡山県岡山市北区今6丁目5-23", "url": "https://www.kaigokensaku.mhlw.go.jp/33/index.php?action_kouhyou_detail_004_kani=true&JigyosyoCd=3390102691-00&ServiceCd=760&Type=search", "url2": "https://yell-oka.com" }, "geometry": { "type": "Point", "coordinates": [ 133.898315469450381, 34.641980503567794 ] } },
{ "type": "Feature", "properties": { "内容": "定期巡回サービス土屋岡山【定期巡回・随時対応型訪問介護看護】岡山県岡山市北区神田町2丁目1-25第3耐火ビル205", "url": "https://www.kaigokensaku.mhlw.go.jp/33/index.php?action_kouhyou_detail_004_kani=true&JigyosyoCd=3390103293-00&ServiceCd=760&Type=search", "url2": "https://teikijunkai.net/teikijunkai-tsuchiya-okayama/" }, "geometry": { "type": "Point", "coordinates": [ 133.923346900000013, 34.6399255 ] } },
{ "type": "Feature", "properties": { "内容": "公益財団法人操風会ケアステーション操風【定期巡回・随時対応型訪問介護看護】岡山県岡山市中区奥市2-8", "url": "https://www.kaigokensaku.mhlw.go.jp/33/index.php?action_kouhyou_detail_004_kani=true&JigyosyoCd=3390102089-00&ServiceCd=760&Type=search", "url2": "http://www.okayama-happylife.jp" }, "geometry": { "type": "Point", "coordinates": [ 133.947948900000029, 34.6562134 ] } },
{ "type": "Feature", "properties": { "内容": "定期巡回・随時対応型訪問介護看護やすらぎ【定期巡回・随時対応型訪問介護看護】中島70-1", "url": "https://www.kaigokensaku.mhlw.go.jp/33/index.php?action_kouhyou_detail_004_kani=true&JigyosyoCd=3390102303-00&ServiceCd=760&Type=search", "url2": "https://www.takufukai-group.or.jp/" }, "geometry": { "type": "Point", "coordinates": [ 133.9455003, 34.6858087 ] } },
{ "type": "Feature", "properties": { "内容": "アップルウッド定期巡回・随時対応型訪問介護看護【定期巡回・随時対応型訪問介護看護】岡山県岡山市東区金岡東町1－1－38", "url": "https://www.kaigokensaku.mhlw.go.jp/33/index.php?action_kouhyou_detail_004_kani=true&JigyosyoCd=3390102816-00&ServiceCd=760&Type=search", "url2": "https://applewood.jp" }, "geometry": { "type": "Point", "coordinates": [ 134.0288137, 34.6485821 ] } },
{ "type": "Feature", "properties": { "内容": "ケアサポートさんさん平島【定期巡回・随時対応型訪問介護看護】岡山県岡山市東区東平島706", "url": "https://www.kaigokensaku.mhlw.go.jp/33/index.php?action_kouhyou_detail_004_kani=true&JigyosyoCd=3390102758-00&ServiceCd=760&Type=search", "url2": "https://www.hirajima.com/" }, "geometry": { "type": "Point", "coordinates": [ 134.050628157008333, 34.714875842740881 ] } },
{ "type": "Feature", "properties": { "内容": "ヘルパーステーション我が家なださき【定期巡回・随時対応型訪問介護看護】岡山県岡山市南区迫川２５４－１", "url": "https://www.kaigokensaku.mhlw.go.jp/33/index.php?action_kouhyou_detail_004_kani=true&JigyosyoCd=3390102725-00&ServiceCd=760&Type=search", "url2": "https://jecs-gr.jp/" }, "geometry": { "type": "Point", "coordinates": [ 133.881542599999989, 34.5354416 ] } },
{ "type": "Feature", "properties": { "内容": "定期巡回・随時対応型訪問介護看護　いけだ【定期巡回・随時対応型訪問介護看護】岡山県岡山市南区彦崎2801-4", "url": "https://www.kaigokensaku.mhlw.go.jp/33/index.php?action_kouhyou_detail_004_kani=true&JigyosyoCd=3390103079-00&ServiceCd=760&Type=search", "url2": "https://ikedaiin.or.jp" }, "geometry": { "type": "Point", "coordinates": [ 133.8366246, 34.5520438 ] } },
{ "type": "Feature", "properties": { "内容": "ヘルパーステーションウェルメ岡山【定期巡回・随時対応型訪問介護看護】岡山市南区あけぼの町10番地17", "url": "https://www.kaigokensaku.mhlw.go.jp/33/index.php?action_kouhyou_detail_004_kani=true&JigyosyoCd=3390103418-00&ServiceCd=760&Type=search", "url2": null }, "geometry": { "type": "Point", "coordinates": [ 133.9406332, 34.6077486 ] } },
{ "type": "Feature", "properties": { "内容": "玉島東巡回訪問ステーション【定期巡回・随時対応型訪問介護看護】岡山県倉敷市船穂町船穂880-1", "url": "https://www.kaigokensaku.mhlw.go.jp/33/index.php?action_kouhyou_detail_004_kani=true&JigyosyoCd=3390201709-00&ServiceCd=760&Type=search", "url2": "https://momotaro-kaigo.com/" }, "geometry": { "type": "Point", "coordinates": [ 133.695150759524552, 34.568879917932009 ] } },
{ "type": "Feature", "properties": { "内容": "定期巡回サービス玉北【定期巡回・随時対応型訪問介護看護】岡山県倉敷市玉島道口78-1", "url": "https://www.kaigokensaku.mhlw.go.jp/33/index.php?action_kouhyou_detail_004_kani=true&JigyosyoCd=3390201238-00&ServiceCd=760&Type=search", "url2": "http://www.tomicare.com/" }, "geometry": { "type": "Point", "coordinates": [ 133.65394094113924, 34.562955321965944 ] } },
{ "type": "Feature", "properties": { "内容": "定期巡回サービスステーション　ひかりの里【定期巡回・随時対応型訪問介護看護】岡山県倉敷市玉島八島70番地1", "url": "https://www.kaigokensaku.mhlw.go.jp/33/index.php?action_kouhyou_detail_004_kani=true&JigyosyoCd=3390201766-00&ServiceCd=760&Type=search", "url2": "https://onkochishinkai.or.jp/" }, "geometry": { "type": "Point", "coordinates": [ 133.6639164, 34.5638628 ] } },
{ "type": "Feature", "properties": { "内容": "倉敷スイートホームサポートステーション　羽島【定期巡回・随時対応型訪問介護看護】岡山県倉敷市羽島５６", "url": "https://www.kaigokensaku.mhlw.go.jp/33/index.php?action_kouhyou_detail_004_kani=true&JigyosyoCd=3390201915-00&ServiceCd=760&Type=search", "url2": "https://www.wakokai.com/" }, "geometry": { "type": "Point", "coordinates": [ 133.790288832746143, 34.592443756505901 ] } },
{ "type": "Feature", "properties": { "内容": "和香会ホームサポートステーション【定期巡回・随時対応型訪問介護看護】岡山県倉敷市東塚５丁目４番１６号", "url": "https://www.kaigokensaku.mhlw.go.jp/33/index.php?action_kouhyou_detail_004_kani=true&JigyosyoCd=3390201691-00&ServiceCd=760&Type=search", "url2": "http://wakokai.com" }, "geometry": { "type": "Point", "coordinates": [ 133.762901270666703, 34.531050113988705 ] } },
{ "type": "Feature", "properties": { "内容": "倉敷スイートホームサポートステーション【定期巡回・随時対応型訪問介護看護】岡山県倉敷市中庄3542番1", "url": "https://www.kaigokensaku.mhlw.go.jp/33/index.php?action_kouhyou_detail_004_kani=true&JigyosyoCd=3390201683-00&ServiceCd=760&Type=search", "url2": "http://sweet-town.jp/station/index.html" }, "geometry": { "type": "Point", "coordinates": [ 133.8040929, 34.6243932 ] } },
{ "type": "Feature", "properties": { "内容": "おうじの定期巡回【定期巡回・随時対応型訪問介護看護】岡山県倉敷市児島下の町3丁目8-54フォーレス21101号室", "url": "https://www.kaigokensaku.mhlw.go.jp/33/index.php?action_kouhyou_detail_004_kani=true&JigyosyoCd=3390202046-00&ServiceCd=760&Type=search", "url2": "https://ohji-clinic.jp/" }, "geometry": { "type": "Point", "coordinates": [ 133.82022293187714, 34.47811438494891 ] } },
{ "type": "Feature", "properties": { "内容": "定期巡回・随時対応型訪問介護看護サービスぶどうの家ぶどうの花【定期巡回・随時対応型訪問介護看護】岡山県倉敷市船穂町船穂２９３０", "url": "https://www.kaigokensaku.mhlw.go.jp/33/index.php?action_kouhyou_detail_004_kani=true&JigyosyoCd=3390201089-00&ServiceCd=760&Type=search", "url2": null }, "geometry": { "type": "Point", "coordinates": [ 133.709499149737553, 34.585762178797602 ] } },
{ "type": "Feature", "properties": { "内容": "24時間訪問介護看護ハーヴィス24玉野【定期巡回・随時対応型訪問介護看護】岡山県玉野市東高崎24-8", "url": "https://www.kaigokensaku.mhlw.go.jp/33/index.php?action_kouhyou_detail_004_kani=true&JigyosyoCd=3390400210-00&ServiceCd=760&Type=search", "url2": "http://www.rcare.jp/" }, "geometry": { "type": "Point", "coordinates": [ 133.892263382278429, 34.539901136311734 ] } }
]
}
