{
"type": "FeatureCollection",
"name": "geo_33_大学",
"crs": { "type": "name", "properties": { "name": "urn:ogc:def:crs:EPSG::6668" } },
"features": [
{ "type": "Feature", "properties": { "P29_001": "33101", "P29_002": "F133110109503", "P29_003": "16007", "P29_004": "岡山大学", "P29_005": "岡山県岡山市北区津島中1-1-1", "P29_006": "1", "P29_007": "0", "P29_008": "01", "P29_009": "津島キャンパス" }, "geometry": { "type": "Point", "coordinates": [ 133.921509363623528, 34.689931857191354 ] } },
{ "type": "Feature", "properties": { "P29_001": "33208", "P29_002": "F133210109510", "P29_003": "16007", "P29_004": "岡山県立大学", "P29_005": "岡山県総社市窪木111", "P29_006": "2", "P29_007": "0", "P29_008": "00", "P29_009": null }, "geometry": { "type": "Point", "coordinates": [ 133.781793160492725, 34.692141941266243 ] } },
{ "type": "Feature", "properties": { "P29_001": "33210", "P29_002": "F133210109529", "P29_003": "16007", "P29_004": "新見公立大学", "P29_005": "岡山県新見市西方1263-2", "P29_006": "3", "P29_007": "0", "P29_008": "00", "P29_009": null }, "geometry": { "type": "Point", "coordinates": [ 133.441823629272051, 34.997134825976303 ] } },
{ "type": "Feature", "properties": { "P29_001": "33209", "P29_002": "F133310109536", "P29_003": "16007", "P29_004": "吉備国際大学", "P29_005": "岡山県高梁市伊賀町8", "P29_006": "4", "P29_007": "0", "P29_008": "00", "P29_009": null }, "geometry": { "type": "Point", "coordinates": [ 133.620681131035127, 34.79644940432717 ] } },
{ "type": "Feature", "properties": { "P29_001": "33101", "P29_002": "F133310109545", "P29_003": "16007", "P29_004": "岡山商科大学", "P29_005": "岡山県岡山市北区津島京町2-10-1", "P29_006": "4", "P29_007": "0", "P29_008": "00", "P29_009": null }, "geometry": { "type": "Point", "coordinates": [ 133.901110300801008, 34.683315140436243 ] } },
{ "type": "Feature", "properties": { "P29_001": "33101", "P29_002": "F133310109554", "P29_003": "16007", "P29_004": "岡山理科大学", "P29_005": "岡山県岡山市北区理大町1-1", "P29_006": "4", "P29_007": "0", "P29_008": "00", "P29_009": null }, "geometry": { "type": "Point", "coordinates": [ 133.927940190242253, 34.697926645737326 ] } },
{ "type": "Feature", "properties": { "P29_001": "33202", "P29_002": "F133310109563", "P29_003": "16007", "P29_004": "くらしき作陽大学", "P29_005": "岡山県倉敷市玉島長尾3515", "P29_006": "4", "P29_007": "0", "P29_008": "00", "P29_009": null }, "geometry": { "type": "Point", "coordinates": [ 133.677094060599984, 34.575161350580636 ] } },
{ "type": "Feature", "properties": { "P29_001": "33101", "P29_002": "F133310109572", "P29_003": "16007", "P29_004": "ノートルダム清心女子大学", "P29_005": "岡山県岡山市北区伊福町2-16-9", "P29_006": "4", "P29_007": "0", "P29_008": "00", "P29_009": null }, "geometry": { "type": "Point", "coordinates": [ 133.916278084719551, 34.67222704205701 ] } },
{ "type": "Feature", "properties": { "P29_001": "33202", "P29_002": "F133310109581", "P29_003": "16007", "P29_004": "川崎医科大学", "P29_005": "岡山県倉敷市松島577", "P29_006": "4", "P29_007": "0", "P29_008": "00", "P29_009": null }, "geometry": { "type": "Point", "coordinates": [ 133.811480869587626, 34.631925610809454 ] } },
{ "type": "Feature", "properties": { "P29_001": "33102", "P29_002": "F133310109590", "P29_003": "16007", "P29_004": "就実大学", "P29_005": "岡山県岡山市中区西川原1-6-1", "P29_006": "4", "P29_007": "0", "P29_008": "00", "P29_009": null }, "geometry": { "type": "Point", "coordinates": [ 133.936959518849193, 34.677220420438552 ] } },
{ "type": "Feature", "properties": { "P29_001": "33202", "P29_002": "F133310109607", "P29_003": "16007", "P29_004": "川崎医療福祉大学", "P29_005": "岡山県倉敷市松島288", "P29_006": "4", "P29_007": "0", "P29_008": "00", "P29_009": null }, "geometry": { "type": "Point", "coordinates": [ 133.811044999240835, 34.634842001173972 ] } },
{ "type": "Feature", "properties": { "P29_001": "33102", "P29_002": "F133310109616", "P29_003": "16007", "P29_004": "山陽学園大学", "P29_005": "岡山県岡山市中区平井1-14-1", "P29_006": "4", "P29_007": "0", "P29_008": "00", "P29_009": null }, "geometry": { "type": "Point", "coordinates": [ 133.943729539488572, 34.642233323238564 ] } },
{ "type": "Feature", "properties": { "P29_001": "33202", "P29_002": "F133310109625", "P29_003": "16007", "P29_004": "倉敷芸術科学大学", "P29_005": "岡山県倉敷市連島町西之浦2640", "P29_006": "4", "P29_007": "0", "P29_008": "00", "P29_009": null }, "geometry": { "type": "Point", "coordinates": [ 133.711824653012712, 34.556038472136805 ] } },
{ "type": "Feature", "properties": { "P29_001": "33202", "P29_002": "F133310109634", "P29_003": "16007", "P29_004": "岡山学院大学", "P29_005": "岡山県倉敷市有城787", "P29_006": "4", "P29_007": "0", "P29_008": "00", "P29_009": null }, "geometry": { "type": "Point", "coordinates": [ 133.799354400634485, 34.573082657023363 ] } },
{ "type": "Feature", "properties": { "P29_001": "33101", "P29_002": "F133310109643", "P29_003": "16007", "P29_004": "中国学園大学", "P29_005": "岡山県岡山市北区庭瀬83", "P29_006": "4", "P29_007": "0", "P29_008": "00", "P29_009": null }, "geometry": { "type": "Point", "coordinates": [ 133.849244874708916, 34.650903596114972 ] } },
{ "type": "Feature", "properties": { "P29_001": "33103", "P29_002": "F133310109652", "P29_003": "16007", "P29_004": "環太平洋大学", "P29_005": "岡山県岡山市瀬戸町観音寺721", "P29_006": "4", "P29_007": "0", "P29_008": "01", "P29_009": "第1キャンパス" }, "geometry": { "type": "Point", "coordinates": [ 134.012306020597435, 34.72683472699066 ] } },
{ "type": "Feature", "properties": { "P29_001": "33101", "P29_002": "F133310109661", "P29_003": "16007", "P29_004": "岡山医療専門職大学", "P29_005": "岡山県岡山市北区大供3-2-18", "P29_006": "4", "P29_007": "0", "P29_008": "00", "P29_009": null }, "geometry": { "type": "Point", "coordinates": [ 133.916469796416692, 34.656937831875048 ] } },
{ "type": "Feature", "properties": { "P29_001": "33203", "P29_002": "F133310109670", "P29_003": "16007", "P29_004": "美作大学", "P29_005": "岡山県津山市北園町50", "P29_006": "4", "P29_007": "0", "P29_008": "00", "P29_009": null }, "geometry": { "type": "Point", "coordinates": [ 134.007782139534413, 35.076488371643947 ] } },
{ "type": "Feature", "properties": { "P29_001": "33101", "P29_002": "F133110109503", "P29_003": "16007", "P29_004": "岡山大学", "P29_005": "岡山県岡山市北区鹿田町2-5-1", "P29_006": "1", "P29_007": "0", "P29_008": "02", "P29_009": "鹿田キャンパス" }, "geometry": { "type": "Point", "coordinates": [ 133.919502598936077, 34.650880437064941 ] } },
{ "type": "Feature", "properties": { "P29_001": "33103", "P29_002": "F133310109652", "P29_003": "16007", "P29_004": "環太平洋大学", "P29_005": "岡山県岡山市東区矢津2050-13", "P29_006": "4", "P29_007": "0", "P29_008": "02", "P29_009": "第2キャンパス" }, "geometry": { "type": "Point", "coordinates": [ 133.989762812698814, 34.708608996888067 ] } }
]
}
