{
"type": "FeatureCollection",
"name": "geo_33_福祉用具貸与",
"crs": { "type": "name", "properties": { "name": "urn:ogc:def:crs:OGC:1.3:CRS84" } },
"features": [
{ "type": "Feature", "properties": { "内容": "ニチイケアセンター大供【福祉用具貸与】岡山県岡山市北区西古松604-1", "url": "https://www.kaigokensaku.mhlw.go.jp/33/index.php?action_kouhyou_detail_004_kani=true&JigyosyoCd=3370101796-00&ServiceCd=170&Type=search", "url2": "http://www.nichiigakkan.co.jp" }, "geometry": { "type": "Point", "coordinates": [ 133.911042599999973, 34.65114070000002 ] } },
{ "type": "Feature", "properties": { "内容": "パナソニックエイジフリーショップ岡山中央【福祉用具貸与】岡山県岡山市北区下中野337-106パナソニック岡山下中野ビル2F", "url": "https://www.kaigokensaku.mhlw.go.jp/33/index.php?action_kouhyou_detail_004_kani=true&JigyosyoCd=3370114567-00&ServiceCd=170&Type=search", "url2": "http://sumai.panasonic.jp/agefree/shop/search/shop_detail.php?shop=962" }, "geometry": { "type": "Point", "coordinates": [ 133.905087399999985, 34.641430100000065 ] } },
{ "type": "Feature", "properties": { "内容": "クリエイティブサポートTsukiyo【福祉用具貸与】岡山県岡山市北区牟佐770-6", "url": "https://www.kaigokensaku.mhlw.go.jp/33/index.php?action_kouhyou_detail_004_kani=true&JigyosyoCd=3370114724-00&ServiceCd=170&Type=search", "url2": "https://www.tsukiyo-okayama.com" }, "geometry": { "type": "Point", "coordinates": [ 133.981900399999972, 34.7223455 ] } },
{ "type": "Feature", "properties": { "内容": "株式会社　河村福祉サービス　岡山支店【福祉用具貸与】岡山県岡山市北区田中633番地1", "url": "https://www.kaigokensaku.mhlw.go.jp/33/index.php?action_kouhyou_detail_004_kani=true&JigyosyoCd=3370115499-00&ServiceCd=170&Type=search", "url2": null }, "geometry": { "type": "Point", "coordinates": [ 133.880673099999967, 34.6410272 ] } },
{ "type": "Feature", "properties": { "内容": "リハビット【福祉用具貸与】岡山県岡山市北区野田３丁目１６番１号　下電開発ビル３Ｆ", "url": "https://www.kaigokensaku.mhlw.go.jp/33/index.php?action_kouhyou_detail_004_kani=true&JigyosyoCd=3370115614-00&ServiceCd=170&Type=search", "url2": "https://rehabit.jp/" }, "geometry": { "type": "Point", "coordinates": [ 133.90091080000002, 34.6541512 ] } },
{ "type": "Feature", "properties": { "内容": "福祉用具オルカ【福祉用具貸与】岡山県岡山市白石西新町7-107フレグランスアコオ103レグランスアコオ103", "url": "https://www.kaigokensaku.mhlw.go.jp/33/index.php?action_kouhyou_detail_004_kani=true&JigyosyoCd=3370116968-00&ServiceCd=170&Type=search", "url2": "https://kobchass.jp/" }, "geometry": { "type": "Point", "coordinates": [ 133.8691446, 34.654943100000011 ] } },
{ "type": "Feature", "properties": { "内容": "ダスキンヘルスレント岡山ステーション【福祉用具貸与】岡山県岡山市北区下中野７１３－１０２", "url": "https://www.kaigokensaku.mhlw.go.jp/33/index.php?action_kouhyou_detail_004_kani=true&JigyosyoCd=3370107355-00&ServiceCd=170&Type=search", "url2": "http://www.kasite.net/health" }, "geometry": { "type": "Point", "coordinates": [ 133.8956251, 34.6361452 ] } },
{ "type": "Feature", "properties": { "内容": "株式会社ライフケア　本店営業所【福祉用具貸与】岡山県岡山市北区野田3-20-28", "url": "https://www.kaigokensaku.mhlw.go.jp/33/index.php?action_kouhyou_detail_004_kani=true&JigyosyoCd=3370101598-00&ServiceCd=170&Type=search", "url2": "https://lifecare-ok.co.jp/" }, "geometry": { "type": "Point", "coordinates": [ 133.89740418811553, 34.651896932549903 ] } },
{ "type": "Feature", "properties": { "内容": "日本基準寝具株式会社　岡山中央営業所【福祉用具貸与】岡山県岡山市北区下中野339-106", "url": "https://www.kaigokensaku.mhlw.go.jp/33/index.php?action_kouhyou_detail_004_kani=true&JigyosyoCd=3370109427-00&ServiceCd=170&Type=search", "url2": "https://www.nihonkijun.jp" }, "geometry": { "type": "Point", "coordinates": [ 133.905020700000023, 34.6404386 ] } },
{ "type": "Feature", "properties": { "内容": "株式会社ゴトウ・アズ・プランニング　岡山店【福祉用具貸与】岡山県岡山市北区中仙道２丁目10-15", "url": "https://www.kaigokensaku.mhlw.go.jp/33/index.php?action_kouhyou_detail_004_kani=true&JigyosyoCd=3370109567-00&ServiceCd=170&Type=search", "url2": "http://www.goto-az.co.jp" }, "geometry": { "type": "Point", "coordinates": [ 133.884348, 34.6454372 ] } },
{ "type": "Feature", "properties": { "内容": "フランスベッド株式会社　メディカル岡山営業所【福祉用具貸与】岡山県岡山市北区富田420-1", "url": "https://www.kaigokensaku.mhlw.go.jp/33/index.php?action_kouhyou_detail_004_kani=true&JigyosyoCd=3370109849-00&ServiceCd=170&Type=search", "url2": "http://www.francebed.ne.jp" }, "geometry": { "type": "Point", "coordinates": [ 133.912333699999976, 34.6417164 ] } },
{ "type": "Feature", "properties": { "内容": "株式会社　トーカイ　岡山営業所【福祉用具貸与】上中野2-14-8", "url": "https://www.kaigokensaku.mhlw.go.jp/33/index.php?action_kouhyou_detail_004_kani=true&JigyosyoCd=3370111522-00&ServiceCd=170&Type=search", "url2": "https://ｗｗｗ.tokai-corp.com" }, "geometry": { "type": "Point", "coordinates": [ 133.900443399999972, 34.6422771 ] } },
{ "type": "Feature", "properties": { "内容": "SOKEN【福祉用具貸与】東花尻294-5", "url": "https://www.kaigokensaku.mhlw.go.jp/33/index.php?action_kouhyou_detail_004_kani=true&JigyosyoCd=3370117354-00&ServiceCd=170&Type=search", "url2": null }, "geometry": { "type": "Point", "coordinates": [ 133.8620757, 34.6507838 ] } },
{ "type": "Feature", "properties": { "内容": "ENテクノサービス【福祉用具貸与】上中野1丁目19-18101", "url": "https://www.kaigokensaku.mhlw.go.jp/33/index.php?action_kouhyou_detail_004_kani=true&JigyosyoCd=3370117511-00&ServiceCd=170&Type=search", "url2": "https://en-three.jp/" }, "geometry": { "type": "Point", "coordinates": [ 133.899876400000011, 34.6464216 ] } },
{ "type": "Feature", "properties": { "内容": "株式会社ヤマシタ岡山営業所【福祉用具貸与】岡山県岡山市北区上中野一丁目16番7号", "url": "https://www.kaigokensaku.mhlw.go.jp/33/index.php?action_kouhyou_detail_004_kani=true&JigyosyoCd=3370117743-00&ServiceCd=170&Type=search", "url2": "https://www.ycota.jp/" }, "geometry": { "type": "Point", "coordinates": [ 133.898981600000013, 34.6454434 ] } },
{ "type": "Feature", "properties": { "内容": "ライフサポートあいの助　岡山営業所【福祉用具貸与】岡山県岡山市中区さくら住座10-1社会福祉法人　岡山博愛会　在宅総合支援センター　アリス内", "url": "https://www.kaigokensaku.mhlw.go.jp/33/index.php?action_kouhyou_detail_004_kani=true&JigyosyoCd=3370115895-00&ServiceCd=170&Type=search", "url2": "http://hp.kaipoke.biz/3cu/" }, "geometry": { "type": "Point", "coordinates": [ 133.9335838, 34.6515966 ] } },
{ "type": "Feature", "properties": { "内容": "西本薬品株式会社　福祉用具貸与事業所【福祉用具貸与】岡山県岡山市中区浜3丁目７番1号", "url": "https://www.kaigokensaku.mhlw.go.jp/33/index.php?action_kouhyou_detail_004_kani=true&JigyosyoCd=3370101804-00&ServiceCd=170&Type=search", "url2": "http://www.nishimoto-med.co.jp" }, "geometry": { "type": "Point", "coordinates": [ 133.942543699999987, 34.67047 ] } },
{ "type": "Feature", "properties": { "内容": "株式会社　舟木義肢　福祉用具レンタル事業部【福祉用具貸与】岡山県岡山市中区江並１００－７", "url": "https://www.kaigokensaku.mhlw.go.jp/33/index.php?action_kouhyou_detail_004_kani=true&JigyosyoCd=3370101184-00&ServiceCd=170&Type=search", "url2": "http://www.funaki-gishi.co.jp" }, "geometry": { "type": "Point", "coordinates": [ 133.971123199999965, 34.6148214 ] } },
{ "type": "Feature", "properties": { "内容": "いいなケア【福祉用具貸与】岡山県岡山市中区藤原西町２丁目8-26", "url": "https://www.kaigokensaku.mhlw.go.jp/33/index.php?action_kouhyou_detail_004_kani=true&JigyosyoCd=3370108957-00&ServiceCd=170&Type=search", "url2": "https://117care.com" }, "geometry": { "type": "Point", "coordinates": [ 133.958472799999981, 34.6772531 ] } },
{ "type": "Feature", "properties": { "内容": "福祉用具やすらぎケアサービス【福祉用具貸与】岡山県岡山市中区中島69-3", "url": "https://www.kaigokensaku.mhlw.go.jp/33/index.php?action_kouhyou_detail_004_kani=true&JigyosyoCd=3370117586-00&ServiceCd=170&Type=search", "url2": null }, "geometry": { "type": "Point", "coordinates": [ 133.9456346, 34.6862678 ] } },
{ "type": "Feature", "properties": { "内容": "リーフプラス【福祉用具貸与】岡山県岡山市中区新京橋3丁目4-14", "url": "https://www.kaigokensaku.mhlw.go.jp/33/index.php?action_kouhyou_detail_004_kani=true&JigyosyoCd=3370112793-00&ServiceCd=170&Type=search", "url2": "https://merciservice.jp/" }, "geometry": { "type": "Point", "coordinates": [ 133.937788401087317, 34.6534786202565 ] } },
{ "type": "Feature", "properties": { "内容": "ケアサポートウエオカ【福祉用具貸与】岡山県岡山市東区西大寺新１４番地１３", "url": "https://www.kaigokensaku.mhlw.go.jp/33/index.php?action_kouhyou_detail_004_kani=true&JigyosyoCd=3370114781-00&ServiceCd=170&Type=search", "url2": null }, "geometry": { "type": "Point", "coordinates": [ 134.034935, 34.6404695 ] } },
{ "type": "Feature", "properties": { "内容": "こすもすめ～る西大寺店【福祉用具貸与】岡山県岡山市東区西大寺中2-7-3", "url": "https://www.kaigokensaku.mhlw.go.jp/33/index.php?action_kouhyou_detail_004_kani=true&JigyosyoCd=3370104659-00&ServiceCd=170&Type=search", "url2": null }, "geometry": { "type": "Point", "coordinates": [ 134.032482100000038, 34.6565289 ] } },
{ "type": "Feature", "properties": { "内容": "サポート岡山【福祉用具貸与】岡山県岡山市南区当新田355-37", "url": "https://www.kaigokensaku.mhlw.go.jp/33/index.php?action_kouhyou_detail_004_kani=true&JigyosyoCd=3370114948-00&ServiceCd=170&Type=search", "url2": null }, "geometry": { "type": "Point", "coordinates": [ 133.8986735, 34.624164 ] } },
{ "type": "Feature", "properties": { "内容": "株式会社フルケア　岡山営業所【福祉用具貸与】岡山市南区藤田651-18", "url": "https://www.kaigokensaku.mhlw.go.jp/33/index.php?action_kouhyou_detail_004_kani=true&JigyosyoCd=3370110912-00&ServiceCd=170&Type=search", "url2": "http://www.full-care.jp/" }, "geometry": { "type": "Point", "coordinates": [ 133.903512699999965, 34.6130307 ] } },
{ "type": "Feature", "properties": { "内容": "株式会社セリオモビリティショップ岡山【福祉用具貸与】岡山県岡山市南区新保1171-5", "url": "https://www.kaigokensaku.mhlw.go.jp/33/index.php?action_kouhyou_detail_004_kani=true&JigyosyoCd=3370116802-00&ServiceCd=170&Type=search", "url2": null }, "geometry": { "type": "Point", "coordinates": [ 133.9133072, 34.6326034 ] } },
{ "type": "Feature", "properties": { "内容": "アークテクノサービス【福祉用具貸与】岡山県岡山市南区新保1314-2ディアリオB-1", "url": "https://www.kaigokensaku.mhlw.go.jp/33/index.php?action_kouhyou_detail_004_kani=true&JigyosyoCd=3370114930-00&ServiceCd=170&Type=search", "url2": null }, "geometry": { "type": "Point", "coordinates": [ 133.907939899999974, 34.6356142 ] } },
{ "type": "Feature", "properties": { "内容": "ダテ・ライフ・ウエルネス【福祉用具貸与】岡山県岡山市南区西紅陽台2-58-464", "url": "https://www.kaigokensaku.mhlw.go.jp/33/index.php?action_kouhyou_detail_004_kani=true&JigyosyoCd=3370115572-00&ServiceCd=170&Type=search", "url2": "https://www.d-lifewellness.date/" }, "geometry": { "type": "Point", "coordinates": [ 133.88614290000001, 34.5484142 ] } },
{ "type": "Feature", "properties": { "内容": "株式会社ヤマサキ本店福祉用具貸与事業所【福祉用具貸与】岡山県岡山市南区当新田４８５－１８", "url": "https://www.kaigokensaku.mhlw.go.jp/33/index.php?action_kouhyou_detail_004_kani=true&JigyosyoCd=3370101556-00&ServiceCd=170&Type=search", "url2": "http://www.ykaigo.jp/" }, "geometry": { "type": "Point", "coordinates": [ 133.890739199999985, 34.623929 ] } },
{ "type": "Feature", "properties": { "内容": "株式会社メリオ福祉用具貸与事業所【福祉用具貸与】岡山県岡山市南区豊成１丁目11-67", "url": "https://www.kaigokensaku.mhlw.go.jp/33/index.php?action_kouhyou_detail_004_kani=true&JigyosyoCd=3370101739-00&ServiceCd=170&Type=search", "url2": "http://meglio.jp/index.html" }, "geometry": { "type": "Point", "coordinates": [ 133.926848800000016, 34.6320347 ] } },
{ "type": "Feature", "properties": { "内容": "介護ショップいぬかい【福祉用具貸与】岡山県岡山市南区西市１１４－２", "url": "https://www.kaigokensaku.mhlw.go.jp/33/index.php?action_kouhyou_detail_004_kani=true&JigyosyoCd=3370103008-00&ServiceCd=170&Type=search", "url2": "http://www.jml-west.jp" }, "geometry": { "type": "Point", "coordinates": [ 133.902329499999951, 34.6302703 ] } },
{ "type": "Feature", "properties": { "内容": "株式会社　エム・エス経営企画　福祉用具貸与事業部【福祉用具貸与】岡山県岡山市南区築港新町1-7-30", "url": "https://www.kaigokensaku.mhlw.go.jp/33/index.php?action_kouhyou_detail_004_kani=true&JigyosyoCd=3370104816-00&ServiceCd=170&Type=search", "url2": "http://www.sanyo3417.co.jp" }, "geometry": { "type": "Point", "coordinates": [ 133.937484400000017, 34.6068158 ] } },
{ "type": "Feature", "properties": { "内容": "ＳＯＭＰＯケア　岡山　福祉用具【福祉用具貸与】岡山県岡山市南区西市522-1", "url": "https://www.kaigokensaku.mhlw.go.jp/33/index.php?action_kouhyou_detail_004_kani=true&JigyosyoCd=3370115465-00&ServiceCd=170&Type=search", "url2": null }, "geometry": { "type": "Point", "coordinates": [ 133.898367399999984, 34.6312478 ] } },
{ "type": "Feature", "properties": { "内容": "福祉用具事業所あゆむ【福祉用具貸与】岡山県岡山市南区福田95-2", "url": "https://www.kaigokensaku.mhlw.go.jp/33/index.php?action_kouhyou_detail_004_kani=true&JigyosyoCd=3370116851-00&ServiceCd=170&Type=search", "url2": "http://www.ayumu-service.com" }, "geometry": { "type": "Point", "coordinates": [ 133.92912290000001, 34.6172079 ] } },
{ "type": "Feature", "properties": { "内容": "福祉用具レンタル　岡山リハビリ機器販売有限会社本店営業所【福祉用具貸与】岡山県岡山市南区泉田350番地１", "url": "https://www.kaigokensaku.mhlw.go.jp/33/index.php?action_kouhyou_detail_004_kani=true&JigyosyoCd=3370101648-00&ServiceCd=170&Type=search", "url2": "https://okariha.com/" }, "geometry": { "type": "Point", "coordinates": [ 133.91271545108367, 34.627031457077237 ] } },
{ "type": "Feature", "properties": { "内容": "アミューズ富永　福祉用具レンタル事業所【福祉用具貸与】岡山県岡山市南区築港緑町　1-14-16", "url": "https://www.kaigokensaku.mhlw.go.jp/33/index.php?action_kouhyou_detail_004_kani=true&JigyosyoCd=3370101978-00&ServiceCd=170&Type=search", "url2": "kusuriya.co.jp" }, "geometry": { "type": "Point", "coordinates": [ 133.933409799999907, 34.6042771 ] } },
{ "type": "Feature", "properties": { "内容": "株式会社フロンティア岡山営業所【福祉用具貸与】岡山市南区豊成2丁目3番3号", "url": "https://www.kaigokensaku.mhlw.go.jp/33/index.php?action_kouhyou_detail_004_kani=true&JigyosyoCd=3370112389-00&ServiceCd=170&Type=search", "url2": "http://www.frontier-ph.com/" }, "geometry": { "type": "Point", "coordinates": [ 133.929423600000064, 34.6293573 ] } },
{ "type": "Feature", "properties": { "内容": "アール・ケア　福祉用具サービス【福祉用具貸与】岡山県岡山市南区新保944-7", "url": "https://www.kaigokensaku.mhlw.go.jp/33/index.php?action_kouhyou_detail_004_kani=true&JigyosyoCd=3370113353-00&ServiceCd=170&Type=search", "url2": "www.rcare.jp" }, "geometry": { "type": "Point", "coordinates": [ 133.907584814597413, 34.636811823186477 ] } },
{ "type": "Feature", "properties": { "内容": "あいケア【福祉用具貸与】岡山県岡山市南区福富西一丁目18-31", "url": "https://www.kaigokensaku.mhlw.go.jp/33/index.php?action_kouhyou_detail_004_kani=true&JigyosyoCd=3370114906-00&ServiceCd=170&Type=search", "url2": null }, "geometry": { "type": "Point", "coordinates": [ 133.931170699999939, 34.6237691 ] } },
{ "type": "Feature", "properties": { "内容": "川﨑商会　岡山店【福祉用具貸与】妹尾2613番地1", "url": "https://www.kaigokensaku.mhlw.go.jp/33/index.php?action_kouhyou_detail_004_kani=true&JigyosyoCd=3370114997-00&ServiceCd=170&Type=search", "url2": null }, "geometry": { "type": "Point", "coordinates": [ 133.865641099999948, 34.6166622 ] } },
{ "type": "Feature", "properties": { "内容": "タイオンアクト岡山支店【福祉用具貸与】岡山市南区豊成2丁目2-9", "url": "https://www.kaigokensaku.mhlw.go.jp/33/index.php?action_kouhyou_detail_004_kani=true&JigyosyoCd=3370116463-00&ServiceCd=170&Type=search", "url2": "https://www.taion365.co.jp" }, "geometry": { "type": "Point", "coordinates": [ 133.9281786, 34.628180200000031 ] } },
{ "type": "Feature", "properties": { "内容": "有限会社　西日本ワークス【福祉用具貸与】岡山県倉敷市笹沖312-18", "url": "https://www.kaigokensaku.mhlw.go.jp/33/index.php?action_kouhyou_detail_004_kani=true&JigyosyoCd=3370202495-00&ServiceCd=170&Type=search", "url2": null }, "geometry": { "type": "Point", "coordinates": [ 133.768131899999958, 34.5747504 ] } },
{ "type": "Feature", "properties": { "内容": "創心会生活環境プランニング【福祉用具貸与】岡山県倉敷市茶屋町2104-1", "url": "https://www.kaigokensaku.mhlw.go.jp/33/index.php?action_kouhyou_detail_004_kani=true&JigyosyoCd=3370201760-00&ServiceCd=170&Type=search", "url2": "http://www.soushinkai.com" }, "geometry": { "type": "Point", "coordinates": [ 133.824557257672126, 34.58343141734759 ] } },
{ "type": "Feature", "properties": { "内容": "こすもすめ～る水島中央店【福祉用具貸与】岡山県倉敷市連島町連島697-1", "url": "https://www.kaigokensaku.mhlw.go.jp/33/index.php?action_kouhyou_detail_004_kani=true&JigyosyoCd=3370201919-00&ServiceCd=170&Type=search", "url2": null }, "geometry": { "type": "Point", "coordinates": [ 133.744020966628, 34.555074891680825 ] } },
{ "type": "Feature", "properties": { "内容": "ひらまつエンタープライズ福祉用具貸与事業所【福祉用具貸与】岡山県倉敷市昭和１丁目２番２２号", "url": "https://www.kaigokensaku.mhlw.go.jp/33/index.php?action_kouhyou_detail_004_kani=true&JigyosyoCd=3370203352-00&ServiceCd=170&Type=search", "url2": "http://hiramatsu-ep.co.jp" }, "geometry": { "type": "Point", "coordinates": [ 133.770761399999969, 34.6044505 ] } },
{ "type": "Feature", "properties": { "内容": "あくらケアサービス【福祉用具貸与】粒江20番地20", "url": "https://www.kaigokensaku.mhlw.go.jp/33/index.php?action_kouhyou_detail_004_kani=true&JigyosyoCd=3370209417-00&ServiceCd=170&Type=search", "url2": "https://exflap.co.jp/kaigo-rental-akura/" }, "geometry": { "type": "Point", "coordinates": [ 133.8052446, 34.5540855 ] } },
{ "type": "Feature", "properties": { "内容": "おうじの福祉用具plusR【福祉用具貸与】岡山県倉敷市児島下の町５丁目２－１７", "url": "https://www.kaigokensaku.mhlw.go.jp/33/index.php?action_kouhyou_detail_004_kani=true&JigyosyoCd=3370209599-00&ServiceCd=170&Type=search", "url2": "https://ohji-clinic.jp/" }, "geometry": { "type": "Point", "coordinates": [ 133.82152640000001, 34.4775511 ] } },
{ "type": "Feature", "properties": { "内容": "有限会社福祉の店アイコー本店営業所【福祉用具貸与】岡山県倉敷市福島776-1", "url": "https://www.kaigokensaku.mhlw.go.jp/33/index.php?action_kouhyou_detail_004_kani=true&JigyosyoCd=3370200564-00&ServiceCd=170&Type=search", "url2": "http://aikoo.jp/" }, "geometry": { "type": "Point", "coordinates": [ 133.789404663850888, 34.597113024600134 ] } },
{ "type": "Feature", "properties": { "内容": "日本基準寝具株式会社　岡山営業所【福祉用具貸与】岡山県倉敷市東富井727-5", "url": "https://www.kaigokensaku.mhlw.go.jp/33/index.php?action_kouhyou_detail_004_kani=true&JigyosyoCd=3370200804-00&ServiceCd=170&Type=search", "url2": "https://www.nihonkijun.jp" }, "geometry": { "type": "Point", "coordinates": [ 133.750552500000026, 34.5769891 ] } },
{ "type": "Feature", "properties": { "内容": "深川医療器株式会社ライフケア倉敷【福祉用具貸与】岡山県倉敷市宮前481-3クラールファイン101", "url": "https://www.kaigokensaku.mhlw.go.jp/33/index.php?action_kouhyou_detail_004_kani=true&JigyosyoCd=3370209037-00&ServiceCd=170&Type=search", "url2": "http://www.mc-fukagawa.co.jp" }, "geometry": { "type": "Point", "coordinates": [ 133.762014, 34.6141659 ] } },
{ "type": "Feature", "properties": { "内容": "すまいるさぽーと【福祉用具貸与】水江1599-2", "url": "https://www.kaigokensaku.mhlw.go.jp/33/index.php?action_kouhyou_detail_004_kani=true&JigyosyoCd=3370208120-00&ServiceCd=170&Type=search", "url2": "smilesupport9.wixsite.com" }, "geometry": { "type": "Point", "coordinates": [ 133.744233, 34.5976234 ] } },
{ "type": "Feature", "properties": { "内容": "TakeCare株式会社【福祉用具貸与】倉敷市沖12-3", "url": "https://www.kaigokensaku.mhlw.go.jp/33/index.php?action_kouhyou_detail_004_kani=true&JigyosyoCd=3370206108-00&ServiceCd=170&Type=search", "url2": "http://www.delivery-care.com/" }, "geometry": { "type": "Point", "coordinates": [ 133.751434439881109, 34.59063616458328 ] } },
{ "type": "Feature", "properties": { "内容": "有限会社　マツモトメディカル【福祉用具貸与】岡山県倉敷市中庄８６７－３", "url": "https://www.kaigokensaku.mhlw.go.jp/33/index.php?action_kouhyou_detail_004_kani=true&JigyosyoCd=3370201836-00&ServiceCd=170&Type=search", "url2": "http://www.matsume.co.jp/" }, "geometry": { "type": "Point", "coordinates": [ 133.791099, 34.6140386 ] } },
{ "type": "Feature", "properties": { "内容": "赤木医科器械株式会社本店福祉用具貸与事業所【福祉用具貸与】岡山県倉敷市美和2丁目1-11", "url": "https://www.kaigokensaku.mhlw.go.jp/33/index.php?action_kouhyou_detail_004_kani=true&JigyosyoCd=3370201026-00&ServiceCd=170&Type=search", "url2": "http://www.akagi-ika.co.jp" }, "geometry": { "type": "Point", "coordinates": [ 133.774676015894329, 34.59906779305885 ] } },
{ "type": "Feature", "properties": { "内容": "有限会社　医療福祉研究所ヘイセイ【福祉用具貸与】岡山県倉敷市老松町４丁目４－７倉敷在宅総合ケアセンター", "url": "https://www.kaigokensaku.mhlw.go.jp/33/index.php?action_kouhyou_detail_004_kani=true&JigyosyoCd=3370200960-00&ServiceCd=170&Type=search", "url2": "http://www.heisei.or.jp/" }, "geometry": { "type": "Point", "coordinates": [ 133.760956699999952, 34.594082 ] } },
{ "type": "Feature", "properties": { "内容": "株式会社KUNPUケアサプライ【福祉用具貸与】岡山県倉敷市水島西栄町10－25", "url": "https://www.kaigokensaku.mhlw.go.jp/33/index.php?action_kouhyou_detail_004_kani=true&JigyosyoCd=3370209276-00&ServiceCd=170&Type=search", "url2": null }, "geometry": { "type": "Point", "coordinates": [ 133.7435481, 34.5390029 ] } },
{ "type": "Feature", "properties": { "内容": "福祉用具ラボ　アイボリー【福祉用具貸与】岡山県倉敷市玉島1334-1", "url": "https://www.kaigokensaku.mhlw.go.jp/33/index.php?action_kouhyou_detail_004_kani=true&JigyosyoCd=3370208849-00&ServiceCd=170&Type=search", "url2": null }, "geometry": { "type": "Point", "coordinates": [ 133.6829842, 34.5490064 ] } },
{ "type": "Feature", "properties": { "内容": "ライフサポート　あいの助【福祉用具貸与】玉島1599-5", "url": "https://www.kaigokensaku.mhlw.go.jp/33/index.php?action_kouhyou_detail_004_kani=true&JigyosyoCd=3370209292-00&ServiceCd=170&Type=search", "url2": "https://igisanso.com/ainosuke/" }, "geometry": { "type": "Point", "coordinates": [ 133.6807557, 34.5501936 ] } },
{ "type": "Feature", "properties": { "内容": "株式会社ライフケア倉敷支店【福祉用具貸与】岡山県倉敷市福田町浦田2174-1", "url": "https://www.kaigokensaku.mhlw.go.jp/33/index.php?action_kouhyou_detail_004_kani=true&JigyosyoCd=3370205910-00&ServiceCd=170&Type=search", "url2": "https://lifecare-ok.co.jp" }, "geometry": { "type": "Point", "coordinates": [ 133.7507392, 34.5556636 ] } },
{ "type": "Feature", "properties": { "内容": "株式会社　リ・ライフ【福祉用具貸与】岡山県倉敷市福田町古新田1002-65", "url": "https://www.kaigokensaku.mhlw.go.jp/33/index.php?action_kouhyou_detail_004_kani=true&JigyosyoCd=3370208500-00&ServiceCd=170&Type=search", "url2": "https://re-life-support.jp/" }, "geometry": { "type": "Point", "coordinates": [ 133.771474199141124, 34.539069290530819 ] } },
{ "type": "Feature", "properties": { "内容": "福祉用具のリリーフ【福祉用具貸与】岡山県倉敷市玉島乙島7190-5令和乙島事業所", "url": "https://www.kaigokensaku.mhlw.go.jp/33/index.php?action_kouhyou_detail_004_kani=true&JigyosyoCd=3370209250-00&ServiceCd=170&Type=search", "url2": "https://www.tomicare.com" }, "geometry": { "type": "Point", "coordinates": [ 133.6845198, 34.5336861 ] } },
{ "type": "Feature", "properties": { "内容": "福祉用具販売・レンタルサービス　シルプラ【福祉用具貸与】岡山県倉敷市玉島阿賀崎1676番地1", "url": "https://www.kaigokensaku.mhlw.go.jp/33/index.php?action_kouhyou_detail_004_kani=true&JigyosyoCd=3370205944-00&ServiceCd=170&Type=search", "url2": "https://www.silpla.online/" }, "geometry": { "type": "Point", "coordinates": [ 133.660955667239847, 34.547021262928965 ] } },
{ "type": "Feature", "properties": { "内容": "株式会社　百ちゃん本舗おぎの【福祉用具貸与】児島味野2-2-43", "url": "https://www.kaigokensaku.mhlw.go.jp/33/index.php?action_kouhyou_detail_004_kani=true&JigyosyoCd=3370205001-00&ServiceCd=170&Type=search", "url2": null }, "geometry": { "type": "Point", "coordinates": [ 133.802562099999932, 34.4685192 ] } },
{ "type": "Feature", "properties": { "内容": "ダスキンヘルスレント倉敷ステーション【福祉用具貸与】岡山県倉敷市酒津2251-1", "url": "https://www.kaigokensaku.mhlw.go.jp/33/index.php?action_kouhyou_detail_004_kani=true&JigyosyoCd=3370208997-00&ServiceCd=170&Type=search", "url2": "https://healthrent.duskin.jp/station/okayama/kurashiki.html" }, "geometry": { "type": "Point", "coordinates": [ 133.755033670246434, 34.615917516443069 ] } },
{ "type": "Feature", "properties": { "内容": "株式会社　トーカイ　倉敷営業所【福祉用具貸与】西阿知町1282番1", "url": "https://www.kaigokensaku.mhlw.go.jp/33/index.php?action_kouhyou_detail_004_kani=true&JigyosyoCd=3370206272-00&ServiceCd=170&Type=search", "url2": "http://tokai-corp.com" }, "geometry": { "type": "Point", "coordinates": [ 133.725940700000024, 34.5801805 ] } },
{ "type": "Feature", "properties": { "内容": "株式会社セレクト　岡山支店【福祉用具貸与】津山市山方５９－４", "url": "https://www.kaigokensaku.mhlw.go.jp/33/index.php?action_kouhyou_detail_004_kani=true&JigyosyoCd=3370301727-00&ServiceCd=170&Type=search", "url2": "//www.select-shinsengumi.co.jp" }, "geometry": { "type": "Point", "coordinates": [ 133.997897700000067, 35.102303 ] } },
{ "type": "Feature", "properties": { "内容": "介護ショップ津山【福祉用具貸与】岡山県津山市西吉田8-28", "url": "https://www.kaigokensaku.mhlw.go.jp/33/index.php?action_kouhyou_detail_004_kani=true&JigyosyoCd=3370300521-00&ServiceCd=170&Type=search", "url2": null }, "geometry": { "type": "Point", "coordinates": [ 134.0632263, 35.0465692 ] } },
{ "type": "Feature", "properties": { "内容": "ライフエイド【福祉用具貸与】岡山県津山市野介代975-7", "url": "https://www.kaigokensaku.mhlw.go.jp/33/index.php?action_kouhyou_detail_004_kani=true&JigyosyoCd=3370300547-00&ServiceCd=170&Type=search", "url2": null }, "geometry": { "type": "Point", "coordinates": [ 134.0319594, 35.0782958 ] } },
{ "type": "Feature", "properties": { "内容": "株式会社フラット【福祉用具貸与】岡山県津山市一宮３－１", "url": "https://www.kaigokensaku.mhlw.go.jp/33/index.php?action_kouhyou_detail_004_kani=true&JigyosyoCd=3370301792-00&ServiceCd=170&Type=search", "url2": null }, "geometry": { "type": "Point", "coordinates": [ 133.998853599999961, 35.0916404 ] } },
{ "type": "Feature", "properties": { "内容": "株式会社アシスト津山【福祉用具貸与】岡山県津山市坪井町２４番地", "url": "https://www.kaigokensaku.mhlw.go.jp/33/index.php?action_kouhyou_detail_004_kani=true&JigyosyoCd=3370301396-00&ServiceCd=170&Type=search", "url2": null }, "geometry": { "type": "Point", "coordinates": [ 133.99596889999998, 35.0607132 ] } },
{ "type": "Feature", "properties": { "内容": "株式会社　津山医研【福祉用具貸与】岡山県津山市山北636の2", "url": "https://www.kaigokensaku.mhlw.go.jp/33/index.php?action_kouhyou_detail_004_kani=true&JigyosyoCd=3370300190-00&ServiceCd=170&Type=search", "url2": null }, "geometry": { "type": "Point", "coordinates": [ 134.006578699999977, 35.0707793 ] } },
{ "type": "Feature", "properties": { "内容": "介護用品の店　四つ葉【福祉用具貸与】岡山県津山市二宮1940", "url": "https://www.kaigokensaku.mhlw.go.jp/33/index.php?action_kouhyou_detail_004_kani=true&JigyosyoCd=3370302337-00&ServiceCd=170&Type=search", "url2": null }, "geometry": { "type": "Point", "coordinates": [ 133.969885100000056, 35.059698800000014 ] } },
{ "type": "Feature", "properties": { "内容": "株式会社ライフケア　津山支店【福祉用具貸与】津山市押入503-1", "url": "https://www.kaigokensaku.mhlw.go.jp/33/index.php?action_kouhyou_detail_004_kani=true&JigyosyoCd=3370301644-00&ServiceCd=170&Type=search", "url2": "http://www.kawanishi-md.co.jp" }, "geometry": { "type": "Point", "coordinates": [ 134.051213599999983, 35.069278 ] } },
{ "type": "Feature", "properties": { "内容": "株式会社岡崎建材　エール！【福祉用具貸与】玉6-18-7", "url": "https://www.kaigokensaku.mhlw.go.jp/33/index.php?action_kouhyou_detail_004_kani=true&JigyosyoCd=3370401550-00&ServiceCd=170&Type=search", "url2": "https://yell.okazaki-reform.com/" }, "geometry": { "type": "Point", "coordinates": [ 133.929872, 34.485719 ] } },
{ "type": "Feature", "properties": { "内容": "アミューズ富永　玉野福祉用具レンタル事業所【福祉用具貸与】玉野市玉4丁目11-6", "url": "https://www.kaigokensaku.mhlw.go.jp/33/index.php?action_kouhyou_detail_004_kani=true&JigyosyoCd=3370401279-00&ServiceCd=170&Type=search", "url2": "http://www.kusuriya.jp/" }, "geometry": { "type": "Point", "coordinates": [ 133.93078790000007, 34.479946800000015 ] } },
{ "type": "Feature", "properties": { "内容": "角田医療器株式会社【福祉用具貸与】岡山県笠岡市笠岡5891-11", "url": "https://www.kaigokensaku.mhlw.go.jp/33/index.php?action_kouhyou_detail_004_kani=true&JigyosyoCd=3370500161-00&ServiceCd=170&Type=search", "url2": "http://kakuda-i.co.jp" }, "geometry": { "type": "Point", "coordinates": [ 133.495272300000011, 34.50607430000003 ] } },
{ "type": "Feature", "properties": { "内容": "こすもすめ～る芳井店【福祉用具貸与】岡山県井原市芳井町簗瀬３２３番地", "url": "https://www.kaigokensaku.mhlw.go.jp/33/index.php?action_kouhyou_detail_004_kani=true&JigyosyoCd=3372900088-00&ServiceCd=170&Type=search", "url2": null }, "geometry": { "type": "Point", "coordinates": [ 133.436176599999953, 34.6196025 ] } },
{ "type": "Feature", "properties": { "内容": "株式会社第一ライフサービス【福祉用具貸与】岡山県井原市高屋町247番地1", "url": "https://www.kaigokensaku.mhlw.go.jp/33/index.php?action_kouhyou_detail_004_kani=true&JigyosyoCd=3370700860-00&ServiceCd=170&Type=search", "url2": "https://www.ibara-1stclinic.jp/" }, "geometry": { "type": "Point", "coordinates": [ 133.426809020068362, 34.579859128186214 ] } },
{ "type": "Feature", "properties": { "内容": "ケアサークル井原企業組合【福祉用具貸与】岡山県井原市井原町１２０５－１０", "url": "https://www.kaigokensaku.mhlw.go.jp/33/index.php?action_kouhyou_detail_004_kani=true&JigyosyoCd=3370700308-00&ServiceCd=170&Type=search", "url2": "http://www.cc-ibara.com" }, "geometry": { "type": "Point", "coordinates": [ 133.457906699999967, 34.6040682 ] } },
{ "type": "Feature", "properties": { "内容": "株式会社MIERU　高梁事業所【福祉用具貸与】岡山県高梁市津川町八川12-1", "url": "https://www.kaigokensaku.mhlw.go.jp/33/index.php?action_kouhyou_detail_004_kani=true&JigyosyoCd=3370900700-00&ServiceCd=170&Type=search", "url2": null }, "geometry": { "type": "Point", "coordinates": [ 133.6313027, 34.8322095 ] } },
{ "type": "Feature", "properties": { "内容": "さくらメディカルサービス高梁営業所【福祉用具貸与】岡山県高梁市落合町近似267-32", "url": "https://www.kaigokensaku.mhlw.go.jp/33/index.php?action_kouhyou_detail_004_kani=true&JigyosyoCd=3370900445-00&ServiceCd=170&Type=search", "url2": "http://www.sakurams.co.jp" }, "geometry": { "type": "Point", "coordinates": [ 133.609316700000022, 34.7887645 ] } },
{ "type": "Feature", "properties": { "内容": "介護ショップ　ハイビス【福祉用具貸与】岡山県高梁市栄町1955-17", "url": "https://www.kaigokensaku.mhlw.go.jp/33/index.php?action_kouhyou_detail_004_kani=true&JigyosyoCd=3370900270-00&ServiceCd=170&Type=search", "url2": null }, "geometry": { "type": "Point", "coordinates": [ 133.615413200000035, 34.7907949 ] } },
{ "type": "Feature", "properties": { "内容": "介護・福祉用品の店　とも【福祉用具貸与】岡山県新見市哲多町本郷801番地", "url": "https://www.kaigokensaku.mhlw.go.jp/33/index.php?action_kouhyou_detail_004_kani=true&JigyosyoCd=3371000534-00&ServiceCd=170&Type=search", "url2": "https://r.goope.jp/tomo24" }, "geometry": { "type": "Point", "coordinates": [ 133.44998478999662, 34.938102492697098 ] } },
{ "type": "Feature", "properties": { "内容": "さくらメディカルサービス新見営業所【福祉用具貸与】岡山県新見市新見714-3", "url": "https://www.kaigokensaku.mhlw.go.jp/33/index.php?action_kouhyou_detail_004_kani=true&JigyosyoCd=3371000344-00&ServiceCd=170&Type=search", "url2": "http://www.sakurams.co.jp" }, "geometry": { "type": "Point", "coordinates": [ 133.471820100000059, 34.9798187 ] } },
{ "type": "Feature", "properties": { "内容": "川﨑商会　備前店【福祉用具貸与】穂浪231-5", "url": "https://www.kaigokensaku.mhlw.go.jp/33/index.php?action_kouhyou_detail_004_kani=true&JigyosyoCd=3371100797-00&ServiceCd=170&Type=search", "url2": null }, "geometry": { "type": "Point", "coordinates": [ 134.226997126730907, 34.735593767005859 ] } },
{ "type": "Feature", "properties": { "内容": "福祉用具レンタル販売一路【福祉用具貸与】邑久町百田3-5", "url": "https://www.kaigokensaku.mhlw.go.jp/33/index.php?action_kouhyou_detail_004_kani=true&JigyosyoCd=3372401137-00&ServiceCd=170&Type=search", "url2": null }, "geometry": { "type": "Point", "coordinates": [ 134.082344299999988, 34.6687531 ] } },
{ "type": "Feature", "properties": { "内容": "山陽メディックホームヘルスケア事業部【福祉用具貸与】岡山県瀬戸内市邑久町向山76", "url": "https://www.kaigokensaku.mhlw.go.jp/33/index.php?action_kouhyou_detail_004_kani=true&JigyosyoCd=3372400311-00&ServiceCd=170&Type=search", "url2": null }, "geometry": { "type": "Point", "coordinates": [ 134.07718890000001, 34.656654 ] } },
{ "type": "Feature", "properties": { "内容": "さくらメディカルサービス真庭営業所【福祉用具貸与】岡山県真庭市中361-5", "url": "https://www.kaigokensaku.mhlw.go.jp/33/index.php?action_kouhyou_detail_004_kani=true&JigyosyoCd=3373401102-00&ServiceCd=170&Type=search", "url2": "http://www.sakurams.co.jp" }, "geometry": { "type": "Point", "coordinates": [ 133.751922199999967, 35.0575343 ] } },
{ "type": "Feature", "properties": { "内容": "有限会社ケアサポートふくしま【福祉用具貸与】岡山県真庭市開田474番地", "url": "https://www.kaigokensaku.mhlw.go.jp/33/index.php?action_kouhyou_detail_004_kani=true&JigyosyoCd=3373400807-00&ServiceCd=170&Type=search", "url2": null }, "geometry": { "type": "Point", "coordinates": [ 133.753458599999931, 35.0463659 ] } },
{ "type": "Feature", "properties": { "内容": "有限会社　聖一級設計施工　ひじり介護福祉事業所【福祉用具貸与】岡山県真庭市下市瀬１１１７番地の２", "url": "https://www.kaigokensaku.mhlw.go.jp/33/index.php?action_kouhyou_detail_004_kani=true&JigyosyoCd=3373400831-00&ServiceCd=170&Type=search", "url2": null }, "geometry": { "type": "Point", "coordinates": [ 133.749525799999986, 35.0256347 ] } },
{ "type": "Feature", "properties": { "内容": "有限会社キャリアネット本店営業所【福祉用具貸与】岡山県和気郡和気町藤野1145-1", "url": "https://www.kaigokensaku.mhlw.go.jp/33/index.php?action_kouhyou_detail_004_kani=true&JigyosyoCd=3372300149-00&ServiceCd=170&Type=search", "url2": null }, "geometry": { "type": "Point", "coordinates": [ 134.172632, 34.818125 ] } },
{ "type": "Feature", "properties": { "内容": "有限会社　コスモクリエイト【福祉用具貸与】岡山県苫田郡鏡野町古川154-3", "url": "https://www.kaigokensaku.mhlw.go.jp/33/index.php?action_kouhyou_detail_004_kani=true&JigyosyoCd=3370301198-00&ServiceCd=170&Type=search", "url2": null }, "geometry": { "type": "Point", "coordinates": [ 133.92658849999998, 35.076332 ] } },
{ "type": "Feature", "properties": { "内容": "松尾設備工業株式会社【福祉用具貸与】岡山県久米郡美咲町久木236-1", "url": "https://www.kaigokensaku.mhlw.go.jp/33/index.php?action_kouhyou_detail_004_kani=true&JigyosyoCd=3373800626-00&ServiceCd=170&Type=search", "url2": "http://matsuosetsubi.co.jp" }, "geometry": { "type": "Point", "coordinates": [ 134.057943378993002, 34.952038972244203 ] } }
]
}
