{
"type": "FeatureCollection",
"name": "geo_33_1",
"crs": { "type": "name", "properties": { "name": "urn:ogc:def:crs:OGC:1.3:CRS84" } },
"features": [
{ "type": "Feature", "properties": { "ID": 3311320250128, "正式名称": "たまの病院", "機関区分": 1, "都道府県コード": 33, "市区町村コード": 204, "所在地": "岡山県玉野市宇野２丁目１番２０号", "緯度": 34.493252, "経度": 133.943139, "url": "https://www.iryou.teikyouseido.mhlw.go.jp/znk-web/juminkanja/S2430/initialize?prefCd=33&kikanCd=1320250128&kikanKbn=1", "url2": "https://tamano-hp.jp/", "内容": "たまの病院【1:病院】【診療科目:内科_脳神経内科_外科_整形外科_小児科_婦人科_眼科_耳鼻いんこう科_泌尿器科_歯科_リハビリテーション科_放射線科_麻酔科】【一般病床数:140療養病床数:50精神病床数:0感染症病床数:0合計病床数:190】岡山県玉野市宇野２丁目１番２０号" }, "geometry": { "type": "Point", "coordinates": [ 133.943139, 34.493252 ] } },
{ "type": "Feature", "properties": { "ID": 3311330000010, "正式名称": "医療法人社団　恵誠会　大西病院", "機関区分": 1, "都道府県コード": 33, "市区町村コード": 204, "所在地": "岡山県玉野市田井３－８－１１", "緯度": 34.515896, "経度": 133.946036, "url": "https://www.iryou.teikyouseido.mhlw.go.jp/znk-web/juminkanja/S2430/initialize?prefCd=33&kikanCd=1330000010&kikanKbn=1", "url2": "http://www.onishihp.or.jp/", "内容": "医療法人社団　恵誠会　大西病院【1:病院】【診療科目:内科_外科_肛門外科_整形外科_麻酔科】【一般病床数:44療養病床数:0精神病床数:0感染症病床数:0合計病床数:44】岡山県玉野市田井３－８－１１" }, "geometry": { "type": "Point", "coordinates": [ 133.946036, 34.515896 ] } },
{ "type": "Feature", "properties": { "ID": 3311330000020, "正式名称": "岡山赤十字玉野病院", "機関区分": 1, "都道府県コード": 33, "市区町村コード": 204, "所在地": "岡山県玉野市築港五丁目１６番２５号", "緯度": 34.499009, "経度": 133.958591, "url": "https://www.iryou.teikyouseido.mhlw.go.jp/znk-web/juminkanja/S2430/initialize?prefCd=33&kikanCd=1330000020&kikanKbn=1", "url2": "https://www.okaseki-tamano.jrc.or.jp/", "内容": "岡山赤十字玉野病院【1:病院】【診療科目:内科_整形外科_皮膚科_リハビリテーション科】【一般病床数:41療養病床数:42精神病床数:0感染症病床数:0合計病床数:83】岡山県玉野市築港五丁目１６番２５号" }, "geometry": { "type": "Point", "coordinates": [ 133.958591, 34.499009 ] } },
{ "type": "Feature", "properties": { "ID": 3311330000040, "正式名称": "医療法人玉野中央病院", "機関区分": 1, "都道府県コード": 33, "市区町村コード": 204, "所在地": "岡山県玉野市築港１丁目１５番３号", "緯度": 34.493926, "経度": 133.949536, "url": "https://www.iryou.teikyouseido.mhlw.go.jp/znk-web/juminkanja/S2430/initialize?prefCd=33&kikanCd=1330000040&kikanKbn=1", "url2": "https://www.tamanoch1011.jp/", "内容": "医療法人玉野中央病院【1:病院】【診療科目:内科_呼吸器内科_消化器内科_胃腸内科_神経内科_皮膚科_精神科_心療内科】【一般病床数:0療養病床数:37精神病床数:0感染症病床数:0合計病床数:37】岡山県玉野市築港１丁目１５番３号" }, "geometry": { "type": "Point", "coordinates": [ 133.949536, 34.493926 ] } },
{ "type": "Feature", "properties": { "ID": 3311330000060, "正式名称": "医療法人吉備会　中谷外科病院", "機関区分": 1, "都道府県コード": 33, "市区町村コード": 204, "所在地": "岡山県玉野市田井３－１－２０", "緯度": 34.515007, "経度": 133.945119, "url": "https://www.iryou.teikyouseido.mhlw.go.jp/znk-web/juminkanja/S2430/initialize?prefCd=33&kikanCd=1330000060&kikanKbn=1", "url2": "http://www.nakatani-hosp.jp", "内容": "医療法人吉備会　中谷外科病院【1:病院】【診療科目:内科_胃腸内科_外科_肛門外科_リハビリテーション科_麻酔科】【一般病床数:40療養病床数:0精神病床数:0感染症病床数:0合計病床数:40】岡山県玉野市田井３－１－２０" }, "geometry": { "type": "Point", "coordinates": [ 133.945119, 34.515007 ] } },
{ "type": "Feature", "properties": { "ID": 3311330000070, "正式名称": "医療法人愛善会　由良病院", "機関区分": 1, "都道府県コード": 33, "市区町村コード": 204, "所在地": "岡山県玉野市深井町１１－１３", "緯度": 34.45818, "経度": 133.937205, "url": "https://www.iryou.teikyouseido.mhlw.go.jp/znk-web/juminkanja/S2430/initialize?prefCd=33&kikanCd=1330000070&kikanKbn=1", "url2": "http://www.yura-hospital.jp", "内容": "医療法人愛善会　由良病院【1:病院】【診療科目:内科_糖尿病・内分泌内科_呼吸器内科_循環器内科_消化器内科_神経内科_整形外科_精神科_心療内科_リウマチ科_リハビリテーション科_放射線科】【一般病床数:42療養病床数:0精神病床数:135感染症病床数:0合計病床数:177】岡山県玉野市深井町１１－１３" }, "geometry": { "type": "Point", "coordinates": [ 133.937205, 34.45818 ] } },
{ "type": "Feature", "properties": { "ID": 3311330000080, "正式名称": "国立療養所　邑久光明園", "機関区分": 1, "都道府県コード": 33, "市区町村コード": 212, "所在地": "岡山県瀬戸内市邑久町虫明６２５３", "緯度": 34.670745, "経度": 134.22445, "url": "https://www.iryou.teikyouseido.mhlw.go.jp/znk-web/juminkanja/S2430/initialize?prefCd=33&kikanCd=1330000080&kikanKbn=1", "url2": "https://www.mhlw.go.jp/seisakunitsuite/bunya/kenkou_iryou/iryou/hansen/komyo/", "内容": "国立療養所　邑久光明園【1:病院】【診療科目:内科_外科_整形外科_眼科_耳鼻いんこう科_皮膚科_歯科】【一般病床数:339療養病床数:0精神病床数:0感染症病床数:0合計病床数:247】岡山県瀬戸内市邑久町虫明６２５３" }, "geometry": { "type": "Point", "coordinates": [ 134.22445, 34.670745 ] } },
{ "type": "Feature", "properties": { "ID": 3311330000090, "正式名称": "瀬戸内市立瀬戸内市民病院", "機関区分": 1, "都道府県コード": 33, "市区町村コード": 212, "所在地": "岡山県瀬戸内市邑久町山田庄８４５－１", "緯度": 34.665799, "経度": 134.100517, "url": "https://www.iryou.teikyouseido.mhlw.go.jp/znk-web/juminkanja/S2430/initialize?prefCd=33&kikanCd=1330000090&kikanKbn=1", "url2": "https://www.city.setouchi.lg.jp/site/hospital/", "内容": "瀬戸内市立瀬戸内市民病院【1:病院】【診療科目:内科_呼吸器内科_循環器内科_消化器内科_外科_脳神経外科_整形外科_小児科_眼科_耳鼻いんこう科_皮膚科_精神科_リハビリテーション科_麻酔科】【一般病床数:110療養病床数:0精神病床数:0感染症病床数:0合計病床数:110】岡山県瀬戸内市邑久町山田庄８４５－１" }, "geometry": { "type": "Point", "coordinates": [ 134.100517, 34.665799 ] } },
{ "type": "Feature", "properties": { "ID": 3311330000100, "正式名称": "国立療養所長島愛生園", "機関区分": 1, "都道府県コード": 33, "市区町村コード": 212, "所在地": "岡山県瀬戸内市邑久町虫明６５３９", "緯度": 34.679967, "経度": 134.243865, "url": "https://www.iryou.teikyouseido.mhlw.go.jp/znk-web/juminkanja/S2430/initialize?prefCd=33&kikanCd=1330000100&kikanKbn=1", "url2": "http://www.hosp.go.jp/aiseien/welcome.htm", "内容": "国立療養所長島愛生園【1:病院】【診療科目:内科_循環器内科_外科_整形外科_眼科_耳鼻いんこう科_皮膚科_精神科_歯科_麻酔科】【一般病床数:537療養病床数:0精神病床数:0感染症病床数:0合計病床数:537】岡山県瀬戸内市邑久町虫明６５３９" }, "geometry": { "type": "Point", "coordinates": [ 134.243865, 34.679967 ] } },
{ "type": "Feature", "properties": { "ID": 3311330000110, "正式名称": "独立行政法人労働者健康安全機構　吉備高原医療リハビリテーションセンター", "機関区分": 1, "都道府県コード": 33, "市区町村コード": 681, "所在地": "岡山県加賀郡吉備中央町吉川７５１１", "緯度": 34.840021, "経度": 133.760153, "url": "https://www.iryou.teikyouseido.mhlw.go.jp/znk-web/juminkanja/S2430/initialize?prefCd=33&kikanCd=1330000110&kikanKbn=1", "url2": "https://www.kibirihah.johas.go.jp/", "内容": "独立行政法人労働者健康安全機構　吉備高原医療リハビリテーションセンター【1:病院】【診療科目:内科_脳神経内科_循環器内科_整形外科_皮膚科_泌尿器科_歯科_アレルギー科_リハビリテーション科】【一般病床数:150療養病床数:0精神病床数:0感染症病床数:0合計病床数:150】岡山県加賀郡吉備中央町吉川７５１１" }, "geometry": { "type": "Point", "coordinates": [ 133.760153, 34.840021 ] } },
{ "type": "Feature", "properties": { "ID": 3311330000120, "正式名称": "医療法人社団吉美会吉備高原ルミエール病院", "機関区分": 1, "都道府県コード": 33, "市区町村コード": 681, "所在地": "岡山県加賀郡吉備中央町宮地３３３６番地１５", "緯度": 34.773222, "経度": 133.680051, "url": "https://www.iryou.teikyouseido.mhlw.go.jp/znk-web/juminkanja/S2430/initialize?prefCd=33&kikanCd=1330000120&kikanKbn=1", "url2": "http://www.kibi.ne.jp/~rumihp/", "内容": "医療法人社団吉美会吉備高原ルミエール病院【1:病院】【診療科目:内科_消化器内科_神経内科_歯科_リハビリテーション科】【一般病床数:0療養病床数:58精神病床数:0感染症病床数:0合計病床数:54】岡山県加賀郡吉備中央町宮地３３３６番地１５" }, "geometry": { "type": "Point", "coordinates": [ 133.680051, 34.773222 ] } },
{ "type": "Feature", "properties": { "ID": 3311330000130, "正式名称": "草加病院", "機関区分": 1, "都道府県コード": 33, "市区町村コード": 211, "所在地": "岡山県備前市西片上１１２２", "緯度": 34.746986, "経度": 134.182424, "url": "https://www.iryou.teikyouseido.mhlw.go.jp/znk-web/juminkanja/S2430/initialize?prefCd=33&kikanCd=1330000130&kikanKbn=1", "url2": "https://kusaka-soujinkai.jp", "内容": "草加病院【1:病院】【診療科目:内科_呼吸器内科_循環器内科_消化器内科_外科_整形外科_眼科_皮膚科_リハビリテーション科_放射線科_麻酔科】【一般病床数:45療養病床数:36精神病床数:0感染症病床数:0合計病床数:81】岡山県備前市西片上１１２２" }, "geometry": { "type": "Point", "coordinates": [ 134.182424, 34.746986 ] } },
{ "type": "Feature", "properties": { "ID": 3311330000140, "正式名称": "備前市国民健康保険市立備前病院", "機関区分": 1, "都道府県コード": 33, "市区町村コード": 211, "所在地": "岡山県備前市伊部２２４５番地", "緯度": 34.739181, "経度": 134.155621, "url": "https://www.iryou.teikyouseido.mhlw.go.jp/znk-web/juminkanja/S2430/initialize?prefCd=33&kikanCd=1330000140&kikanKbn=1", "url2": "https://www.city.bizen.okayama.jp/soshiki/55/", "内容": "備前市国民健康保険市立備前病院【1:病院】【診療科目:内科_脳神経内科_呼吸器内科_循環器内科_消化器内科_外科_脳神経外科_整形外科_婦人科_皮膚科_泌尿器科_リハビリテーション科_放射線科_麻酔科】【一般病床数:46療養病床数:44精神病床数:0感染症病床数:0合計病床数:90】岡山県備前市伊部２２４５番地" }, "geometry": { "type": "Point", "coordinates": [ 134.155621, 34.739181 ] } },
{ "type": "Feature", "properties": { "ID": 3311330000150, "正式名称": "備前市国民健康保険市立日生病院", "機関区分": 1, "都道府県コード": 33, "市区町村コード": 211, "所在地": "岡山県備前市日生町寒河２５７０－４１", "緯度": 34.733823, "経度": 134.279554, "url": "https://www.iryou.teikyouseido.mhlw.go.jp/znk-web/juminkanja/S2430/initialize?prefCd=33&kikanCd=1330000150&kikanKbn=1", "url2": "http://www.city.bizen.okayama.jp/shimin/shisetsu/hinasehospital/index.jsp", "内容": "備前市国民健康保険市立日生病院【1:病院】【診療科目:内科_循環器内科_外科_脳神経外科_整形外科_婦人科_眼科_皮膚科_泌尿器科_リウマチ科_リハビリテーション科_放射線科】【一般病床数:40療養病床数:52精神病床数:0感染症病床数:0合計病床数:92】岡山県備前市日生町寒河２５７０－４１" }, "geometry": { "type": "Point", "coordinates": [ 134.279554, 34.733823 ] } },
{ "type": "Feature", "properties": { "ID": 3311330000160, "正式名称": "備前市国民健康保険市立吉永病院", "機関区分": 1, "都道府県コード": 33, "市区町村コード": 211, "所在地": "岡山県備前市吉永町吉永中５６３－４", "緯度": 34.811868, "経度": 134.203031, "url": "https://www.iryou.teikyouseido.mhlw.go.jp/znk-web/juminkanja/S2430/initialize?prefCd=33&kikanCd=1330000160&kikanKbn=1", "url2": "http://www.city.bizen.okayama.jp", "内容": "備前市国民健康保険市立吉永病院【1:病院】【診療科目:内科_脳神経内科_呼吸器内科_循環器内科_消化器内科_腎臓内科_外科_脳神経外科_呼吸器外科_心臓血管外科_消化器外科_整形外科_小児科_婦人科_眼科_泌尿器科_精神科_リハビリテーション科_放射線科_麻酔科】【一般病床数:50療養病床数:0精神病床数:0感染症病床数:0合計病床数:50】岡山県備前市吉永町吉永中５６３－４" }, "geometry": { "type": "Point", "coordinates": [ 134.203031, 34.811868 ] } },
{ "type": "Feature", "properties": { "ID": 3311330000170, "正式名称": "赤磐医師会病院", "機関区分": 1, "都道府県コード": 33, "市区町村コード": 213, "所在地": "岡山県赤磐市下市１８７番地１", "緯度": 34.75051, "経度": 134.01991, "url": "https://www.iryou.teikyouseido.mhlw.go.jp/znk-web/juminkanja/S2430/initialize?prefCd=33&kikanCd=1330000170&kikanKbn=1", "url2": "http://www.akaiwa-mah.jp/", "内容": "赤磐医師会病院【1:病院】【診療科目:内科_糖尿病内科_循環器内科_消化器内科_腎臓内科_神経内科_外科_整形外科_泌尿器科_リハビリテーション科_放射線科】【一般病床数:151療養病床数:94精神病床数:0感染症病床数:0合計病床数:245】岡山県赤磐市下市１８７番地１" }, "geometry": { "type": "Point", "coordinates": [ 134.01991, 34.75051 ] } },
{ "type": "Feature", "properties": { "ID": 3311330000180, "正式名称": "医療法人紀典会北川病院", "機関区分": 1, "都道府県コード": 33, "市区町村コード": 346, "所在地": "岡山県和気郡和気町和気２７７", "緯度": 34.802312, "経度": 134.144259, "url": "https://www.iryou.teikyouseido.mhlw.go.jp/znk-web/juminkanja/S2430/initialize?prefCd=33&kikanCd=1330000180&kikanKbn=1", "url2": "http://www.kitagawa-hp.jp/", "内容": "医療法人紀典会北川病院【1:病院】【診療科目:内科_循環器内科_外科_肛門外科_整形外科_皮膚科_泌尿器科_歯科_リウマチ科_リハビリテーション科_麻酔科】【一般病床数:76療養病床数:0精神病床数:0感染症病床数:0合計病床数:98】岡山県和気郡和気町和気２７７" }, "geometry": { "type": "Point", "coordinates": [ 134.144259, 34.802312 ] } },
{ "type": "Feature", "properties": { "ID": 3311330000190, "正式名称": "医療法人平病院", "機関区分": 1, "都道府県コード": 33, "市区町村コード": 346, "所在地": "岡山県和気郡和気町尺所４３８", "緯度": 34.804951, "経度": 134.161702, "url": "https://www.iryou.teikyouseido.mhlw.go.jp/znk-web/juminkanja/S2430/initialize?prefCd=33&kikanCd=1330000190&kikanKbn=1", "url2": "https://www.tairahos.or.jp/", "内容": "医療法人平病院【1:病院】【診療科目:内科_循環器内科_外科_整形外科_眼科_リハビリテーション科_放射線科】【一般病床数:33療養病床数:29精神病床数:0感染症病床数:0合計病床数:89】岡山県和気郡和気町尺所４３８" }, "geometry": { "type": "Point", "coordinates": [ 134.161702, 34.804951 ] } },
{ "type": "Feature", "properties": { "ID": 3311330000200, "正式名称": "医療法人　行堂会　長野病院", "機関区分": 1, "都道府県コード": 33, "市区町村コード": 208, "所在地": "岡山県総社市金井戸１５０－１", "緯度": 34.683519, "経度": 133.768778, "url": "https://www.iryou.teikyouseido.mhlw.go.jp/znk-web/juminkanja/S2430/initialize?prefCd=33&kikanCd=1330000200&kikanKbn=1", "url2": "http://nagano.koudou-kai.or.jp", "内容": "医療法人　行堂会　長野病院【1:病院】【診療科目:内科_血液内科_糖尿病内科_呼吸器内科_循環器内科_消化器内科_神経内科_腫瘍内科_外科_心臓血管外科_消化器外科_乳腺外科_整形外科_形成外科_婦人科_リハビリテーション科_放射線科】【一般病床数:0療養病床数:86精神病床数:0感染症病床数:0合計病床数:86】岡山県総社市金井戸１５０－１" }, "geometry": { "type": "Point", "coordinates": [ 133.768778, 34.683519 ] } },
{ "type": "Feature", "properties": { "ID": 3311330000210, "正式名称": "森下病院", "機関区分": 1, "都道府県コード": 33, "市区町村コード": 208, "所在地": "岡山県総社市駅前１－６－１", "緯度": 34.674234, "経度": 133.739965, "url": "https://www.iryou.teikyouseido.mhlw.go.jp/znk-web/juminkanja/S2430/initialize?prefCd=33&kikanCd=1330000210&kikanKbn=1", "url2": "http://morishitahp.or.jp", "内容": "森下病院【1:病院】【診療科目:内科_糖尿病内科_呼吸器内科_消化器内科_腎臓内科_外科_消化器外科_整形外科_皮膚科_泌尿器科_リハビリテーション科】【一般病床数:38療養病床数:26精神病床数:0感染症病床数:0合計病床数:64】岡山県総社市駅前１－６－１" }, "geometry": { "type": "Point", "coordinates": [ 133.739965, 34.674234 ] } },
{ "type": "Feature", "properties": { "ID": 3311330000220, "正式名称": "医療法人　薬師寺慈恵会　薬師寺慈恵病院", "機関区分": 1, "都道府県コード": 33, "市区町村コード": 208, "所在地": "岡山県総社市総社１－１７ー２５", "緯度": 34.676845, "経度": 133.749937, "url": "https://www.iryou.teikyouseido.mhlw.go.jp/znk-web/juminkanja/S2430/initialize?prefCd=33&kikanCd=1330000220&kikanKbn=1", "url2": "https://yakushiji-jikei.com", "内容": "医療法人　薬師寺慈恵会　薬師寺慈恵病院【1:病院】【診療科目:内科_脳神経内科_循環器内科_消化器内科_胃腸内科_外科_脳神経外科_消化器外科_肛門外科_整形外科_形成外科_小児科_救急科_麻酔科】【一般病床数:31療養病床数:33精神病床数:0感染症病床数:0合計病床数:64】岡山県総社市総社１－１７ー２５" }, "geometry": { "type": "Point", "coordinates": [ 133.749937, 34.676845 ] } },
{ "type": "Feature", "properties": { "ID": 3311330000230, "正式名称": "独立行政法人国立病院機構南岡山医療センター", "機関区分": 1, "都道府県コード": 33, "市区町村コード": 423, "所在地": "岡山県都窪郡早島町早島４０６６番地", "緯度": 34.613326, "経度": 133.823238, "url": "https://www.iryou.teikyouseido.mhlw.go.jp/znk-web/juminkanja/S2430/initialize?prefCd=33&kikanCd=1330000230&kikanKbn=1", "url2": "https://minamiokayama.hosp.go.jp/", "内容": "独立行政法人国立病院機構南岡山医療センター【1:病院】【診療科目:内科_脳神経内科_呼吸器内科_循環器内科_消化器内科_外科_呼吸器外科_整形外科_小児科_小児外科_小児神経科_眼科_耳鼻いんこう科_皮膚科_泌尿器科_歯科_アレルギー科_リハビリテーション科_放射線科_麻酔科】【一般病床数:350療養病床数:0精神病床数:0感染症病床数:0合計病床数:375】岡山県都窪郡早島町早島４０６６番地" }, "geometry": { "type": "Point", "coordinates": [ 133.823238, 34.613326 ] } },
{ "type": "Feature", "properties": { "ID": 3311330000240, "正式名称": "笠岡市立市民病院", "機関区分": 1, "都道府県コード": 33, "市区町村コード": 205, "所在地": "岡山県笠岡市笠岡５６２８番地の１", "緯度": 34.505693, "経度": 133.497326, "url": "https://www.iryou.teikyouseido.mhlw.go.jp/znk-web/juminkanja/S2430/initialize?prefCd=33&kikanCd=1330000240&kikanKbn=1", "url2": "http://www.city.kasaoka.okayama.jp/site/hospital/", "内容": "笠岡市立市民病院【1:病院】【診療科目:内科_呼吸器内科_循環器内科_消化器内科_外科_整形外科_小児科_産婦人科_眼科_皮膚科_泌尿器科_リハビリテーション科_放射線科】【一般病床数:60療養病床数:39精神病床数:0感染症病床数:0合計病床数:99】岡山県笠岡市笠岡５６２８番地の１" }, "geometry": { "type": "Point", "coordinates": [ 133.497326, 34.505693 ] } },
{ "type": "Feature", "properties": { "ID": 3311330000250, "正式名称": "医療法人社団清和会笠岡第一病院", "機関区分": 1, "都道府県コード": 33, "市区町村コード": 205, "所在地": "岡山県笠岡市横島１９４５", "緯度": 34.478196, "経度": 133.520769, "url": "https://www.iryou.teikyouseido.mhlw.go.jp/znk-web/juminkanja/S2430/initialize?prefCd=33&kikanCd=1330000250&kikanKbn=1", "url2": "https://www.kasaoka-d-hp.or.jp", "内容": "医療法人社団清和会笠岡第一病院【1:病院】【診療科目:内科_糖尿病内科_呼吸器内科_循環器内科_消化器内科_腎臓内科_人工透析内科_肝臓内科_神経内科_外科_脳神経外科_血管外科_心臓血管外科_消化器外科_乳腺外科_整形外科_形成外科_小児科_眼科_皮膚科_泌尿器科_歯科_リウマチ科_リハビリテーション科_放射線科_救急科_麻酔科】【一般病床数:148療養病床数:0精神病床数:0感染症病床数:0合計病床数:148】岡山県笠岡市横島１９４５" }, "geometry": { "type": "Point", "coordinates": [ 133.520769, 34.478196 ] } },
{ "type": "Feature", "properties": { "ID": 3311330000260, "正式名称": "医療法人　緑十字会　笠岡中央病院", "機関区分": 1, "都道府県コード": 33, "市区町村コード": 205, "所在地": "岡山県笠岡市笠岡５１０２番地の１４", "緯度": 34.512137, "経度": 133.507491, "url": "https://www.iryou.teikyouseido.mhlw.go.jp/znk-web/juminkanja/S2430/initialize?prefCd=33&kikanCd=1330000260&kikanKbn=1", "url2": "http://www.midorijujikai.or.jp/index.html", "内容": "医療法人　緑十字会　笠岡中央病院【1:病院】【診療科目:内科_呼吸器内科_循環器内科_外科_肛門外科_整形外科_小児科_皮膚科_リハビリテーション科】【一般病床数:60療養病床数:0精神病床数:0感染症病床数:0合計病床数:60】岡山県笠岡市笠岡５１０２番地の１４" }, "geometry": { "type": "Point", "coordinates": [ 133.507491, 34.512137 ] } },
{ "type": "Feature", "properties": { "ID": 3311330000270, "正式名称": "公益財団法人仁和会ももの里病院", "機関区分": 1, "都道府県コード": 33, "市区町村コード": 205, "所在地": "岡山県笠岡市園井２２６３", "緯度": 34.52258, "経度": 133.530156, "url": "https://www.iryou.teikyouseido.mhlw.go.jp/znk-web/juminkanja/S2430/initialize?prefCd=33&kikanCd=1330000270&kikanKbn=1", "url2": "http://www.momonosato-hp.com", "内容": "公益財団法人仁和会ももの里病院【1:病院】【診療科目:精神科_心療内科_歯科】【一般病床数:0療養病床数:0精神病床数:329感染症病床数:0合計病床数:329】岡山県笠岡市園井２２６３" }, "geometry": { "type": "Point", "coordinates": [ 133.530156, 34.52258 ] } },
{ "type": "Feature", "properties": { "ID": 3311330000280, "正式名称": "医療法人社団きのこ会　きのこエスポアール病院", "機関区分": 1, "都道府県コード": 33, "市区町村コード": 205, "所在地": "岡山県笠岡市東大戸２９０８番地", "緯度": 34.553104, "経度": 133.502102, "url": "https://www.iryou.teikyouseido.mhlw.go.jp/znk-web/juminkanja/S2430/initialize?prefCd=33&kikanCd=1330000280&kikanKbn=1", "url2": "http://www.kinoko-group.jp/", "内容": "医療法人社団きのこ会　きのこエスポアール病院【1:病院】【診療科目:内科_精神科_リハビリテーション科】【一般病床数:0療養病床数:0精神病床数:120感染症病床数:0合計病床数:120】岡山県笠岡市東大戸２９０８番地" }, "geometry": { "type": "Point", "coordinates": [ 133.502102, 34.553104 ] } },
{ "type": "Feature", "properties": { "ID": 3311330000290, "正式名称": "井原市立井原市民病院", "機関区分": 1, "都道府県コード": 33, "市区町村コード": 207, "所在地": "岡山県井原市井原町１１８６番地", "緯度": 34.603264, "経度": 133.458854, "url": "https://www.iryou.teikyouseido.mhlw.go.jp/znk-web/juminkanja/S2430/initialize?prefCd=33&kikanCd=1330000290&kikanKbn=1", "url2": "https://www.ibarahp.jp/", "内容": "井原市立井原市民病院【1:病院】【診療科目:内科_循環器内科_外科_脳神経外科_消化器外科_整形外科_小児科_産婦人科_眼科_耳鼻いんこう科_皮膚科_泌尿器科_リハビリテーション科_放射線科_救急科】【一般病床数:102療養病床数:37精神病床数:0感染症病床数:0合計病床数:139】岡山県井原市井原町１１８６番地" }, "geometry": { "type": "Point", "coordinates": [ 133.458854, 34.603264 ] } },
{ "type": "Feature", "properties": { "ID": 3311330000300, "正式名称": "医療法人おだうじ会小田病院", "機関区分": 1, "都道府県コード": 33, "市区町村コード": 207, "所在地": "岡山県井原市井原町５８２", "緯度": 34.599848, "経度": 133.464409, "url": "https://www.iryou.teikyouseido.mhlw.go.jp/znk-web/juminkanja/S2430/initialize?prefCd=33&kikanCd=1330000300&kikanKbn=1", "url2": "https://odaujikai.jp", "内容": "医療法人おだうじ会小田病院【1:病院】【診療科目:外科_気管食道外科_消化器外科_肛門外科_整形外科_耳鼻いんこう科_麻酔科】【一般病床数:33療養病床数:0精神病床数:0感染症病床数:0合計病床数:33】岡山県井原市井原町５８２" }, "geometry": { "type": "Point", "coordinates": [ 133.464409, 34.599848 ] } },
{ "type": "Feature", "properties": { "ID": 3311330000310, "正式名称": "医療法人社団　菅病院", "機関区分": 1, "都道府県コード": 33, "市区町村コード": 207, "所在地": "岡山県井原市井原町１２４番地", "緯度": 34.596015, "経度": 133.464187, "url": "https://www.iryou.teikyouseido.mhlw.go.jp/znk-web/juminkanja/S2430/initialize?prefCd=33&kikanCd=1330000310&kikanKbn=1", "url2": "https://sugahospital.jp", "内容": "医療法人社団　菅病院【1:病院】【診療科目:内科_循環器内科_胃腸内科_小児科_放射線科】【一般病床数:32療養病床数:0精神病床数:0感染症病床数:0合計病床数:32】岡山県井原市井原町１２４番地" }, "geometry": { "type": "Point", "coordinates": [ 133.464187, 34.596015 ] } },
{ "type": "Feature", "properties": { "ID": 3311330000320, "正式名称": "医療法人社団同仁会　金光病院", "機関区分": 1, "都道府県コード": 33, "市区町村コード": 216, "所在地": "岡山県浅口市金光町占見新田７４０", "緯度": 34.541886, "経度": 133.62623, "url": "https://www.iryou.teikyouseido.mhlw.go.jp/znk-web/juminkanja/S2430/initialize?prefCd=33&kikanCd=1330000320&kikanKbn=1", "url2": "http://konkohp.jp/", "内容": "医療法人社団同仁会　金光病院【1:病院】【診療科目:内科_糖尿病内科_循環器内科_消化器内科_腎臓内科_人工透析内科_外科_乳腺・内分泌外科_肛門外科_整形外科_小児科_眼科_耳鼻いんこう科_皮膚科_泌尿器科_リウマチ科_リハビリテーション科】【一般病床数:100療養病床数:47精神病床数:0感染症病床数:0合計病床数:147】岡山県浅口市金光町占見新田７４０" }, "geometry": { "type": "Point", "coordinates": [ 133.62623, 34.541886 ] } },
{ "type": "Feature", "properties": { "ID": 3311330000330, "正式名称": "医療法人　みわ記念病院", "機関区分": 1, "都道府県コード": 33, "市区町村コード": 216, "所在地": "岡山県浅口市金光町佐方８０番地１", "緯度": 34.536062, "経度": 133.610772, "url": "https://www.iryou.teikyouseido.mhlw.go.jp/znk-web/juminkanja/S2430/initialize?prefCd=33&kikanCd=1330000330&kikanKbn=1", "url2": "https://miwahp.com", "内容": "医療法人　みわ記念病院【1:病院】【診療科目:内科_糖尿病内科_消化器内科_肝臓内科_外科_肛門外科_整形外科_皮膚科_リハビリテーション科】【一般病床数:38療養病床数:22精神病床数:0感染症病床数:0合計病床数:60】岡山県浅口市金光町佐方８０番地１" }, "geometry": { "type": "Point", "coordinates": [ 133.610772, 34.536062 ] } },
{ "type": "Feature", "properties": { "ID": 3311330000340, "正式名称": "医療法人萌生会国定病院", "機関区分": 1, "都道府県コード": 33, "市区町村コード": 445, "所在地": "岡山県浅口郡里庄町浜中９３－１４１", "緯度": 34.49675, "経度": 133.532379, "url": "https://www.iryou.teikyouseido.mhlw.go.jp/znk-web/juminkanja/S2430/initialize?prefCd=33&kikanCd=1330000340&kikanKbn=1", "url2": "https://hoseikai.jp/", "内容": "医療法人萌生会国定病院【1:病院】【診療科目:内科_糖尿病内科_呼吸器内科_循環器内科_胃腸内科_外科_肛門外科_整形外科_皮膚科_泌尿器科_精神科_心療内科_リハビリテーション科_放射線科】【一般病床数:31療養病床数:8精神病床数:0感染症病床数:0合計病床数:39】岡山県浅口郡里庄町浜中９３－１４１" }, "geometry": { "type": "Point", "coordinates": [ 133.532379, 34.49675 ] } },
{ "type": "Feature", "properties": { "ID": 3311330000350, "正式名称": "医療法人　正光会　鳥越病院", "機関区分": 1, "都道府県コード": 33, "市区町村コード": 461, "所在地": "岡山県小田郡矢掛町小林３９５番地１", "緯度": 34.630458, "経度": 133.581759, "url": "https://www.iryou.teikyouseido.mhlw.go.jp/znk-web/juminkanja/S2430/initialize?prefCd=33&kikanCd=1330000350&kikanKbn=1", "url2": "https://www.torigoe-hospital.com/", "内容": "医療法人　正光会　鳥越病院【1:病院】【診療科目:内科_小児科_リハビリテーション科】【一般病床数:0療養病床数:48精神病床数:0感染症病床数:0合計病床数:48】岡山県小田郡矢掛町小林３９５番地１" }, "geometry": { "type": "Point", "coordinates": [ 133.581759, 34.630458 ] } },
{ "type": "Feature", "properties": { "ID": 3311330000360, "正式名称": "矢掛町国民健康保険病院", "機関区分": 1, "都道府県コード": 33, "市区町村コード": 461, "所在地": "岡山県小田郡矢掛町矢掛２６９５番地", "緯度": 34.628514, "経度": 133.587369, "url": "https://www.iryou.teikyouseido.mhlw.go.jp/znk-web/juminkanja/S2430/initialize?prefCd=33&kikanCd=1330000360&kikanKbn=1", "url2": "http://www.town.yakage.lg.jp/hospital", "内容": "矢掛町国民健康保険病院【1:病院】【診療科目:内科_外科_整形外科_小児科_婦人科_眼科_耳鼻いんこう科_皮膚科_泌尿器科_精神科_リハビリテーション科_放射線科】【一般病床数:57療養病床数:60精神病床数:0感染症病床数:0合計病床数:117】岡山県小田郡矢掛町矢掛２６９５番地" }, "geometry": { "type": "Point", "coordinates": [ 133.587369, 34.628514 ] } },
{ "type": "Feature", "properties": { "ID": 3311330000370, "正式名称": "医療法人　慶真会　大杉病院", "機関区分": 1, "都道府県コード": 33, "市区町村コード": 209, "所在地": "岡山県高梁市柿木町２４", "緯度": 34.795912, "経度": 133.617667, "url": "https://www.iryou.teikyouseido.mhlw.go.jp/znk-web/juminkanja/S2430/initialize?prefCd=33&kikanCd=1330000370&kikanKbn=1", "url2": "http://www.oosugi-hospital.or.jp", "内容": "医療法人　慶真会　大杉病院【1:病院】【診療科目:内科_糖尿病内科_循環器内科_胃腸内科_外科_整形外科_形成外科_皮膚科_泌尿器科_歯科_リハビリテーション科_放射線科_麻酔科】【一般病床数:53療養病床数:0精神病床数:0感染症病床数:0合計病床数:53】岡山県高梁市柿木町２４" }, "geometry": { "type": "Point", "coordinates": [ 133.617667, 34.795912 ] } },
{ "type": "Feature", "properties": { "ID": 3311330000380, "正式名称": "医療法人清梁会高梁中央病院", "機関区分": 1, "都道府県コード": 33, "市区町村コード": 209, "所在地": "岡山県高梁市南町５３", "緯度": 34.787552, "経度": 133.612084, "url": "https://www.iryou.teikyouseido.mhlw.go.jp/znk-web/juminkanja/S2430/initialize?prefCd=33&kikanCd=1330000380&kikanKbn=1", "url2": "https://seiryoukai.jp/", "内容": "医療法人清梁会高梁中央病院【1:病院】【診療科目:内科_糖尿病内科_内分泌内科_呼吸器内科_循環器内科_消化器内科_腎臓内科_肝臓内科_胆のう・膵臓内科_外科_脳神経外科_消化器外科_乳腺・内分泌外科_整形外科_婦人科_眼科_耳鼻いんこう科_皮膚科_泌尿器科_精神科_心療内科_ものわすれ外来_リウマチ科_放射線科_麻酔科】【一般病床数:116療養病床数:44精神病床数:0感染症病床数:0合計病床数:160】岡山県高梁市南町５３" }, "geometry": { "type": "Point", "coordinates": [ 133.612084, 34.787552 ] } },
{ "type": "Feature", "properties": { "ID": 3311330000390, "正式名称": "さきがけホスピタル", "機関区分": 1, "都道府県コード": 33, "市区町村コード": 209, "所在地": "岡山県高梁市落合町阿部２２００", "緯度": 34.778774, "経度": 133.583143, "url": "https://www.iryou.teikyouseido.mhlw.go.jp/znk-web/juminkanja/S2430/initialize?prefCd=33&kikanCd=1330000390&kikanKbn=1", "url2": "https://www.ryoufhukai.ryoufhu.com/", "内容": "さきがけホスピタル【1:病院】【診療科目:精神科_神経科_心療内科】【一般病床数:0療養病床数:0精神病床数:180感染症病床数:0合計病床数:180】岡山県高梁市落合町阿部２２００" }, "geometry": { "type": "Point", "coordinates": [ 133.583143, 34.778774 ] } },
{ "type": "Feature", "properties": { "ID": 3311330000400, "正式名称": "高梁市国民健康保険成羽病院", "機関区分": 1, "都道府県コード": 33, "市区町村コード": 209, "所在地": "岡山県高梁市成羽町下原３０１番地", "緯度": 34.782773, "経度": 133.545229, "url": "https://www.iryou.teikyouseido.mhlw.go.jp/znk-web/juminkanja/S2430/initialize?prefCd=33&kikanCd=1330000400&kikanKbn=1", "url2": "https://www.city.takahashi.lg.jp/site/nariwahospital/", "内容": "高梁市国民健康保険成羽病院【1:病院】【診療科目:内科_外科_整形外科_小児科_婦人科_眼科_耳鼻いんこう科_皮膚科_リハビリテーション科_放射線科】【一般病床数:54療養病床数:42精神病床数:0感染症病床数:0合計病床数:96】岡山県高梁市成羽町下原３０１番地" }, "geometry": { "type": "Point", "coordinates": [ 133.545229, 34.782773 ] } },
{ "type": "Feature", "properties": { "ID": 3311330000410, "正式名称": "太田病院", "機関区分": 1, "都道府県コード": 33, "市区町村コード": 210, "所在地": "岡山県新見市西方４２６番地", "緯度": 34.987276, "経度": 133.459508, "url": "https://www.iryou.teikyouseido.mhlw.go.jp/znk-web/juminkanja/S2430/initialize?prefCd=33&kikanCd=1330000410&kikanKbn=1", "url2": "http://www.ohta-hp.com/", "内容": "太田病院【1:病院】【診療科目:内科_血液内科_糖尿病内科_呼吸器内科_循環器内科】【一般病床数:56療養病床数:0精神病床数:0感染症病床数:0合計病床数:56】岡山県新見市西方４２６番地" }, "geometry": { "type": "Point", "coordinates": [ 133.459508, 34.987276 ] } },
{ "type": "Feature", "properties": { "ID": 3311330000420, "正式名称": "医療法人　真生会　新見中央病院", "機関区分": 1, "都道府県コード": 33, "市区町村コード": 210, "所在地": "岡山県新見市新見８２７－１", "緯度": 34.983526, "経度": 133.469341, "url": "https://www.iryou.teikyouseido.mhlw.go.jp/znk-web/juminkanja/S2430/initialize?prefCd=33&kikanCd=1330000420&kikanKbn=1", "url2": "https://nchp.jp", "内容": "医療法人　真生会　新見中央病院【1:病院】【診療科目:内科_糖尿病内科_循環器内科_外科_小児科_眼科_耳鼻いんこう科_泌尿器科】【一般病床数:59療養病床数:56精神病床数:0感染症病床数:0合計病床数:115】岡山県新見市新見８２７－１" }, "geometry": { "type": "Point", "coordinates": [ 133.469341, 34.983526 ] } },
{ "type": "Feature", "properties": { "ID": 3311330000430, "正式名称": "長谷川紀念病院", "機関区分": 1, "都道府県コード": 33, "市区町村コード": 210, "所在地": "岡山県新見市高尾７９３－６", "緯度": 34.994052, "経度": 133.45012, "url": "https://www.iryou.teikyouseido.mhlw.go.jp/znk-web/juminkanja/S2430/initialize?prefCd=33&kikanCd=1330000430&kikanKbn=1", "url2": "http://www.hasegawa-hp.gr.jp/", "内容": "長谷川紀念病院【1:病院】【診療科目:内科_外科_脳神経外科_整形外科_形成外科_皮膚科_リウマチ科_リハビリテーション科_放射線科】【一般病床数:33療養病床数:27精神病床数:0感染症病床数:0合計病床数:60】岡山県新見市高尾７９３－６" }, "geometry": { "type": "Point", "coordinates": [ 133.45012, 34.994052 ] } },
{ "type": "Feature", "properties": { "ID": 3311330000440, "正式名称": "医療法人　思誠会　渡辺病院", "機関区分": 1, "都道府県コード": 33, "市区町村コード": 210, "所在地": "岡山県新見市高尾２２７８－１", "緯度": 34.994413, "経度": 133.445648, "url": "https://www.iryou.teikyouseido.mhlw.go.jp/znk-web/juminkanja/S2430/initialize?prefCd=33&kikanCd=1330000440&kikanKbn=1", "url2": "http://www.watanabe-byouin.or.jp", "内容": "医療法人　思誠会　渡辺病院【1:病院】【診療科目:内科_循環器内科_神経内科_外科_脳神経外科_消化器外科_乳腺外科_整形外科_小児科_小児外科_婦人科_リハビリテーション科_放射線科】【一般病床数:55療養病床数:33精神病床数:0感染症病床数:0合計病床数:88】岡山県新見市高尾２２７８－１" }, "geometry": { "type": "Point", "coordinates": [ 133.445648, 34.994413 ] } },
{ "type": "Feature", "properties": { "ID": 3311330000450, "正式名称": "医療法人社団井口会　総合病院落合病院", "機関区分": 1, "都道府県コード": 33, "市区町村コード": 214, "所在地": "岡山県真庭市上市瀬３４１番地", "緯度": 35.028253, "経度": 133.748174, "url": "https://www.iryou.teikyouseido.mhlw.go.jp/znk-web/juminkanja/S2430/initialize?prefCd=33&kikanCd=1330000450&kikanKbn=1", "url2": "https://ochiaihp.jp", "内容": "医療法人社団井口会　総合病院落合病院【1:病院】【診療科目:内科_外科_整形外科_小児科_産婦人科_眼科_耳鼻いんこう科_皮膚科_泌尿器科_リハビリテーション科_放射線科_麻酔科】【一般病床数:95療養病床数:40精神病床数:0感染症病床数:0合計病床数:135】岡山県真庭市上市瀬３４１番地" }, "geometry": { "type": "Point", "coordinates": [ 133.748174, 35.028253 ] } },
{ "type": "Feature", "properties": { "ID": 3311330000460, "正式名称": "医療法人美甘会　勝山病院", "機関区分": 1, "都道府県コード": 33, "市区町村コード": 214, "所在地": "岡山県真庭市本郷１８１９番地", "緯度": 35.084686, "経度": 133.689012, "url": "https://www.iryou.teikyouseido.mhlw.go.jp/znk-web/juminkanja/S2430/initialize?prefCd=33&kikanCd=1330000460&kikanKbn=1", "url2": "http://www.katsuyama-hp.or.jp", "内容": "医療法人美甘会　勝山病院【1:病院】【診療科目:内科_糖尿病内科_呼吸器内科_消化器内科_外科_消化器外科_肛門外科_整形外科_形成外科_眼科_アレルギー科_リハビリテーション科_麻酔科】【一般病床数:50療養病床数:0精神病床数:0感染症病床数:0合計病床数:50】岡山県真庭市本郷１８１９番地" }, "geometry": { "type": "Point", "coordinates": [ 133.689012, 35.084686 ] } },
{ "type": "Feature", "properties": { "ID": 3311330000470, "正式名称": "社会医療法人　緑壮会　金田病院", "機関区分": 1, "都道府県コード": 33, "市区町村コード": 214, "所在地": "岡山県真庭市西原６３番地", "緯度": 35.020834, "経度": 133.754314, "url": "https://www.iryou.teikyouseido.mhlw.go.jp/znk-web/juminkanja/S2430/initialize?prefCd=33&kikanCd=1330000470&kikanKbn=1", "url2": "http://www.kaneda-hp.or.jp", "内容": "社会医療法人　緑壮会　金田病院【1:病院】【診療科目:内科_血液・腫瘍内科_血液内科_糖尿病内科_糖尿病・内分泌内科_糖尿病・代謝内科_脳神経内科_呼吸器内科_循環器内科_消化器内科_腎臓内科_神経内科_外科_脳神経外科_脳外科_心臓血管外科_消化器外科_消化器・移植外科_乳腺外科_乳腺・内分泌外科_整形外科_婦人科_眼科_皮膚科_泌尿器科_リウマチ科_リハビリテーション科_放射線科_麻酔科】【一般病床数:60療養病床数:60精神病床数:0感染症病床数:0合計病床数:120】岡山県真庭市西原６３番地" }, "geometry": { "type": "Point", "coordinates": [ 133.754314, 35.020834 ] } },
{ "type": "Feature", "properties": { "ID": 3311330000480, "正式名称": "医療法人社団　井口会　向陽台病院", "機関区分": 1, "都道府県コード": 33, "市区町村コード": 214, "所在地": "岡山県真庭市上市瀬３６８番地", "緯度": 35.028916, "経度": 133.74512, "url": "https://www.iryou.teikyouseido.mhlw.go.jp/znk-web/juminkanja/S2430/initialize?prefCd=33&kikanCd=1330000480&kikanKbn=1", "url2": "http://koyodai-hp.jp/", "内容": "医療法人社団　井口会　向陽台病院【1:病院】【診療科目:精神科_心療内科_老年精神科】【一般病床数:0療養病床数:0精神病床数:170感染症病床数:0合計病床数:170】岡山県真庭市上市瀬３６８番地" }, "geometry": { "type": "Point", "coordinates": [ 133.74512, 35.028916 ] } },
{ "type": "Feature", "properties": { "ID": 3311330000490, "正式名称": "医療法人真庭慈風会　津山中央まにわ病院", "機関区分": 1, "都道府県コード": 33, "市区町村コード": 214, "所在地": "岡山県真庭市勝山１０７０", "緯度": 35.084103, "経度": 133.697484, "url": "https://www.iryou.teikyouseido.mhlw.go.jp/znk-web/juminkanja/S2430/initialize?prefCd=33&kikanCd=1330000490&kikanKbn=1", "url2": "https://www.maniwa.tch.or.jp", "内容": "医療法人真庭慈風会　津山中央まにわ病院【1:病院】【診療科目:内科_糖尿病内科_呼吸器内科_循環器内科_消化器内科_外科_脳神経外科_消化器外科_肛門外科_整形外科_皮膚科_リハビリテーション科】【一般病床数:55療養病床数:0精神病床数:0感染症病床数:0合計病床数:55】岡山県真庭市勝山１０７０" }, "geometry": { "type": "Point", "coordinates": [ 133.697484, 35.084103 ] } },
{ "type": "Feature", "properties": { "ID": 3311330000510, "正式名称": "真庭市国民健康保険　湯原温泉病院", "機関区分": 1, "都道府県コード": 33, "市区町村コード": 214, "所在地": "岡山県真庭市下湯原５６番地", "緯度": 35.187425, "経度": 133.733866, "url": "https://www.iryou.teikyouseido.mhlw.go.jp/znk-web/juminkanja/S2430/initialize?prefCd=33&kikanCd=1330000510&kikanKbn=1", "url2": "https://www.city.maniwa.lg.jp/site/yubaraonsenhospital/", "内容": "真庭市国民健康保険　湯原温泉病院【1:病院】【診療科目:内科_呼吸器内科_循環器内科_消化器内科_神経内科_外科_脳神経外科_呼吸器外科_消化器外科_肛門外科_整形外科_婦人科_皮膚科_アレルギー科_リウマチ科_リハビリテーション科_放射線科_麻酔科】【一般病床数:50療養病床数:43精神病床数:0感染症病床数:0合計病床数:93】岡山県真庭市下湯原５６番地" }, "geometry": { "type": "Point", "coordinates": [ 133.733866, 35.187425 ] } },
{ "type": "Feature", "properties": { "ID": 3311330000530, "正式名称": "医療法人東浩会　石川病院", "機関区分": 1, "都道府県コード": 33, "市区町村コード": 203, "所在地": "岡山県津山市川崎５５４－５", "緯度": 35.062363, "経度": 134.025506, "url": "https://www.iryou.teikyouseido.mhlw.go.jp/znk-web/juminkanja/S2430/initialize?prefCd=33&kikanCd=1330000530&kikanKbn=1", "url2": "http://www.toukou.or.jp", "内容": "医療法人東浩会　石川病院【1:病院】【診療科目:内科_感染症内科_糖尿病内科_循環器内科_消化器内科_人工透析内科_婦人科_泌尿器科_リハビリテーション科_放射線科】【一般病床数:38療養病床数:30精神病床数:0感染症病床数:0合計病床数:68】岡山県津山市川崎５５４－５" }, "geometry": { "type": "Point", "coordinates": [ 134.025506, 35.062363 ] } },
{ "type": "Feature", "properties": { "ID": 3311330000540, "正式名称": "医療法人晴顕会　大谷病院", "機関区分": 1, "都道府県コード": 33, "市区町村コード": 203, "所在地": "岡山県津山市田町３３番地", "緯度": 35.063751, "経度": 134.002013, "url": "https://www.iryou.teikyouseido.mhlw.go.jp/znk-web/juminkanja/S2430/initialize?prefCd=33&kikanCd=1330000540&kikanKbn=1", "url2": null, "内容": "医療法人晴顕会　大谷病院【1:病院】【診療科目:内科_消化器内科_泌尿器科】【一般病床数:0療養病床数:48精神病床数:0感染症病床数:0合計病床数:48】岡山県津山市田町３３番地" }, "geometry": { "type": "Point", "coordinates": [ 134.002013, 35.063751 ] } },
{ "type": "Feature", "properties": { "ID": 3311330000550, "正式名称": "社会医療法人高見徳風会希望ヶ丘ホスピタル", "機関区分": 1, "都道府県コード": 33, "市区町村コード": 203, "所在地": "岡山県津山市田町１１５", "緯度": 35.063918, "経度": 133.995874, "url": "https://www.iryou.teikyouseido.mhlw.go.jp/znk-web/juminkanja/S2430/initialize?prefCd=33&kikanCd=1330000550&kikanKbn=1", "url2": "https://tokufuu.or.jp/kibou/", "内容": "社会医療法人高見徳風会希望ヶ丘ホスピタル【1:病院】【診療科目:精神科】【一般病床数:0療養病床数:0精神病床数:240感染症病床数:0合計病床数:240】岡山県津山市田町１１５" }, "geometry": { "type": "Point", "coordinates": [ 133.995874, 35.063918 ] } },
{ "type": "Feature", "properties": { "ID": 3311330000560, "正式名称": "一般財団法人　江原積善会　積善病院", "機関区分": 1, "都道府県コード": 33, "市区町村コード": 203, "所在地": "岡山県津山市一方１４０", "緯度": 35.055585, "経度": 133.980376, "url": "https://www.iryou.teikyouseido.mhlw.go.jp/znk-web/juminkanja/S2430/initialize?prefCd=33&kikanCd=1330000560&kikanKbn=1", "url2": "http://www.sekizen.or.jp", "内容": "一般財団法人　江原積善会　積善病院【1:病院】【診療科目:内科_精神科_歯科】【一般病床数:0療養病床数:0精神病床数:285感染症病床数:0合計病床数:285】岡山県津山市一方１４０" }, "geometry": { "type": "Point", "coordinates": [ 133.980376, 35.055585 ] } },
{ "type": "Feature", "properties": { "ID": 3311330000570, "正式名称": "医療法人　平野同仁会　総合病院　津山第一病院", "機関区分": 1, "都道府県コード": 33, "市区町村コード": 203, "所在地": "岡山県津山市中島４３８", "緯度": 35.053529, "経度": 133.966711, "url": "https://www.iryou.teikyouseido.mhlw.go.jp/znk-web/juminkanja/S2430/initialize?prefCd=33&kikanCd=1330000570&kikanKbn=1", "url2": "https://tsuyama-1sthp.jp", "内容": "医療法人　平野同仁会　総合病院　津山第一病院【1:病院】【診療科目:内科_循環器内科_消化器内科_外科_脳神経外科_心臓血管外科_消化器外科_乳腺外科_大腸・肛門外科_内視鏡外科_整形外科_形成外科_耳鼻いんこう科_皮膚科_泌尿器科_リウマチ科_リハビリテーション科_放射線科_麻酔科】【一般病床数:199療養病床数:0精神病床数:0感染症病床数:0合計病床数:199】岡山県津山市中島４３８" }, "geometry": { "type": "Point", "coordinates": [ 133.966711, 35.053529 ] } },
{ "type": "Feature", "properties": { "ID": 3311330000580, "正式名称": "一般財団法人津山慈風会　津山中央記念病院", "機関区分": 1, "都道府県コード": 33, "市区町村コード": 203, "所在地": "岡山県津山市二階町７１", "緯度": 35.061112, "経度": 134.001318, "url": "https://www.iryou.teikyouseido.mhlw.go.jp/znk-web/juminkanja/S2430/initialize?prefCd=33&kikanCd=1330000580&kikanKbn=1", "url2": "http://www.tch.or.jp/tck", "内容": "一般財団法人津山慈風会　津山中央記念病院【1:病院】【診療科目:内科_外科_脳神経外科_整形外科_小児科_皮膚科_リハビリテーション科】【一般病床数:41療養病床数:40精神病床数:0感染症病床数:0合計病床数:81】岡山県津山市二階町７１" }, "geometry": { "type": "Point", "coordinates": [ 134.001318, 35.061112 ] } },
{ "type": "Feature", "properties": { "ID": 3311330000590, "正式名称": "津山中央病院", "機関区分": 1, "都道府県コード": 33, "市区町村コード": 203, "所在地": "岡山県津山市川崎１７５６", "緯度": 35.064752, "経度": 134.039759, "url": "https://www.iryou.teikyouseido.mhlw.go.jp/znk-web/juminkanja/S2430/initialize?prefCd=33&kikanCd=1330000590&kikanKbn=1", "url2": "http://www.tch.or.jp/", "内容": "津山中央病院【1:病院】【診療科目:内科_感染症内科_糖尿病内科_呼吸器内科_循環器内科_消化器内科_神経内科_ペインクリニック内科_緩和ケア内科_外科_脳神経外科_呼吸器外科_心臓血管外科_消化器外科_乳腺・内分泌外科_ペインクリニック外科_整形外科_形成外科_緩和ケア外科_小児科_産婦人科_眼科_耳鼻いんこう科_皮膚科_泌尿器科_歯科_歯科口腔外科_リハビリテーション科_放射線科_病理診断科_救急科_麻酔科】【一般病床数:438療養病床数:0精神病床数:0感染症病床数:8合計病床数:456】岡山県津山市川崎１７５６" }, "geometry": { "type": "Point", "coordinates": [ 134.039759, 35.064752 ] } },
{ "type": "Feature", "properties": { "ID": 3311330000600, "正式名称": "医療法人社団和風会中島病院", "機関区分": 1, "都道府県コード": 33, "市区町村コード": 203, "所在地": "岡山県津山市田町１２２", "緯度": 35.062307, "経度": 133.99468, "url": "https://www.iryou.teikyouseido.mhlw.go.jp/znk-web/juminkanja/S2430/initialize?prefCd=33&kikanCd=1330000600&kikanKbn=1", "url2": "http://nakashima-tsuyama.or.jp/", "内容": "医療法人社団和風会中島病院【1:病院】【診療科目:内科_感染症内科_糖尿病内科_呼吸器内科_循環器内科_消化器内科_腎臓内科_腫瘍内科_リハビリテーション科】【一般病床数:55療養病床数:55精神病床数:0感染症病床数:0合計病床数:110】岡山県津山市田町１２２" }, "geometry": { "type": "Point", "coordinates": [ 133.99468, 35.062307 ] } },
{ "type": "Feature", "properties": { "ID": 3311330000610, "正式名称": "社会医療法人清風會　日本原病院", "機関区分": 1, "都道府県コード": 33, "市区町村コード": 203, "所在地": "岡山県津山市日本原３５２", "緯度": 35.111248, "経度": 134.131722, "url": "https://www.iryou.teikyouseido.mhlw.go.jp/znk-web/juminkanja/S2430/initialize?prefCd=33&kikanCd=1330000610&kikanKbn=1", "url2": "http://www.smc-seifukai.or.jp/nihonbarahp/", "内容": "社会医療法人清風會　日本原病院【1:病院】【診療科目:内科_循環器内科_消化器内科_胃腸内科_神経内科_眼科_耳鼻いんこう科_精神科_心療内科_リハビリテーション科_放射線科】【一般病床数:0療養病床数:60精神病床数:0感染症病床数:0合計病床数:60】岡山県津山市日本原３５２" }, "geometry": { "type": "Point", "coordinates": [ 134.131722, 35.111248 ] } },
{ "type": "Feature", "properties": { "ID": 3311330000620, "正式名称": "鏡野町国民健康保険病院", "機関区分": 1, "都道府県コード": 33, "市区町村コード": 606, "所在地": "岡山県苫田郡鏡野町寺元３６５", "緯度": 35.087886, "経度": 133.932824, "url": "https://www.iryou.teikyouseido.mhlw.go.jp/znk-web/juminkanja/S2430/initialize?prefCd=33&kikanCd=1330000620&kikanKbn=1", "url2": "http://www.town.kagamino.lg.jp/kagamino-hp", "内容": "鏡野町国民健康保険病院【1:病院】【診療科目:内科_外科_整形外科_小児科_耳鼻いんこう科_リハビリテーション科】【一般病床数:48療養病床数:40精神病床数:0感染症病床数:0合計病床数:88】岡山県苫田郡鏡野町寺元３６５" }, "geometry": { "type": "Point", "coordinates": [ 133.932824, 35.087886 ] } },
{ "type": "Feature", "properties": { "ID": 3311330000630, "正式名称": "一般財団法人共愛会芳野病院", "機関区分": 1, "都道府県コード": 33, "市区町村コード": 606, "所在地": "岡山県苫田郡鏡野町吉原３１２", "緯度": 35.072026, "経度": 133.935602, "url": "https://www.iryou.teikyouseido.mhlw.go.jp/znk-web/juminkanja/S2430/initialize?prefCd=33&kikanCd=1330000630&kikanKbn=1", "url2": "http://www.kyouaikai.or.jp", "内容": "一般財団法人共愛会芳野病院【1:病院】【診療科目:内科_循環器内科_消化器内科_神経内科_外科_整形外科_小児外科_リハビリテーション科_放射線科】【一般病床数:52療養病床数:58精神病床数:0感染症病床数:0合計病床数:110】岡山県苫田郡鏡野町吉原３１２" }, "geometry": { "type": "Point", "coordinates": [ 133.935602, 35.072026 ] } },
{ "type": "Feature", "properties": { "ID": 3311330000640, "正式名称": "医療法人　三憲会　柵原病院", "機関区分": 1, "都道府県コード": 33, "市区町村コード": 666, "所在地": "岡山県久米郡美咲町吉ヶ原９９２番地", "緯度": 34.944905, "経度": 134.072066, "url": "https://www.iryou.teikyouseido.mhlw.go.jp/znk-web/juminkanja/S2430/initialize?prefCd=33&kikanCd=1330000640&kikanKbn=1", "url2": "http://www.yanaharahosp.jp/", "内容": "医療法人　三憲会　柵原病院【1:病院】【診療科目:内科_循環器内科_外科_小児科_リハビリテーション科_放射線科】【一般病床数:0療養病床数:48精神病床数:0感染症病床数:0合計病床数:48】岡山県久米郡美咲町吉ヶ原９９２番地" }, "geometry": { "type": "Point", "coordinates": [ 134.072066, 34.944905 ] } },
{ "type": "Feature", "properties": { "ID": 3311330000650, "正式名称": "美作市立大原病院", "機関区分": 1, "都道府県コード": 33, "市区町村コード": 215, "所在地": "岡山県美作市古町１７７１－９", "緯度": 35.119363, "経度": 134.327204, "url": "https://www.iryou.teikyouseido.mhlw.go.jp/znk-web/juminkanja/S2430/initialize?prefCd=33&kikanCd=1330000650&kikanKbn=1", "url2": "http://ohara-hp.city.mimasaka.lg.jp/", "内容": "美作市立大原病院【1:病院】【診療科目:内科_外科_整形外科_小児科_眼科_リハビリテーション科_放射線科】【一般病床数:40療養病床数:40精神病床数:0感染症病床数:0合計病床数:80】岡山県美作市古町１７７１－９" }, "geometry": { "type": "Point", "coordinates": [ 134.327204, 35.119363 ] } },
{ "type": "Feature", "properties": { "ID": 3311330000660, "正式名称": "医療法人三水会　田尻病院", "機関区分": 1, "都道府県コード": 33, "市区町村コード": 215, "所在地": "岡山県美作市明見５５０番地の１", "緯度": 35.015704, "経度": 134.145974, "url": "https://www.iryou.teikyouseido.mhlw.go.jp/znk-web/juminkanja/S2430/initialize?prefCd=33&kikanCd=1330000660&kikanKbn=1", "url2": "http://tajirihp.or.jp", "内容": "医療法人三水会　田尻病院【1:病院】【診療科目:内科_循環器内科_外科_脳神経外科_整形外科_小児科_皮膚科】【一般病床数:40療養病床数:0精神病床数:0感染症病床数:0合計病床数:40】岡山県美作市明見５５０番地の１" }, "geometry": { "type": "Point", "coordinates": [ 134.145974, 35.015704 ] } },
{ "type": "Feature", "properties": { "ID": 3311330000670, "正式名称": "医療法人美風会美作中央病院", "機関区分": 1, "都道府県コード": 33, "市区町村コード": 215, "所在地": "岡山県美作市明見３５７－１", "緯度": 35.013371, "経度": 134.146918, "url": "https://www.iryou.teikyouseido.mhlw.go.jp/znk-web/juminkanja/S2430/initialize?prefCd=33&kikanCd=1330000670&kikanKbn=1", "url2": null, "内容": "医療法人美風会美作中央病院【1:病院】【診療科目:内科_歯科_歯科口腔外科_リハビリテーション科_放射線科】【一般病床数:0療養病床数:80精神病床数:0感染症病床数:0合計病床数:80】岡山県美作市明見３５７－１" }, "geometry": { "type": "Point", "coordinates": [ 134.146918, 35.013371 ] } },
{ "type": "Feature", "properties": { "ID": 3311330000680, "正式名称": "さとう記念病院", "機関区分": 1, "都道府県コード": 33, "市区町村コード": 622, "所在地": "岡山県勝田郡勝央町黒土４５", "緯度": 35.028341, "経度": 134.127447, "url": "https://www.iryou.teikyouseido.mhlw.go.jp/znk-web/juminkanja/S2430/initialize?prefCd=33&kikanCd=1330000680&kikanKbn=1", "url2": "http://www.satoukinen.or.jp", "内容": "さとう記念病院【1:病院】【診療科目:内科_血液内科_糖尿病内科_呼吸器内科_循環器内科_消化器内科_腎臓内科_人工透析内科_内視鏡内科_外科_脳神経外科_心臓血管外科_消化器外科_整形外科_眼科_耳鼻いんこう科_皮膚科_泌尿器科_歯科_リハビリテーション科_放射線科】【一般病床数:91療養病床数:88精神病床数:0感染症病床数:0合計病床数:179】岡山県勝田郡勝央町黒土４５" }, "geometry": { "type": "Point", "coordinates": [ 134.127447, 35.028341 ] } },
{ "type": "Feature", "properties": { "ID": 3311330000690, "正式名称": "一般財団法人　淳風会　淳風会ロングライフホスピタル", "機関区分": 1, "都道府県コード": 33, "市区町村コード": 101, "所在地": "岡山県岡山市北区万成東町３番１号", "緯度": 34.673377, "経度": 133.895674, "url": "https://www.iryou.teikyouseido.mhlw.go.jp/znk-web/juminkanja/S2430/initialize?prefCd=33&kikanCd=1330000690&kikanKbn=1", "url2": "https://junpukai.or.jp/j-longlife/", "内容": "一般財団法人　淳風会　淳風会ロングライフホスピタル【1:病院】【診療科目:内科_糖尿病内科_呼吸器内科_循環器内科_消化器内科_リハビリテーション科】【一般病床数:0療養病床数:60精神病床数:0感染症病床数:0合計病床数:60】岡山県岡山市北区万成東町３番１号" }, "geometry": { "type": "Point", "coordinates": [ 133.895674, 34.673377 ] } },
{ "type": "Feature", "properties": { "ID": 3311330000710, "正式名称": "おおもと病院", "機関区分": 1, "都道府県コード": 33, "市区町村コード": 101, "所在地": "岡山県岡山市北区大元一丁目１番５号", "緯度": 34.647019, "経度": 133.904368, "url": "https://www.iryou.teikyouseido.mhlw.go.jp/znk-web/juminkanja/S2430/initialize?prefCd=33&kikanCd=1330000710&kikanKbn=1", "url2": "https://oomotohosp.jp", "内容": "おおもと病院【1:病院】【診療科目:胃腸内科_外科_消化器外科_乳腺外科_形成外科_婦人科_麻酔科】【一般病床数:51療養病床数:0精神病床数:0感染症病床数:0合計病床数:51】岡山県岡山市北区大元一丁目１番５号" }, "geometry": { "type": "Point", "coordinates": [ 133.904368, 34.647019 ] } },
{ "type": "Feature", "properties": { "ID": 3311330000720, "正式名称": "社会医療法人岡村一心堂病院", "機関区分": 1, "都道府県コード": 33, "市区町村コード": 103, "所在地": "岡山県岡山市東区西大寺南２−１−７", "緯度": 34.652299, "経度": 134.032329, "url": "https://www.iryou.teikyouseido.mhlw.go.jp/znk-web/juminkanja/S2430/initialize?prefCd=33&kikanCd=1330000720&kikanKbn=1", "url2": "http://www.isshin.or.jp/", "内容": "社会医療法人岡村一心堂病院【1:病院】【診療科目:内科_糖尿病・代謝内科_呼吸器内科_循環器内科_腎臓内科_肝臓内科_神経内科_緩和ケア内科_外科_脳神経外科_呼吸器外科_循環器外科_消化器外科_乳腺外科_肛門外科_整形外科_形成外科_婦人科_眼科_耳鼻いんこう科_皮膚科_泌尿器科_精神科_救急科_麻酔科】【一般病床数:152療養病床数:0精神病床数:0感染症病床数:0合計病床数:152】岡山県岡山市東区西大寺南２−１−７" }, "geometry": { "type": "Point", "coordinates": [ 134.032329, 34.652299 ] } },
{ "type": "Feature", "properties": { "ID": 3311330000730, "正式名称": "独立行政法人国立病院機構岡山医療センター", "機関区分": 1, "都道府県コード": 33, "市区町村コード": 101, "所在地": "岡山県岡山市北区田益１７１１－１", "緯度": 34.708012, "経度": 133.899422, "url": "https://www.iryou.teikyouseido.mhlw.go.jp/znk-web/juminkanja/S2430/initialize?prefCd=33&kikanCd=1330000730&kikanKbn=1", "url2": "https://okayama.hosp.go.jp/index.html", "内容": "独立行政法人国立病院機構岡山医療センター【1:病院】【診療科目:内科_感染症内科_血液内科_糖尿病・内分泌内科_脳神経内科_呼吸器内科_循環器内科_消化器内科_腎臓内科_緩和ケア内科_外科_脳神経外科_呼吸器外科_心臓血管外科_整形外科_形成外科_小児科_小児外科_小児神経内科_産科_婦人科_眼科_耳鼻いんこう科_皮膚科_泌尿器科_精神科_歯科_リウマチ科_リハビリテーション科_放射線科_病理診断科_救急科_麻酔科】【一般病床数:609療養病床数:0精神病床数:0感染症病床数:0合計病床数:609】岡山県岡山市北区田益１７１１－１" }, "geometry": { "type": "Point", "coordinates": [ 133.899422, 34.708012 ] } },
{ "type": "Feature", "properties": { "ID": 3311330000740, "正式名称": "一般財団法人　志清会　岡山紀念病院", "機関区分": 1, "都道府県コード": 33, "市区町村コード": 101, "所在地": "岡山県岡山市北区清輝本町７番２２号", "緯度": 34.651435, "経度": 133.926311, "url": "https://www.iryou.teikyouseido.mhlw.go.jp/znk-web/juminkanja/S2430/initialize?prefCd=33&kikanCd=1330000740&kikanKbn=1", "url2": "http://www.okayamakinen.or.jp/", "内容": "一般財団法人　志清会　岡山紀念病院【1:病院】【診療科目:内科_呼吸器内科_循環器内科_消化器内科_神経内科_外科_皮膚科_リハビリテーション科_放射線科】【一般病床数:40療養病床数:0精神病床数:0感染症病床数:0合計病床数:40】岡山県岡山市北区清輝本町７番２２号" }, "geometry": { "type": "Point", "coordinates": [ 133.926311, 34.651435 ] } },
{ "type": "Feature", "properties": { "ID": 3311330000750, "正式名称": "岡山市立市民病院", "機関区分": 1, "都道府県コード": 33, "市区町村コード": 101, "所在地": "岡山県岡山市北区北長瀬表町三丁目２０番１号", "緯度": 34.651851, "経度": 133.884009, "url": "https://www.iryou.teikyouseido.mhlw.go.jp/znk-web/juminkanja/S2430/initialize?prefCd=33&kikanCd=1330000750&kikanKbn=1", "url2": "https://okayama-gmc.or.jp/shimin/", "内容": "岡山市立市民病院【1:病院】【診療科目:内科_感染症内科_血液内科_糖尿病内科_呼吸器内科_循環器内科_消化器内科_腎臓内科_神経内科_外科_脳神経外科_呼吸器外科_血管外科_循環器外科_心臓血管外科_消化器外科_ペインクリニック外科_整形外科_形成外科_小児科_産婦人科_眼科_耳鼻いんこう科_皮膚科_泌尿器科_精神科_心療内科_アレルギー科_リウマチ科_リハビリテーション科_放射線科_病理診断科_救急科_麻酔科】【一般病床数:387療養病床数:0精神病床数:0感染症病床数:6合計病床数:400】岡山県岡山市北区北長瀬表町三丁目２０番１号" }, "geometry": { "type": "Point", "coordinates": [ 133.884009, 34.651851 ] } },
{ "type": "Feature", "properties": { "ID": 3311330000760, "正式名称": "岡山市立せのお病院", "機関区分": 1, "都道府県コード": 33, "市区町村コード": 104, "所在地": "岡山県岡山市南区妹尾８５０", "緯度": 34.609772, "経度": 133.862901, "url": "https://www.iryou.teikyouseido.mhlw.go.jp/znk-web/juminkanja/S2430/initialize?prefCd=33&kikanCd=1330000760&kikanKbn=1", "url2": "http://okayama-gmc.or.jp/senoo/", "内容": "岡山市立せのお病院【1:病院】【診療科目:内科_整形外科_眼科_耳鼻いんこう科_皮膚科_泌尿器科_リウマチ科_リハビリテーション科_放射線科】【一般病床数:60療養病床数:0精神病床数:0感染症病床数:0合計病床数:60】岡山県岡山市南区妹尾８５０" }, "geometry": { "type": "Point", "coordinates": [ 133.862901, 34.609772 ] } },
{ "type": "Feature", "properties": { "ID": 3311330000770, "正式名称": "岡山赤十字病院", "機関区分": 1, "都道府県コード": 33, "市区町村コード": 101, "所在地": "岡山県岡山市北区青江二丁目１番１号", "緯度": 34.634521, "経度": 133.922756, "url": "https://www.iryou.teikyouseido.mhlw.go.jp/znk-web/juminkanja/S2430/initialize?prefCd=33&kikanCd=1330000770&kikanKbn=1", "url2": "http://www.okayama-med.jrc.or.jp/", "内容": "岡山赤十字病院【1:病院】【診療科目:内科_血液内科_糖尿病・内分泌内科_脳神経内科_呼吸器内科_循環器内科_消化器内科_腎臓内科_肝臓内科_緩和ケア内科_脳神経外科_呼吸器外科_心臓血管外科_消化器外科_乳腺・内分泌外科_整形外科_形成外科_小児科_産婦人科_眼科_耳鼻いんこう科_皮膚科_泌尿器科_精神科_歯科_リウマチ科_リハビリテーション科_放射線科_病理診断科_救急科_麻酔科】【一般病床数:500療養病床数:0精神病床数:0感染症病床数:0合計病床数:500】岡山県岡山市北区青江二丁目１番１号" }, "geometry": { "type": "Point", "coordinates": [ 133.922756, 34.634521 ] } },
{ "type": "Feature", "properties": { "ID": 3311330000780, "正式名称": "医療法人社団操仁会岡山第一病院", "機関区分": 1, "都道府県コード": 33, "市区町村コード": 102, "所在地": "岡山県岡山市中区高屋３４３", "緯度": 34.674767, "経度": 133.969056, "url": "https://www.iryou.teikyouseido.mhlw.go.jp/znk-web/juminkanja/S2430/initialize?prefCd=33&kikanCd=1330000780&kikanKbn=1", "url2": "http://www.Okayama-daiichi.jp", "内容": "医療法人社団操仁会岡山第一病院【1:病院】【診療科目:内科_循環器内科_消化器内科_外科_乳腺外科_肛門外科_整形外科_眼科_リハビリテーション科_放射線科_麻酔科】【一般病床数:60療養病床数:0精神病床数:0感染症病床数:0合計病床数:60】岡山県岡山市中区高屋３４３" }, "geometry": { "type": "Point", "coordinates": [ 133.969056, 34.674767 ] } },
{ "type": "Feature", "properties": { "ID": 3311330000790, "正式名称": "岡山大学病院", "機関区分": 1, "都道府県コード": 33, "市区町村コード": 101, "所在地": "岡山県岡山市北区鹿田町二丁目５番１号", "緯度": 34.650852, "経度": 133.920839, "url": "https://www.iryou.teikyouseido.mhlw.go.jp/znk-web/juminkanja/S2430/initialize?prefCd=33&kikanCd=1330000790&kikanKbn=1", "url2": "https://www.okayama-u.ac.jp/user/hospital/", "内容": "岡山大学病院【1:病院】【診療科目:内科_血液内科_脳神経内科_呼吸器内科_循環器内科_消化器内科_外科_脳神経外科_心臓血管外科_消化器外科_肝臓・胆のう・膵臓外科_整形外科_形成外科_小児科_小児外科_産婦人科_眼科_耳鼻いんこう科_皮膚科_泌尿器科_精神科_歯科_矯正歯科_歯科口腔外科_小児歯科_リハビリテーション科_放射線科_病理診断科_救急科_麻酔科】【一般病床数:783療養病床数:0精神病床数:34感染症病床数:2合計病床数:819】岡山県岡山市北区鹿田町二丁目５番１号" }, "geometry": { "type": "Point", "coordinates": [ 133.920839, 34.650852 ] } },
{ "type": "Feature", "properties": { "ID": 3311330000800, "正式名称": "社会医療法人鴻仁会　岡山中央病院", "機関区分": 1, "都道府県コード": 33, "市区町村コード": 101, "所在地": "岡山県岡山市北区伊島北町６番３号", "緯度": 34.680987, "経度": 133.904867, "url": "https://www.iryou.teikyouseido.mhlw.go.jp/znk-web/juminkanja/S2430/initialize?prefCd=33&kikanCd=1330000800&kikanKbn=1", "url2": "http://www.kohjin.ne.jp", "内容": "社会医療法人鴻仁会　岡山中央病院【1:病院】【診療科目:内科_脳神経内科_循環器内科_消化器内科_腎臓内科_老年内科_ペインクリニック内科_緩和ケア内科_外科_脳神経外科_乳腺外科_整形外科_形成外科_産婦人科_眼科_皮膚科_泌尿器科_リハビリテーション科_放射線科_救急科_麻酔科】【一般病床数:243療養病床数:0精神病床数:0感染症病床数:0合計病床数:243】岡山県岡山市北区伊島北町６番３号" }, "geometry": { "type": "Point", "coordinates": [ 133.904867, 34.680987 ] } },
{ "type": "Feature", "properties": { "ID": 3311330000810, "正式名称": "岡山東中央病院", "機関区分": 1, "都道府県コード": 33, "市区町村コード": 102, "所在地": "岡山県岡山市中区倉田６７７－１", "緯度": 34.63466, "経度": 133.953753, "url": "https://www.iryou.teikyouseido.mhlw.go.jp/znk-web/juminkanja/S2430/initialize?prefCd=33&kikanCd=1330000810&kikanKbn=1", "url2": "http://www.okayama-health.coop/division/higashi.html", "内容": "岡山東中央病院【1:病院】【診療科目:内科_循環器内科_整形外科_皮膚科_リハビリテーション科_放射線科】【一般病床数:0療養病床数:128精神病床数:0感染症病床数:0合計病床数:128】岡山県岡山市中区倉田６７７－１" }, "geometry": { "type": "Point", "coordinates": [ 133.953753, 34.63466 ] } },
{ "type": "Feature", "properties": { "ID": 3311330000820, "正式名称": "公益財団法人　操風会　岡山リハビリテーション病院", "機関区分": 1, "都道府県コード": 33, "市区町村コード": 102, "所在地": "岡山県岡山市中区倉田５０３－１", "緯度": 34.630133, "経度": 133.95842, "url": "https://www.iryou.teikyouseido.mhlw.go.jp/znk-web/juminkanja/S2430/initialize?prefCd=33&kikanCd=1330000820&kikanKbn=1", "url2": "http://www.okayama-reha-hp.or.jp/", "内容": "公益財団法人　操風会　岡山リハビリテーション病院【1:病院】【診療科目:内科_循環器内科_リハビリテーション科】【一般病床数:0療養病床数:129精神病床数:0感染症病床数:0合計病床数:129】岡山県岡山市中区倉田５０３－１" }, "geometry": { "type": "Point", "coordinates": [ 133.95842, 34.630133 ] } },
{ "type": "Feature", "properties": { "ID": 3311330000830, "正式名称": "独立行政法人自動車事故対策機構岡山療護センター", "機関区分": 1, "都道府県コード": 33, "市区町村コード": 101, "所在地": "岡山県岡山市北区西古松２丁目８番３５号", "緯度": 34.646297, "経度": 133.907924, "url": "https://www.iryou.teikyouseido.mhlw.go.jp/znk-web/juminkanja/S2430/initialize?prefCd=33&kikanCd=1330000830&kikanKbn=1", "url2": "http://www.okaryougo.jp/", "内容": "独立行政法人自動車事故対策機構岡山療護センター【1:病院】【診療科目:外科_脳神経外科_精神科_リハビリテーション科_麻酔科】【一般病床数:50療養病床数:0精神病床数:0感染症病床数:0合計病床数:50】岡山県岡山市北区西古松２丁目８番３５号" }, "geometry": { "type": "Point", "coordinates": [ 133.907924, 34.646297 ] } },
{ "type": "Feature", "properties": { "ID": 3311330000840, "正式名称": "医療法人　岡山水清会　岡山水清会病院", "機関区分": 1, "都道府県コード": 33, "市区町村コード": 101, "所在地": "岡山県岡山市北区西花尻１２３１－１", "緯度": 34.651934, "経度": 133.856428, "url": "https://www.iryou.teikyouseido.mhlw.go.jp/znk-web/juminkanja/S2430/initialize?prefCd=33&kikanCd=1330000840&kikanKbn=1", "url2": "https://suiseikai-group.jp/okayama-suiseikai/", "内容": "医療法人　岡山水清会　岡山水清会病院【1:病院】【診療科目:内科_呼吸器内科_循環器内科_外科_整形外科_形成外科_皮膚科_泌尿器科_リハビリテーション科_麻酔科】【一般病床数:62療養病床数:0精神病床数:0感染症病床数:0合計病床数:62】岡山県岡山市北区西花尻１２３１－１" }, "geometry": { "type": "Point", "coordinates": [ 133.856428, 34.651934 ] } },
{ "type": "Feature", "properties": { "ID": 3311330000850, "正式名称": "川崎医科大学総合医療センター", "機関区分": 1, "都道府県コード": 33, "市区町村コード": 101, "所在地": "岡山県岡山市北区中山下二丁目６番１号", "緯度": 34.659618, "経度": 133.92777, "url": "https://www.iryou.teikyouseido.mhlw.go.jp/znk-web/juminkanja/S2430/initialize?prefCd=33&kikanCd=1330000850&kikanKbn=1", "url2": "https://g.kawasaki-m.ac.jp/", "内容": "川崎医科大学総合医療センター【1:病院】【診療科目:内科_脳神経内科_循環器内科_消化器内科_老年内科_内視鏡内科_外科_脳神経外科_呼吸器外科_心臓血管外科_消化器外科_整形外科_形成外科_小児科_産婦人科_眼科_耳鼻いんこう科_皮膚科_泌尿器科_精神科_心療内科_歯科_歯科口腔外科_リハビリテーション科_放射線科_病理診断科_臨床検査科_救急科_麻酔科】【一般病床数:647療養病床数:0精神病床数:0感染症病床数:0合計病床数:647】岡山県岡山市北区中山下二丁目６番１号" }, "geometry": { "type": "Point", "coordinates": [ 133.92777, 34.659618 ] } },
{ "type": "Feature", "properties": { "ID": 3311330000860, "正式名称": "一般財団法人　河田病院", "機関区分": 1, "都道府県コード": 33, "市区町村コード": 101, "所在地": "岡山県岡山市北区富町２丁目１５番２１号", "緯度": 34.664295, "経度": 133.908673, "url": "https://www.iryou.teikyouseido.mhlw.go.jp/znk-web/juminkanja/S2430/initialize?prefCd=33&kikanCd=1330000860&kikanKbn=1", "url2": "https://kawada.or.jp/", "内容": "一般財団法人　河田病院【1:病院】【診療科目:神経内科_精神科_心療内科_リハビリテーション科】【一般病床数:0療養病床数:0精神病床数:640感染症病床数:0合計病床数:640】岡山県岡山市北区富町２丁目１５番２１号" }, "geometry": { "type": "Point", "coordinates": [ 133.908673, 34.664295 ] } },
{ "type": "Feature", "properties": { "ID": 3311330000870, "正式名称": "医療法人喜多村病院", "機関区分": 1, "都道府県コード": 33, "市区町村コード": 101, "所在地": "岡山県岡山市北区野田屋町１－２－１１", "緯度": 34.666489, "経度": 133.923338, "url": "https://www.iryou.teikyouseido.mhlw.go.jp/znk-web/juminkanja/S2430/initialize?prefCd=33&kikanCd=1330000870&kikanKbn=1", "url2": "http://kitamura-h.jimdo.com/", "内容": "医療法人喜多村病院【1:病院】【診療科目:内科_小児科】【一般病床数:0療養病床数:20精神病床数:0感染症病床数:0合計病床数:20】岡山県岡山市北区野田屋町１－２－１１" }, "geometry": { "type": "Point", "coordinates": [ 133.923338, 34.666489 ] } },
{ "type": "Feature", "properties": { "ID": 3311330000880, "正式名称": "総合病院　岡山協立病院", "機関区分": 1, "都道府県コード": 33, "市区町村コード": 102, "所在地": "岡山県岡山市中区赤坂本町８番１０号", "緯度": 34.65113, "経度": 133.937421, "url": "https://www.iryou.teikyouseido.mhlw.go.jp/znk-web/juminkanja/S2430/initialize?prefCd=33&kikanCd=1330000880&kikanKbn=1", "url2": "http://okayama-kyoritsu.jp", "内容": "総合病院　岡山協立病院【1:病院】【診療科目:内科_呼吸器内科_循環器内科_消化器内科_ペインクリニック内科_緩和ケア内科_外科_脳神経外科_消化器外科_肛門外科_整形外科_小児科_婦人科_眼科_耳鼻いんこう科_皮膚科_泌尿器科_精神科_歯科_アレルギー科_リウマチ科_リハビリテーション科_放射線科_病理診断科_救急科_麻酔科】【一般病床数:318療養病床数:0精神病床数:0感染症病床数:0合計病床数:318】岡山県岡山市中区赤坂本町８番１０号" }, "geometry": { "type": "Point", "coordinates": [ 133.937421, 34.65113 ] } },
{ "type": "Feature", "properties": { "ID": 3311330000890, "正式名称": "公益財団法人操風会岡山旭東病院", "機関区分": 1, "都道府県コード": 33, "市区町村コード": 102, "所在地": "岡山県岡山市中区倉田５６７番地の１", "緯度": 34.631522, "経度": 133.954892, "url": "https://www.iryou.teikyouseido.mhlw.go.jp/znk-web/juminkanja/S2430/initialize?prefCd=33&kikanCd=1330000890&kikanKbn=1", "url2": "https://www.kyokuto.or.jp", "内容": "公益財団法人操風会岡山旭東病院【1:病院】【診療科目:内科_循環器内科_神経内科_脳神経外科_整形外科_形成外科_皮膚科_泌尿器科_リウマチ科_リハビリテーション科_放射線科_救急科_麻酔科】【一般病床数:214療養病床数:0精神病床数:0感染症病床数:0合計病床数:214】岡山県岡山市中区倉田５６７番地の１" }, "geometry": { "type": "Point", "coordinates": [ 133.954892, 34.631522 ] } },
{ "type": "Feature", "properties": { "ID": 3311330000900, "正式名称": "公益財団法人　岡山県健康づくり財団附属病院", "機関区分": 1, "都道府県コード": 33, "市区町村コード": 101, "所在地": "岡山県岡山市北区平田４０８－１", "緯度": 34.635547, "経度": 133.881954, "url": "https://www.iryou.teikyouseido.mhlw.go.jp/znk-web/juminkanja/S2430/initialize?prefCd=33&kikanCd=1330000900&kikanKbn=1", "url2": "https://www.okakenko.jp/access/", "内容": "公益財団法人　岡山県健康づくり財団附属病院【1:病院】【診療科目:内科_糖尿病内科_呼吸器内科_アレルギー疾患内科_リハビリテーション科_放射線科】【一般病床数:40療養病床数:40精神病床数:0感染症病床数:0合計病床数:126】岡山県岡山市北区平田４０８－１" }, "geometry": { "type": "Point", "coordinates": [ 133.881954, 34.635547 ] } },
{ "type": "Feature", "properties": { "ID": 3311330000910, "正式名称": "社会医療法人　光生病院", "機関区分": 1, "都道府県コード": 33, "市区町村コード": 101, "所在地": "岡山県岡山市北区厚生町３－８－３５", "緯度": 34.655907, "経度": 133.910895, "url": "https://www.iryou.teikyouseido.mhlw.go.jp/znk-web/juminkanja/S2430/initialize?prefCd=33&kikanCd=1330000910&kikanKbn=1", "url2": "http://www.kousei-hp.or.jp", "内容": "社会医療法人　光生病院【1:病院】【診療科目:内科_呼吸器内科_循環器内科_消化器内科_神経内科_ペインクリニック内科_外科_脳神経外科_心臓血管外科_整形外科_形成外科_眼科_皮膚科_泌尿器科_精神科_心療内科_歯科_歯科口腔外科_リハビリテーション科_放射線科_麻酔科】【一般病床数:198療養病床数:0精神病床数:0感染症病床数:0合計病床数:198】岡山県岡山市北区厚生町３－８－３５" }, "geometry": { "type": "Point", "coordinates": [ 133.910895, 34.655907 ] } },
{ "type": "Feature", "properties": { "ID": 3311330000920, "正式名称": "医療法人自由会岡山光南病院", "機関区分": 1, "都道府県コード": 33, "市区町村コード": 104, "所在地": "岡山県岡山市南区東畦７６７番地の３", "緯度": 34.604634, "経度": 133.880955, "url": "https://www.iryou.teikyouseido.mhlw.go.jp/znk-web/juminkanja/S2430/initialize?prefCd=33&kikanCd=1330000920&kikanKbn=1", "url2": "http://medical-jiyukai.jp/", "内容": "医療法人自由会岡山光南病院【1:病院】【診療科目:内科_呼吸器内科_循環器内科_胃腸内科_整形外科_リハビリテーション科】【一般病床数:44療養病床数:0精神病床数:0感染症病床数:0合計病床数:44】岡山県岡山市南区東畦７６７番地の３" }, "geometry": { "type": "Point", "coordinates": [ 133.880955, 34.604634 ] } },
{ "type": "Feature", "properties": { "ID": 3311330000930, "正式名称": "社会福祉法人恩賜財団済生会　支部岡山県済生会　済生会吉備病院", "機関区分": 1, "都道府県コード": 33, "市区町村コード": 101, "所在地": "岡山県岡山市北区高松原古才５８４－１", "緯度": 34.684013, "経度": 133.82543, "url": "https://www.iryou.teikyouseido.mhlw.go.jp/znk-web/juminkanja/S2430/initialize?prefCd=33&kikanCd=1330000930&kikanKbn=1", "url2": "http://www.saiseikaikibi.jp", "内容": "社会福祉法人恩賜財団済生会　支部岡山県済生会　済生会吉備病院【1:病院】【診療科目:内科_循環器内科_外科_脳神経外科_整形外科_形成外科_小児科_婦人科_皮膚科_泌尿器科_リハビリテーション科_放射線科】【一般病床数:75療養病床数:0精神病床数:0感染症病床数:0合計病床数:75】岡山県岡山市北区高松原古才５８４－１" }, "geometry": { "type": "Point", "coordinates": [ 133.82543, 34.684013 ] } },
{ "type": "Feature", "properties": { "ID": 3311330000940, "正式名称": "岡山済生会総合病院", "機関区分": 1, "都道府県コード": 33, "市区町村コード": 101, "所在地": "岡山県岡山市北区国体町２番２５号", "緯度": 34.672627, "経度": 133.919283, "url": "https://www.iryou.teikyouseido.mhlw.go.jp/znk-web/juminkanja/S2430/initialize?prefCd=33&kikanCd=1330000940&kikanKbn=1", "url2": "https://www.okayamasaiseikai.or.jp/", "内容": "岡山済生会総合病院【1:病院】【診療科目:内科_糖尿病内科_内分泌内科_脳神経内科_呼吸器内科_循環器内科_消化器内科_腎臓内科_緩和ケア内科_外科_脳神経外科_呼吸器外科_食道外科_血管外科_消化器外科_肝臓・胆のう・膵臓外科_乳腺・内分泌外科_整形外科_形成外科_美容外科_小児科_産婦人科_眼科_耳鼻いんこう科_皮膚科_泌尿器科_精神科_心療内科_歯科口腔外科_リウマチ科_リハビリテーション科_放射線科_放射線治療科_病理診断科_救急科_麻酔科】【一般病床数:473療養病床数:0精神病床数:0感染症病床数:0合計病床数:473】岡山県岡山市北区国体町２番２５号" }, "geometry": { "type": "Point", "coordinates": [ 133.919283, 34.672627 ] } },
{ "type": "Feature", "properties": { "ID": 3311330000950, "正式名称": "岡山西大寺病院", "機関区分": 1, "都道府県コード": 33, "市区町村コード": 103, "所在地": "岡山県岡山市東区金岡東町一丁目１番７０号", "緯度": 34.648465, "経度": 134.027813, "url": "https://www.iryou.teikyouseido.mhlw.go.jp/znk-web/juminkanja/S2430/initialize?prefCd=33&kikanCd=1330000950&kikanKbn=1", "url2": "http://www.saidaiji-hp.or.jp", "内容": "岡山西大寺病院【1:病院】【診療科目:内科_消化器内科_人工透析内科_外科_脳神経外科_消化器外科_乳腺外科_肛門外科_整形外科_形成外科_眼科_皮膚科_心療内科_リウマチ科_リハビリテーション科_放射線科_麻酔科】【一般病床数:145療養病床数:0精神病床数:0感染症病床数:0合計病床数:145】岡山県岡山市東区金岡東町一丁目１番７０号" }, "geometry": { "type": "Point", "coordinates": [ 134.027813, 34.648465 ] } },
{ "type": "Feature", "properties": { "ID": 3311330000960, "正式名称": "幸町記念病院", "機関区分": 1, "都道府県コード": 33, "市区町村コード": 101, "所在地": "岡山県岡山市北区大元駅前３番５７号", "緯度": 34.647297, "経度": 133.911812, "url": "https://www.iryou.teikyouseido.mhlw.go.jp/znk-web/juminkanja/S2430/initialize?prefCd=33&kikanCd=1330000960&kikanKbn=1", "url2": "https://saiwaichokinen.com/", "内容": "幸町記念病院【1:病院】【診療科目:内科_外科】【一般病床数:35療養病床数:0精神病床数:0感染症病床数:0合計病床数:35】岡山県岡山市北区大元駅前３番５７号" }, "geometry": { "type": "Point", "coordinates": [ 133.911812, 34.647297 ] } },
{ "type": "Feature", "properties": { "ID": 3311330000970, "正式名称": "医療法人　明芳会　佐藤病院", "機関区分": 1, "都道府県コード": 33, "市区町村コード": 104, "所在地": "岡山県岡山市南区築港栄町２－１３", "緯度": 34.607524, "経度": 133.944811, "url": "https://www.iryou.teikyouseido.mhlw.go.jp/znk-web/juminkanja/S2430/initialize?prefCd=33&kikanCd=1330000970&kikanKbn=1", "url2": "http://www.sato-hp.com", "内容": "医療法人　明芳会　佐藤病院【1:病院】【診療科目:内科_循環器内科_消化器内科_外科_整形外科_泌尿器科_リハビリテーション科】【一般病床数:51療養病床数:42精神病床数:0感染症病床数:0合計病床数:93】岡山県岡山市南区築港栄町２－１３" }, "geometry": { "type": "Point", "coordinates": [ 133.944811, 34.607524 ] } },
{ "type": "Feature", "properties": { "ID": 3311330000980, "正式名称": "医療法人社団良友会　山陽病院", "機関区分": 1, "都道府県コード": 33, "市区町村コード": 102, "所在地": "岡山県岡山市中区藤崎４６５", "緯度": 34.618468, "経度": 133.971225, "url": "https://www.iryou.teikyouseido.mhlw.go.jp/znk-web/juminkanja/S2430/initialize?prefCd=33&kikanCd=1330000980&kikanKbn=1", "url2": "https://www.ryoyukai.or.jp/", "内容": "医療法人社団良友会　山陽病院【1:病院】【診療科目:内科_神経内科_精神科_歯科】【一般病床数:0療養病床数:12精神病床数:204感染症病床数:0合計病床数:216】岡山県岡山市中区藤崎４６５" }, "geometry": { "type": "Point", "coordinates": [ 133.971225, 34.618468 ] } },
{ "type": "Feature", "properties": { "ID": 3311330000990, "正式名称": "社会医療法人創和会重井医学研究所附属病院", "機関区分": 1, "都道府県コード": 33, "市区町村コード": 104, "所在地": "岡山県岡山市南区山田２１１７", "緯度": 34.620104, "経度": 133.848874, "url": "https://www.iryou.teikyouseido.mhlw.go.jp/znk-web/juminkanja/S2430/initialize?prefCd=33&kikanCd=1330000990&kikanKbn=1", "url2": "https://www.shigei.or.jp/smrh/", "内容": "社会医療法人創和会重井医学研究所附属病院【1:病院】【診療科目:内科_糖尿病内科_脳神経内科_呼吸器内科_循環器内科_消化器内科_腎臓内科_人工透析内科_漢方内科_老年内科_外科_脳神経外科_消化器外科_整形外科_小児科_眼科_皮膚科_泌尿器科_リハビリテーション科_放射線科】【一般病床数:198療養病床数:0精神病床数:0感染症病床数:0合計病床数:198】岡山県岡山市南区山田２１１７" }, "geometry": { "type": "Point", "coordinates": [ 133.848874, 34.620104 ] } },
{ "type": "Feature", "properties": { "ID": 3311330001000, "正式名称": "公益財団法人慈圭会慈圭病院", "機関区分": 1, "都道府県コード": 33, "市区町村コード": 104, "所在地": "岡山県岡山市南区浦安本町１００ー２", "緯度": 34.603191, "経度": 133.917202, "url": "https://www.iryou.teikyouseido.mhlw.go.jp/znk-web/juminkanja/S2430/initialize?prefCd=33&kikanCd=1330001000&kikanKbn=1", "url2": "https://www.zikei.or.jp", "内容": "公益財団法人慈圭会慈圭病院【1:病院】【診療科目:精神科_神経科_歯科】【一般病床数:0療養病床数:0精神病床数:570感染症病床数:0合計病床数:570】岡山県岡山市南区浦安本町１００ー２" }, "geometry": { "type": "Point", "coordinates": [ 133.917202, 34.603191 ] } },
{ "type": "Feature", "properties": { "ID": 3311330001010, "正式名称": "社会医療法人社団十全会　心臓病センター榊原病院", "機関区分": 1, "都道府県コード": 33, "市区町村コード": 101, "所在地": "岡山県岡山市北区中井町２－５－１", "緯度": 34.682488, "経度": 133.931781, "url": "https://www.iryou.teikyouseido.mhlw.go.jp/znk-web/juminkanja/S2430/initialize?prefCd=33&kikanCd=1330001010&kikanKbn=1", "url2": "https://sakakibara-hp.com", "内容": "社会医療法人社団十全会　心臓病センター榊原病院【1:病院】【診療科目:内科_糖尿病内科_脳神経内科_呼吸器内科_循環器内科_消化器内科_人工透析内科_外科_脳神経外科_心臓血管外科_消化器外科_形成外科_眼科_リハビリテーション科_放射線科_麻酔科】【一般病床数:297療養病床数:0精神病床数:0感染症病床数:0合計病床数:297】岡山県岡山市北区中井町２－５－１" }, "geometry": { "type": "Point", "coordinates": [ 133.931781, 34.682488 ] } },
{ "type": "Feature", "properties": { "ID": 3311330001020, "正式名称": "岡山県精神科医療センター", "機関区分": 1, "都道府県コード": 33, "市区町村コード": 101, "所在地": "岡山県岡山市北区鹿田本町３番１６号", "緯度": 34.650796, "経度": 133.915951, "url": "https://www.iryou.teikyouseido.mhlw.go.jp/znk-web/juminkanja/S2430/initialize?prefCd=33&kikanCd=1330001020&kikanKbn=1", "url2": "https://www.popmc.jp/", "内容": "岡山県精神科医療センター【1:病院】【診療科目:児童精神科_精神科_心療内科】【一般病床数:0療養病床数:0精神病床数:255感染症病床数:0合計病床数:255】岡山県岡山市北区鹿田本町３番１６号" }, "geometry": { "type": "Point", "coordinates": [ 133.915951, 34.650796 ] } },
{ "type": "Feature", "properties": { "ID": 3311330001030, "正式名称": "セントラルシティ病院", "機関区分": 1, "都道府県コード": 33, "市区町村コード": 104, "所在地": "岡山県岡山市南区築港栄町１９－３０", "緯度": 34.605872, "経度": 133.942665, "url": "https://www.iryou.teikyouseido.mhlw.go.jp/znk-web/juminkanja/S2430/initialize?prefCd=33&kikanCd=1330001030&kikanKbn=1", "url2": "https://www.c-c-h.net", "内容": "セントラルシティ病院【1:病院】【診療科目:内科_消化器内科_外科_消化器外科_肛門外科_整形外科_小児科_泌尿器科_リハビリテーション科_放射線科_麻酔科】【一般病床数:60療養病床数:0精神病床数:0感染症病床数:0合計病床数:60】岡山県岡山市南区築港栄町１９－３０" }, "geometry": { "type": "Point", "coordinates": [ 133.942665, 34.605872 ] } },
{ "type": "Feature", "properties": { "ID": 3311330001040, "正式名称": "医療法人　おおぞら会　同仁病院", "機関区分": 1, "都道府県コード": 33, "市区町村コード": 101, "所在地": "岡山県岡山市北区下伊福上町１５－７", "緯度": 34.667905, "経度": 133.903118, "url": "https://www.iryou.teikyouseido.mhlw.go.jp/znk-web/juminkanja/S2430/initialize?prefCd=33&kikanCd=1330001040&kikanKbn=1", "url2": "http://www.oozorakai.com/dojin/access/", "内容": "医療法人　おおぞら会　同仁病院【1:病院】【診療科目:内科_呼吸器内科_循環器内科_小児科_アレルギー科_リハビリテーション科_放射線科】【一般病床数:0療養病床数:50精神病床数:0感染症病床数:0合計病床数:50】岡山県岡山市北区下伊福上町１５－７" }, "geometry": { "type": "Point", "coordinates": [ 133.903118, 34.667905 ] } },
{ "type": "Feature", "properties": { "ID": 3311330001050, "正式名称": "医療法人　洋友会　中島病院", "機関区分": 1, "都道府県コード": 33, "市区町村コード": 104, "所在地": "岡山県岡山市南区妹尾１８７８", "緯度": 34.615688, "経度": 133.872844, "url": "https://www.iryou.teikyouseido.mhlw.go.jp/znk-web/juminkanja/S2430/initialize?prefCd=33&kikanCd=1330001050&kikanKbn=1", "url2": "http://www.nakashima-hp.or.jp/", "内容": "医療法人　洋友会　中島病院【1:病院】【診療科目:内科_皮膚科】【一般病床数:0療養病床数:56精神病床数:0感染症病床数:0合計病床数:56】岡山県岡山市南区妹尾１８７８" }, "geometry": { "type": "Point", "coordinates": [ 133.872844, 34.615688 ] } },
{ "type": "Feature", "properties": { "ID": 3311330001060, "正式名称": "医療法人長光会長島病院", "機関区分": 1, "都道府県コード": 33, "市区町村コード": 103, "所在地": "岡山県岡山市東区瀬戸町瀬戸４０－１", "緯度": 34.73329, "経度": 134.037993, "url": "https://www.iryou.teikyouseido.mhlw.go.jp/znk-web/juminkanja/S2430/initialize?prefCd=33&kikanCd=1330001060&kikanKbn=1", "url2": "http://www.nagashimahp.or.jp", "内容": "医療法人長光会長島病院【1:病院】【診療科目:内科_外科_整形外科_眼科_耳鼻いんこう科_歯科_リハビリテーション科】【一般病床数:90療養病床数:38精神病床数:0感染症病床数:0合計病床数:128】岡山県岡山市東区瀬戸町瀬戸４０－１" }, "geometry": { "type": "Point", "coordinates": [ 134.037993, 34.73329 ] } },
{ "type": "Feature", "properties": { "ID": 3311330001070, "正式名称": "医療法人国泰会丹羽病院", "機関区分": 1, "都道府県コード": 33, "市区町村コード": 103, "所在地": "岡山県岡山市東区東平島１０３６番地の３", "緯度": 34.716347, "経度": 134.04727, "url": "https://www.iryou.teikyouseido.mhlw.go.jp/znk-web/juminkanja/S2430/initialize?prefCd=33&kikanCd=1330001070&kikanKbn=1", "url2": "http://www.niwa.or.jp", "内容": "医療法人国泰会丹羽病院【1:病院】【診療科目:小児科_産科_婦人科_麻酔科】【一般病床数:29療養病床数:0精神病床数:0感染症病床数:0合計病床数:29】岡山県岡山市東区東平島１０３６番地の３" }, "geometry": { "type": "Point", "coordinates": [ 134.04727, 34.716347 ] } },
{ "type": "Feature", "properties": { "ID": 3311330001080, "正式名称": "社会福祉法人岡山博愛会　岡山博愛会病院", "機関区分": 1, "都道府県コード": 33, "市区町村コード": 102, "所在地": "岡山県岡山市中区江崎４５６－２", "緯度": 34.623801, "経度": 133.96403, "url": "https://www.iryou.teikyouseido.mhlw.go.jp/znk-web/juminkanja/S2430/initialize?prefCd=33&kikanCd=1330001080&kikanKbn=1", "url2": "http://www.okayama-hakuaikai.or.jp/", "内容": "社会福祉法人岡山博愛会　岡山博愛会病院【1:病院】【診療科目:内科_呼吸器内科_循環器内科_消化器内科_腎臓内科_精神科_リウマチ科_リハビリテーション科】【一般病床数:171療養病床数:0精神病床数:0感染症病床数:0合計病床数:171】岡山県岡山市中区江崎４５６－２" }, "geometry": { "type": "Point", "coordinates": [ 133.96403, 34.623801 ] } },
{ "type": "Feature", "properties": { "ID": 3311330001090, "正式名称": "公益財団法人　林精神医学研究所　附属林道倫精神科神経科病院", "機関区分": 1, "都道府県コード": 33, "市区町村コード": 102, "所在地": "岡山県岡山市中区浜４７２番地", "緯度": 34.673183, "経度": 133.942503, "url": "https://www.iryou.teikyouseido.mhlw.go.jp/znk-web/juminkanja/S2430/initialize?prefCd=33&kikanCd=1330001090&kikanKbn=1", "url2": "http://hospital.hayashi-dorin.or.jp", "内容": "公益財団法人　林精神医学研究所　附属林道倫精神科神経科病院【1:病院】【診療科目:内科_精神科_心療内科_歯科】【一般病床数:0療養病床数:0精神病床数:278感染症病床数:0合計病床数:278】岡山県岡山市中区浜４７２番地" }, "geometry": { "type": "Point", "coordinates": [ 133.942503, 34.673183 ] } },
{ "type": "Feature", "properties": { "ID": 3311330001100, "正式名称": "医療法人社団　秀明会　林病院", "機関区分": 1, "都道府県コード": 33, "市区町村コード": 103, "所在地": "岡山県岡山市東区西大寺中野４９８－１", "緯度": 34.655771, "経度": 134.026941, "url": "https://www.iryou.teikyouseido.mhlw.go.jp/znk-web/juminkanja/S2430/initialize?prefCd=33&kikanCd=1330001100&kikanKbn=1", "url2": "http://hayashi-hsp.com", "内容": "医療法人社団　秀明会　林病院【1:病院】【診療科目:糖尿病内科_代謝・内分泌内科_消化器内科_外科_眼科】【一般病床数:0療養病床数:44精神病床数:0感染症病床数:0合計病床数:44】岡山県岡山市東区西大寺中野４９８－１" }, "geometry": { "type": "Point", "coordinates": [ 134.026941, 34.655771 ] } },
{ "type": "Feature", "properties": { "ID": 3311330001110, "正式名称": "岡山ひだまりの里病院", "機関区分": 1, "都道府県コード": 33, "市区町村コード": 104, "所在地": "岡山県岡山市南区北浦８２２－２", "緯度": 34.590471, "経度": 133.969142, "url": "https://www.iryou.teikyouseido.mhlw.go.jp/znk-web/juminkanja/S2430/initialize?prefCd=33&kikanCd=1330001110&kikanKbn=1", "url2": "http://hidamari.hayashi-dorin.or.jp/", "内容": "岡山ひだまりの里病院【1:病院】【診療科目:内科_精神科_神経科】【一般病床数:0療養病床数:0精神病床数:180感染症病床数:0合計病床数:180】岡山県岡山市南区北浦８２２－２" }, "geometry": { "type": "Point", "coordinates": [ 133.969142, 34.590471 ] } },
{ "type": "Feature", "properties": { "ID": 3311330001120, "正式名称": "岡山市久米南町組合立国民健康保険福渡病院", "機関区分": 1, "都道府県コード": 33, "市区町村コード": 101, "所在地": "岡山県岡山市北区建部町福渡１０００", "緯度": 34.864911, "経度": 133.907111, "url": "https://www.iryou.teikyouseido.mhlw.go.jp/znk-web/juminkanja/S2430/initialize?prefCd=33&kikanCd=1330001120&kikanKbn=1", "url2": "http://www.fukuwatari-hp.jp/", "内容": "岡山市久米南町組合立国民健康保険福渡病院【1:病院】【診療科目:内科_糖尿病内科_呼吸器内科_循環器内科_消化器内科_腎臓内科_人工透析内科_整形外科_眼科_皮膚科_泌尿器科_精神科_リハビリテーション科_放射線科】【一般病床数:52療養病床数:0精神病床数:0感染症病床数:0合計病床数:52】岡山県岡山市北区建部町福渡１０００" }, "geometry": { "type": "Point", "coordinates": [ 133.907111, 34.864911 ] } },
{ "type": "Feature", "properties": { "ID": 3311330001130, "正式名称": "医療法人　社団　藤田病院", "機関区分": 1, "都道府県コード": 33, "市区町村コード": 103, "所在地": "岡山県岡山市東区西大寺上３丁目８－６３", "緯度": 34.661104, "経度": 134.038439, "url": "https://www.iryou.teikyouseido.mhlw.go.jp/znk-web/juminkanja/S2430/initialize?prefCd=33&kikanCd=1330001130&kikanKbn=1", "url2": "http://www.fujita-hospital.jp/", "内容": "医療法人　社団　藤田病院【1:病院】【診療科目:内科_糖尿病内科_呼吸器内科_循環器内科_消化器内科_外科_脳神経外科_呼吸器外科_消化器外科_肛門外科_整形外科_泌尿器科_リハビリテーション科_放射線科_麻酔科】【一般病床数:99療養病床数:0精神病床数:0感染症病床数:0合計病床数:99】岡山県岡山市東区西大寺上３丁目８－６３" }, "geometry": { "type": "Point", "coordinates": [ 134.038439, 34.661104 ] } },
{ "type": "Feature", "properties": { "ID": 3311330001140, "正式名称": "医療法人社団明和会　ペリネイト母と子の病院", "機関区分": 1, "都道府県コード": 33, "市区町村コード": 102, "所在地": "岡山県岡山市中区倉益２０３－１", "緯度": 34.643299, "経度": 133.973251, "url": "https://www.iryou.teikyouseido.mhlw.go.jp/znk-web/juminkanja/S2430/initialize?prefCd=33&kikanCd=1330001140&kikanKbn=1", "url2": "http://www.perineito.com", "内容": "医療法人社団明和会　ペリネイト母と子の病院【1:病院】【診療科目:小児科_産科_婦人科_皮膚科】【一般病床数:37療養病床数:0精神病床数:0感染症病床数:0合計病床数:37】岡山県岡山市中区倉益２０３－１" }, "geometry": { "type": "Point", "coordinates": [ 133.973251, 34.643299 ] } },
{ "type": "Feature", "properties": { "ID": 3311330001150, "正式名称": "医療法人万成病院", "機関区分": 1, "都道府県コード": 33, "市区町村コード": 101, "所在地": "岡山県岡山市北区谷万成１－６－５", "緯度": 34.676571, "経度": 133.898451, "url": "https://www.iryou.teikyouseido.mhlw.go.jp/znk-web/juminkanja/S2430/initialize?prefCd=33&kikanCd=1330001150&kikanKbn=1", "url2": "http://mannari.or.jp", "内容": "医療法人万成病院【1:病院】【診療科目:内科_精神科_心療内科_歯科】【一般病床数:0療養病床数:0精神病床数:500感染症病床数:0合計病床数:500】岡山県岡山市北区谷万成１－６－５" }, "geometry": { "type": "Point", "coordinates": [ 133.898451, 34.676571 ] } },
{ "type": "Feature", "properties": { "ID": 3311330001160, "正式名称": "医療法人社団恵風会　宮本整形外科病院", "機関区分": 1, "都道府県コード": 33, "市区町村コード": 102, "所在地": "岡山県岡山市中区国富４－２－６３", "緯度": 34.667878, "経度": 133.945725, "url": "https://www.iryou.teikyouseido.mhlw.go.jp/znk-web/juminkanja/S2430/initialize?prefCd=33&kikanCd=1330001160&kikanKbn=1", "url2": "http://www.miyamoto.or.jp", "内容": "医療法人社団恵風会　宮本整形外科病院【1:病院】【診療科目:内科_整形外科_リハビリテーション科_放射線科】【一般病床数:60療養病床数:50精神病床数:0感染症病床数:0合計病床数:110】岡山県岡山市中区国富４－２－６３" }, "geometry": { "type": "Point", "coordinates": [ 133.945725, 34.667878 ] } },
{ "type": "Feature", "properties": { "ID": 3311330001170, "正式名称": "医療法人　仁誠会　　瀬戸内記念病院", "機関区分": 1, "都道府県コード": 33, "市区町村コード": 212, "所在地": "岡山県瀬戸内市長船町服部２９０番５", "緯度": 34.712321, "経度": 134.102987, "url": "https://www.iryou.teikyouseido.mhlw.go.jp/znk-web/juminkanja/S2430/initialize?prefCd=33&kikanCd=1330001170&kikanKbn=1", "url2": "http://setouchi-kinen.or.jp", "内容": "医療法人　仁誠会　　瀬戸内記念病院【1:病院】【診療科目:内科_精神科】【一般病床数:0療養病床数:114精神病床数:120感染症病床数:0合計病床数:234】岡山県瀬戸内市長船町服部２９０番５" }, "geometry": { "type": "Point", "coordinates": [ 134.102987, 34.712321 ] } },
{ "type": "Feature", "properties": { "ID": 3311330001180, "正式名称": "医療法人相生会　竜操整形外科病院", "機関区分": 1, "都道府県コード": 33, "市区町村コード": 102, "所在地": "岡山県岡山市中区藤原２１－１", "緯度": 34.675461, "経度": 133.959668, "url": "https://www.iryou.teikyouseido.mhlw.go.jp/znk-web/juminkanja/S2430/initialize?prefCd=33&kikanCd=1330001180&kikanKbn=1", "url2": "https://www.ryusoh.or.jp/", "内容": "医療法人相生会　竜操整形外科病院【1:病院】【診療科目:内科_整形外科_リウマチ科_リハビリテーション科_麻酔科】【一般病床数:111療養病床数:0精神病床数:0感染症病床数:0合計病床数:111】岡山県岡山市中区藤原２１－１" }, "geometry": { "type": "Point", "coordinates": [ 133.959668, 34.675461 ] } },
{ "type": "Feature", "properties": { "ID": 3311330001190, "正式名称": "独立行政法人　労働者健康安全機構　岡山労災病院", "機関区分": 1, "都道府県コード": 33, "市区町村コード": 104, "所在地": "岡山県岡山市南区築港緑町１丁目１０番２５号", "緯度": 34.603636, "経度": 133.932617, "url": "https://www.iryou.teikyouseido.mhlw.go.jp/znk-web/juminkanja/S2430/initialize?prefCd=33&kikanCd=1330001190&kikanKbn=1", "url2": "https://www.okayamah.johas.go.jp", "内容": "独立行政法人　労働者健康安全機構　岡山労災病院【1:病院】【診療科目:内科_呼吸器内科_循環器内科_消化器内科_腫瘍内科_外科_脳神経外科_整形外科_形成外科_小児科_婦人科_眼科_耳鼻いんこう科_皮膚科_泌尿器科_精神科_心療内科_リハビリテーション科_放射線科_病理診断科_救急科_麻酔科】【一般病床数:358療養病床数:0精神病床数:0感染症病床数:0合計病床数:358】岡山県岡山市南区築港緑町１丁目１０番２５号" }, "geometry": { "type": "Point", "coordinates": [ 133.932617, 34.603636 ] } },
{ "type": "Feature", "properties": { "ID": 3311330001200, "正式名称": "医療法人至誠会赤松病院", "機関区分": 1, "都道府県コード": 33, "市区町村コード": 202, "所在地": "岡山県倉敷市老松町３丁目１０番３２号", "緯度": 34.596049, "経度": 133.760605, "url": "https://www.iryou.teikyouseido.mhlw.go.jp/znk-web/juminkanja/S2430/initialize?prefCd=33&kikanCd=1330001200&kikanKbn=1", "url2": "http://www.akamatsu.or.jp", "内容": "医療法人至誠会赤松病院【1:病院】【診療科目:産婦人科】【一般病床数:32療養病床数:0精神病床数:0感染症病床数:0合計病床数:32】岡山県倉敷市老松町３丁目１０番３２号" }, "geometry": { "type": "Point", "coordinates": [ 133.760605, 34.596049 ] } },
{ "type": "Feature", "properties": { "ID": 3311330001210, "正式名称": "川崎医科大学附属病院", "機関区分": 1, "都道府県コード": 33, "市区町村コード": 202, "所在地": "岡山県倉敷市松島５７７番地", "緯度": 34.631491, "経度": 133.811072, "url": "https://www.iryou.teikyouseido.mhlw.go.jp/znk-web/juminkanja/S2430/initialize?prefCd=33&kikanCd=1330001210&kikanKbn=1", "url2": "https://h.kawasaki-m.ac.jp", "内容": "川崎医科大学附属病院【1:病院】【診療科目:内科_感染症内科_血液内科_糖尿病内科_代謝・内分泌内科_脳神経内科_呼吸器内科_循環器内科_消化器内科_腎臓内科_腫瘍内科_外科_脳神経外科_呼吸器外科_心臓血管外科_消化器外科_乳腺・内分泌外科_整形外科_形成外科_美容外科_小児科_小児外科_産婦人科_眼科_頭頸部・耳鼻いんこう科_皮膚科_泌尿器科_精神科_歯科_矯正歯科_歯科口腔外科_リウマチ科_リハビリテーション科_放射線科_病理診断科_臨床検査科_救急科_麻酔科】【一般病床数:1110療養病床数:0精神病床数:28感染症病床数:0合計病床数:1138】岡山県倉敷市松島５７７番地" }, "geometry": { "type": "Point", "coordinates": [ 133.811072, 34.631491 ] } },
{ "type": "Feature", "properties": { "ID": 3311330001220, "正式名称": "医療法人　昭和会　倉敷北病院", "機関区分": 1, "都道府県コード": 33, "市区町村コード": 202, "所在地": "岡山県倉敷市宮前４１－２", "緯度": 34.610575, "経度": 133.761854, "url": "https://www.iryou.teikyouseido.mhlw.go.jp/znk-web/juminkanja/S2430/initialize?prefCd=33&kikanCd=1330001220&kikanKbn=1", "url2": "http://www.kurakita.or.jp", "内容": "医療法人　昭和会　倉敷北病院【1:病院】【診療科目:内科_外科_整形外科_小児科_小児外科_耳鼻いんこう科_リハビリテーション科_麻酔科】【一般病床数:87療養病床数:26精神病床数:0感染症病床数:0合計病床数:113】岡山県倉敷市宮前４１－２" }, "geometry": { "type": "Point", "coordinates": [ 133.761854, 34.610575 ] } },
{ "type": "Feature", "properties": { "ID": 3311330001230, "正式名称": "医療法人誠和会倉敷紀念病院", "機関区分": 1, "都道府県コード": 33, "市区町村コード": 202, "所在地": "岡山県倉敷市中島８３１", "緯度": 34.579079, "経度": 133.739635, "url": "https://www.iryou.teikyouseido.mhlw.go.jp/znk-web/juminkanja/S2430/initialize?prefCd=33&kikanCd=1330001230&kikanKbn=1", "url2": "http://www.seiwakai-net.or.jp", "内容": "医療法人誠和会倉敷紀念病院【1:病院】【診療科目:内科_糖尿病内科_呼吸器内科_循環器内科_消化器内科_神経内科_外科_脳神経外科_整形外科_耳鼻いんこう科_皮膚科_泌尿器科_リハビリテーション科_放射線科_麻酔科】【一般病床数:98療養病床数:50精神病床数:0感染症病床数:2合計病床数:148】岡山県倉敷市中島８３１" }, "geometry": { "type": "Point", "coordinates": [ 133.739635, 34.579079 ] } },
{ "type": "Feature", "properties": { "ID": 3311330001240, "正式名称": "倉敷シティ病院", "機関区分": 1, "都道府県コード": 33, "市区町村コード": 202, "所在地": "岡山県倉敷市児島阿津２丁目７番５３号", "緯度": 34.451039, "経度": 133.805272, "url": "https://www.iryou.teikyouseido.mhlw.go.jp/znk-web/juminkanja/S2430/initialize?prefCd=33&kikanCd=1330001240&kikanKbn=1", "url2": "http://kyouaikai.jp/", "内容": "倉敷シティ病院【1:病院】【診療科目:内科_糖尿病・内分泌内科_循環器内科_消化器内科_内視鏡内科_整形外科_眼科_皮膚科】【一般病床数:45療養病床数:35精神病床数:0感染症病床数:0合計病床数:80】岡山県倉敷市児島阿津２丁目７番５３号" }, "geometry": { "type": "Point", "coordinates": [ 133.805272, 34.451039 ] } },
{ "type": "Feature", "properties": { "ID": 3311330001250, "正式名称": "倉敷神経科病院", "機関区分": 1, "都道府県コード": 33, "市区町村コード": 202, "所在地": "岡山県倉敷市浅原４００番地", "緯度": 34.627768, "経度": 133.769437, "url": "https://www.iryou.teikyouseido.mhlw.go.jp/znk-web/juminkanja/S2430/initialize?prefCd=33&kikanCd=1330001250&kikanKbn=1", "url2": "https://mitokai.or.jp/", "内容": "倉敷神経科病院【1:病院】【診療科目:内科_精神科_神経科】【一般病床数:0療養病床数:0精神病床数:180感染症病床数:0合計病床数:180】岡山県倉敷市浅原４００番地" }, "geometry": { "type": "Point", "coordinates": [ 133.769437, 34.627768 ] } },
{ "type": "Feature", "properties": { "ID": 3311330001260, "正式名称": "倉敷仁風ホスピタル", "機関区分": 1, "都道府県コード": 33, "市区町村コード": 202, "所在地": "岡山県倉敷市中島２３４０番地２３", "緯度": 34.590188, "経度": 133.743412, "url": "https://www.iryou.teikyouseido.mhlw.go.jp/znk-web/juminkanja/S2430/initialize?prefCd=33&kikanCd=1330001260&kikanKbn=1", "url2": "http://www.jinpuhp.com", "内容": "倉敷仁風ホスピタル【1:病院】【診療科目:精神科】【一般病床数:0療養病床数:0精神病床数:240感染症病床数:0合計病床数:240】岡山県倉敷市中島２３４０番地２３" }, "geometry": { "type": "Point", "coordinates": [ 133.743412, 34.590188 ] } },
{ "type": "Feature", "properties": { "ID": 3311330001270, "正式名称": "倉敷成人病センター", "機関区分": 1, "都道府県コード": 33, "市区町村コード": 202, "所在地": "岡山県倉敷市白楽町２５０", "緯度": 34.588486, "経度": 133.765219, "url": "https://www.iryou.teikyouseido.mhlw.go.jp/znk-web/juminkanja/S2430/initialize?prefCd=33&kikanCd=1330001270&kikanKbn=1", "url2": "https://www.fkmc.or.jp", "内容": "倉敷成人病センター【1:病院】【診療科目:内科_呼吸器内科_循環器内科_消化器内科_腫瘍内科_緩和ケア内科_外科_呼吸器外科_消化器外科_乳腺外科_整形外科_小児科_産科_婦人科_眼科_皮膚科_泌尿器科_女性泌尿器科_リウマチ科_リハビリテーション科_放射線科_放射線治療科_病理診断科_臨床検査科_麻酔科_美容科】【一般病床数:269療養病床数:0精神病床数:0感染症病床数:0合計病床数:269】岡山県倉敷市白楽町２５０" }, "geometry": { "type": "Point", "coordinates": [ 133.765219, 34.588486 ] } },
{ "type": "Feature", "properties": { "ID": 3311330001280, "正式名称": "倉敷第一病院", "機関区分": 1, "都道府県コード": 33, "市区町村コード": 202, "所在地": "岡山県倉敷市老松町５丁目３－１０", "緯度": 34.593272, "経度": 133.757161, "url": "https://www.iryou.teikyouseido.mhlw.go.jp/znk-web/juminkanja/S2430/initialize?prefCd=33&kikanCd=1330001280&kikanKbn=1", "url2": "http://www.seiwakai-net.or.jp/daiichi/", "内容": "倉敷第一病院【1:病院】【診療科目:内科_呼吸器内科_循環器内科_消化器内科_外科_脳神経外科_呼吸器外科_心臓血管外科_消化器外科_乳腺外科_肛門外科_整形外科_形成外科_皮膚科_歯科_矯正歯科_小児歯科_リハビリテーション科_放射線科_麻酔科】【一般病床数:191療養病床数:0精神病床数:0感染症病床数:0合計病床数:191】岡山県倉敷市老松町５丁目３－１０" }, "geometry": { "type": "Point", "coordinates": [ 133.757161, 34.593272 ] } },
{ "type": "Feature", "properties": { "ID": 3311330001290, "正式名称": "公益財団法人大原記念倉敷中央医療機構　倉敷中央病院", "機関区分": 1, "都道府県コード": 33, "市区町村コード": 202, "所在地": "岡山県倉敷市美和１－１－１", "緯度": 34.601771, "経度": 133.775048, "url": "https://www.iryou.teikyouseido.mhlw.go.jp/znk-web/juminkanja/S2430/initialize?prefCd=33&kikanCd=1330001290&kikanKbn=1", "url2": "http://www.kchnet.or.jp/", "内容": "公益財団法人大原記念倉敷中央医療機構　倉敷中央病院【1:病院】【診療科目:内科_血液内科_糖尿病内科_代謝・内分泌内科_脳神経内科_呼吸器内科_循環器内科_消化器内科_腎臓内科_腫瘍内科_外科_脳神経外科_呼吸器外科_心臓血管外科_消化器外科_乳腺外科_頭頸部外科_整形外科_形成外科_美容外科_緩和ケア外科_小児科_小児外科_産婦人科_眼科_耳鼻いんこう科_皮膚科_泌尿器科_精神科_歯科_歯科口腔外科_小児歯科_リウマチ科_リハビリテーション科_放射線科_放射線診断科_放射線治療科_病理診断科_臨床検査科_救急科_麻酔科】【一般病床数:1157療養病床数:0精神病床数:5感染症病床数:10合計病床数:1172】岡山県倉敷市美和１－１－１" }, "geometry": { "type": "Point", "coordinates": [ 133.775048, 34.601771 ] } },
{ "type": "Feature", "properties": { "ID": 3311330001300, "正式名称": "社会医療法人全仁会倉敷平成病院", "機関区分": 1, "都道府県コード": 33, "市区町村コード": 202, "所在地": "岡山県倉敷市老松町４丁目３－３８", "緯度": 34.593022, "経度": 133.761744, "url": "https://www.iryou.teikyouseido.mhlw.go.jp/znk-web/juminkanja/S2430/initialize?prefCd=33&kikanCd=1330001300&kikanKbn=1", "url2": "http://www.heisei.or.jp", "内容": "社会医療法人全仁会倉敷平成病院【1:病院】【診療科目:内科_糖尿病内科_呼吸器内科_循環器内科_消化器内科_神経内科_漢方内科_外科_脳神経外科_乳腺外科_整形外科_形成外科_美容外科_婦人科_眼科_耳鼻いんこう科_皮膚科_泌尿器科_歯科_リハビリテーション科_放射線科_麻酔科】【一般病床数:220療養病床数:0精神病床数:0感染症病床数:0合計病床数:220】岡山県倉敷市老松町４丁目３－３８" }, "geometry": { "type": "Point", "coordinates": [ 133.761744, 34.593022 ] } },
{ "type": "Feature", "properties": { "ID": 3311330001310, "正式名称": "公益財団法人　大原記念倉敷中央医療機構　倉敷中央病院リバーサイド", "機関区分": 1, "都道府県コード": 33, "市区町村コード": 202, "所在地": "岡山県倉敷市鶴の浦２－６－１１", "緯度": 34.542304, "経度": 133.705889, "url": "https://www.iryou.teikyouseido.mhlw.go.jp/znk-web/juminkanja/S2430/initialize?prefCd=33&kikanCd=1330001310&kikanKbn=1", "url2": "http://www.kchnet.or.jp/krh", "内容": "公益財団法人　大原記念倉敷中央医療機構　倉敷中央病院リバーサイド【1:病院】【診療科目:内科_循環器内科_神経内科_外科_脳神経外科_呼吸器外科_整形外科_緩和ケア外科_小児科_眼科_耳鼻いんこう科_泌尿器科_歯科_リハビリテーション科_放射線科_麻酔科】【一般病床数:130療養病床数:0精神病床数:0感染症病床数:0合計病床数:130】岡山県倉敷市鶴の浦２－６－１１" }, "geometry": { "type": "Point", "coordinates": [ 133.705889, 34.542304 ] } },
{ "type": "Feature", "properties": { "ID": 3311330001320, "正式名称": "倉敷リハビリテーション病院", "機関区分": 1, "都道府県コード": 33, "市区町村コード": 202, "所在地": "岡山県倉敷市笹沖２１", "緯度": 34.572024, "経度": 133.761161, "url": "https://www.iryou.teikyouseido.mhlw.go.jp/znk-web/juminkanja/S2430/initialize?prefCd=33&kikanCd=1330001320&kikanKbn=1", "url2": "https://www.kurareha.com", "内容": "倉敷リハビリテーション病院【1:病院】【診療科目:内科_リハビリテーション科】【一般病床数:46療養病床数:60精神病床数:0感染症病床数:0合計病床数:106】岡山県倉敷市笹沖２１" }, "geometry": { "type": "Point", "coordinates": [ 133.761161, 34.572024 ] } },
{ "type": "Feature", "properties": { "ID": 3311330001330, "正式名称": "コープリハビリテーション病院", "機関区分": 1, "都道府県コード": 33, "市区町村コード": 202, "所在地": "岡山県倉敷市水島東千鳥町１－６０", "緯度": 34.528626, "経度": 133.740371, "url": "https://www.iryou.teikyouseido.mhlw.go.jp/znk-web/juminkanja/S2430/initialize?prefCd=33&kikanCd=1330001330&kikanKbn=1", "url2": "http://coopreha.jp/", "内容": "コープリハビリテーション病院【1:病院】【診療科目:内科_神経内科_精神科_歯科_リハビリテーション科】【一般病床数:0療養病床数:127精神病床数:0感染症病床数:0合計病床数:127】岡山県倉敷市水島東千鳥町１－６０" }, "geometry": { "type": "Point", "coordinates": [ 133.740371, 34.528626 ] } },
{ "type": "Feature", "properties": { "ID": 3311330001340, "正式名称": "倉敷市立市民病院", "機関区分": 1, "都道府県コード": 33, "市区町村コード": 202, "所在地": "岡山県倉敷市児島駅前２丁目３９番地", "緯度": 34.467232, "経度": 133.805716, "url": "https://www.iryou.teikyouseido.mhlw.go.jp/znk-web/juminkanja/S2430/initialize?prefCd=33&kikanCd=1330001340&kikanKbn=1", "url2": "https://www.city.kurashiki.okayama.jp/hospital/", "内容": "倉敷市立市民病院【1:病院】【診療科目:内科_脳神経内科_呼吸器内科_循環器内科_消化器内科_緩和ケア内科_外科_脳神経外科_整形外科_形成外科_小児科_産婦人科_眼科_耳鼻いんこう科_泌尿器科_歯科口腔外科_アレルギー科_リウマチ科_リハビリテーション科_放射線科】【一般病床数:198療養病床数:0精神病床数:0感染症病床数:0合計病床数:198】岡山県倉敷市児島駅前２丁目３９番地" }, "geometry": { "type": "Point", "coordinates": [ 133.805716, 34.467232 ] } },
{ "type": "Feature", "properties": { "ID": 3311330001350, "正式名称": "医療法人社団五聖会　児島聖康病院", "機関区分": 1, "都道府県コード": 33, "市区町村コード": 202, "所在地": "岡山県倉敷市児島下の町１－１－１６", "緯度": 34.468806, "経度": 133.816974, "url": "https://www.iryou.teikyouseido.mhlw.go.jp/znk-web/juminkanja/S2430/initialize?prefCd=33&kikanCd=1330001350&kikanKbn=1", "url2": "http://www.seikoh-hp.or.jp", "内容": "医療法人社団五聖会　児島聖康病院【1:病院】【診療科目:内科_循環器内科_消化器内科_外科_脳神経外科_消化器外科_乳腺外科_肛門外科_内視鏡外科_整形外科_皮膚科_泌尿器科_リハビリテーション科_放射線科】【一般病床数:40療養病床数:40精神病床数:0感染症病床数:0合計病床数:80】岡山県倉敷市児島下の町１－１－１６" }, "geometry": { "type": "Point", "coordinates": [ 133.816974, 34.468806 ] } },
{ "type": "Feature", "properties": { "ID": 3311330001360, "正式名称": "医療法人医誠会児島中央病院", "機関区分": 1, "都道府県コード": 33, "市区町村コード": 202, "所在地": "岡山県倉敷市児島小川町３６８５番地", "緯度": 34.465592, "経度": 133.81104, "url": "https://www.iryou.teikyouseido.mhlw.go.jp/znk-web/juminkanja/S2430/initialize?prefCd=33&kikanCd=1330001360&kikanKbn=1", "url2": "http://www.kojimach.or.jp", "内容": "医療法人医誠会児島中央病院【1:病院】【診療科目:内科_呼吸器内科_循環器内科_消化器内科_人工透析内科_外科_脳神経外科_整形外科_耳鼻いんこう科_リハビリテーション科_放射線科】【一般病床数:231療養病床数:0精神病床数:0感染症病床数:0合計病床数:231】岡山県倉敷市児島小川町３６８５番地" }, "geometry": { "type": "Point", "coordinates": [ 133.81104, 34.465592 ] } },
{ "type": "Feature", "properties": { "ID": 3311330001370, "正式名称": "社会医療法人創和会しげい病院", "機関区分": 1, "都道府県コード": 33, "市区町村コード": 202, "所在地": "岡山県倉敷市幸町２－３０", "緯度": 34.603549, "経度": 133.773132, "url": "https://www.iryou.teikyouseido.mhlw.go.jp/znk-web/juminkanja/S2430/initialize?prefCd=33&kikanCd=1330001370&kikanKbn=1", "url2": "https://shigei.jp/", "内容": "社会医療法人創和会しげい病院【1:病院】【診療科目:内科_糖尿病内科_脳神経内科_呼吸器内科_循環器内科_消化器内科_腎臓内科_人工透析内科_肝臓内科_外科_脳神経外科_心臓血管外科_整形外科_皮膚科_泌尿器科_リハビリテーション科_放射線科】【一般病床数:106療養病床数:150精神病床数:0感染症病床数:0合計病床数:256】岡山県倉敷市幸町２－３０" }, "geometry": { "type": "Point", "coordinates": [ 133.773132, 34.603549 ] } },
{ "type": "Feature", "properties": { "ID": 3311330001380, "正式名称": "柴田病院", "機関区分": 1, "都道府県コード": 33, "市区町村コード": 202, "所在地": "岡山県倉敷市玉島乙島６１０８－１", "緯度": 34.553303, "経度": 133.693057, "url": "https://www.iryou.teikyouseido.mhlw.go.jp/znk-web/juminkanja/S2430/initialize?prefCd=33&kikanCd=1330001380&kikanKbn=1", "url2": "https://shibata-h.jp", "内容": "柴田病院【1:病院】【診療科目:内科_精神科_歯科_リハビリテーション科_放射線科】【一般病床数:0療養病床数:94精神病床数:0感染症病床数:0合計病床数:94】岡山県倉敷市玉島乙島６１０８－１" }, "geometry": { "type": "Point", "coordinates": [ 133.693057, 34.553303 ] } },
{ "type": "Feature", "properties": { "ID": 3311330001390, "正式名称": "医療法人鷲風会　下津井病院", "機関区分": 1, "都道府県コード": 33, "市区町村コード": 202, "所在地": "岡山県倉敷市下津井吹上２－６－４", "緯度": 34.441151, "経度": 133.800023, "url": "https://www.iryou.teikyouseido.mhlw.go.jp/znk-web/juminkanja/S2430/initialize?prefCd=33&kikanCd=1330001390&kikanKbn=1", "url2": "https://suiseikai-group.jp/shufukai/about/access/", "内容": "医療法人鷲風会　下津井病院【1:病院】【診療科目:内科_整形外科_リハビリテーション科_放射線科】【一般病床数:0療養病床数:60精神病床数:0感染症病床数:0合計病床数:60】岡山県倉敷市下津井吹上２－６－４" }, "geometry": { "type": "Point", "coordinates": [ 133.800023, 34.441151 ] } },
{ "type": "Feature", "properties": { "ID": 3311330001400, "正式名称": "武田病院", "機関区分": 1, "都道府県コード": 33, "市区町村コード": 202, "所在地": "岡山県倉敷市連島町西之浦３５２－１", "緯度": 34.550276, "経度": 133.715055, "url": "https://www.iryou.teikyouseido.mhlw.go.jp/znk-web/juminkanja/S2430/initialize?prefCd=33&kikanCd=1330001400&kikanKbn=1", "url2": "https://www.takeda-hp.com", "内容": "武田病院【1:病院】【診療科目:内科_循環器内科_外科_消化器外科_肛門外科_整形外科_リハビリテーション科_放射線科】【一般病床数:34療養病床数:0精神病床数:0感染症病床数:0合計病床数:34】岡山県倉敷市連島町西之浦３５２－１" }, "geometry": { "type": "Point", "coordinates": [ 133.715055, 34.550276 ] } },
{ "type": "Feature", "properties": { "ID": 3311330001410, "正式名称": "玉島協同病院", "機関区分": 1, "都道府県コード": 33, "市区町村コード": 202, "所在地": "岡山県倉敷市玉島柏島５２０９－１", "緯度": 34.531304, "経度": 133.659922, "url": "https://www.iryou.teikyouseido.mhlw.go.jp/znk-web/juminkanja/S2430/initialize?prefCd=33&kikanCd=1330001410&kikanKbn=1", "url2": "http://www.tamakyo.com", "内容": "玉島協同病院【1:病院】【診療科目:内科_呼吸器内科_循環器内科_消化器内科_放射線科】【一般病床数:54療養病床数:54精神病床数:0感染症病床数:0合計病床数:108】岡山県倉敷市玉島柏島５２０９－１" }, "geometry": { "type": "Point", "coordinates": [ 133.659922, 34.531304 ] } },
{ "type": "Feature", "properties": { "ID": 3311330001420, "正式名称": "医療法人賀新会　プライムホスピタル玉島", "機関区分": 1, "都道府県コード": 33, "市区町村コード": 202, "所在地": "岡山県倉敷市玉島７５０－１", "緯度": 34.550012, "経度": 133.686266, "url": "https://www.iryou.teikyouseido.mhlw.go.jp/znk-web/juminkanja/S2430/initialize?prefCd=33&kikanCd=1330001420&kikanKbn=1", "url2": "http://www.primehospital.or.jp/", "内容": "医療法人賀新会　プライムホスピタル玉島【1:病院】【診療科目:内科_脳神経内科_神経内科_外科_脳神経外科_乳腺外科_乳腺・内分泌外科_整形外科_形成外科_皮膚科_泌尿器科_歯科_リハビリテーション科_麻酔科】【一般病床数:77療養病床数:0精神病床数:0感染症病床数:0合計病床数:77】岡山県倉敷市玉島７５０－１" }, "geometry": { "type": "Point", "coordinates": [ 133.686266, 34.550012 ] } },
{ "type": "Feature", "properties": { "ID": 3311330001430, "正式名称": "医療法人社団　新風会　玉島中央病院", "機関区分": 1, "都道府県コード": 33, "市区町村コード": 202, "所在地": "岡山県倉敷市玉島阿賀崎２丁目１番１号", "緯度": 34.547553, "経度": 133.672587, "url": "https://www.iryou.teikyouseido.mhlw.go.jp/znk-web/juminkanja/S2430/initialize?prefCd=33&kikanCd=1330001430&kikanKbn=1", "url2": "https://www.tamashima-ch.or.jp", "内容": "医療法人社団　新風会　玉島中央病院【1:病院】【診療科目:内科_血液内科_糖尿病内科_呼吸器内科_循環器内科_消化器内科_肝臓内科_神経内科_外科_脳神経外科_呼吸器外科_心臓血管外科_消化器外科_乳腺外科_整形外科_形成外科_美容外科_人工透析外科_皮膚科_泌尿器科_リハビリテーション科_放射線科_麻酔科】【一般病床数:92療養病床数:30精神病床数:0感染症病床数:0合計病床数:122】岡山県倉敷市玉島阿賀崎２丁目１番１号" }, "geometry": { "type": "Point", "coordinates": [ 133.672587, 34.547553 ] } },
{ "type": "Feature", "properties": { "ID": 3311330001440, "正式名称": "公益財団法人弘仁会　玉島病院", "機関区分": 1, "都道府県コード": 33, "市区町村コード": 202, "所在地": "岡山県倉敷市玉島乙島４０３０", "緯度": 34.541526, "経度": 133.680475, "url": "https://www.iryou.teikyouseido.mhlw.go.jp/znk-web/juminkanja/S2430/initialize?prefCd=33&kikanCd=1330001440&kikanKbn=1", "url2": "http://www.tamashimahosp.or.jp", "内容": "公益財団法人弘仁会　玉島病院【1:病院】【診療科目:内科_循環器内科_消化器内科_神経内科_外科_脳神経外科_整形外科_小児科_産婦人科_眼科_耳鼻いんこう科_皮膚科_歯科】【一般病床数:0療養病床数:60精神病床数:0感染症病床数:0合計病床数:60】岡山県倉敷市玉島乙島４０３０" }, "geometry": { "type": "Point", "coordinates": [ 133.680475, 34.541526 ] } },
{ "type": "Feature", "properties": { "ID": 3311330001450, "正式名称": "医療法人天馬会　チクバ外科胃腸科肛門科病院", "機関区分": 1, "都道府県コード": 33, "市区町村コード": 202, "所在地": "岡山県倉敷市林２２１７", "緯度": 34.536752, "経度": 133.811602, "url": "https://www.iryou.teikyouseido.mhlw.go.jp/znk-web/juminkanja/S2430/initialize?prefCd=33&kikanCd=1330001450&kikanKbn=1", "url2": "https://www.chikubageka.jp/", "内容": "医療法人天馬会　チクバ外科胃腸科肛門科病院【1:病院】【診療科目:消化器内科_外科_消化器外科_肛門外科_麻酔科】【一般病床数:60療養病床数:0精神病床数:0感染症病床数:0合計病床数:60】岡山県倉敷市林２２１７" }, "geometry": { "type": "Point", "coordinates": [ 133.811602, 34.536752 ] } },
{ "type": "Feature", "properties": { "ID": 3311330001470, "正式名称": "まきび病院", "機関区分": 1, "都道府県コード": 33, "市区町村コード": 202, "所在地": "岡山県倉敷市真備町箭田２３８７", "緯度": 34.636793, "経度": 133.681444, "url": "https://www.iryou.teikyouseido.mhlw.go.jp/znk-web/juminkanja/S2430/initialize?prefCd=33&kikanCd=1330001470&kikanKbn=1", "url2": "http://www.makibi.or.jp", "内容": "まきび病院【1:病院】【診療科目:内科_精神科_心療内科】【一般病床数:0療養病床数:0精神病床数:192感染症病床数:0合計病床数:192】岡山県倉敷市真備町箭田２３８７" }, "geometry": { "type": "Point", "coordinates": [ 133.681444, 34.636793 ] } },
{ "type": "Feature", "properties": { "ID": 3311330001480, "正式名称": "松田病院", "機関区分": 1, "都道府県コード": 33, "市区町村コード": 202, "所在地": "岡山県倉敷市鶴形１丁目３番１０号", "緯度": 34.601632, "経度": 133.770271, "url": "https://www.iryou.teikyouseido.mhlw.go.jp/znk-web/juminkanja/S2430/initialize?prefCd=33&kikanCd=1330001480&kikanKbn=1", "url2": "https://matsuda-hospital.or.jp/", "内容": "松田病院【1:病院】【診療科目:内科_消化器内科_外科_消化器外科_整形外科_泌尿器科_麻酔科】【一般病床数:97療養病床数:38精神病床数:0感染症病床数:0合計病床数:135】岡山県倉敷市鶴形１丁目３番１０号" }, "geometry": { "type": "Point", "coordinates": [ 133.770271, 34.601632 ] } },
{ "type": "Feature", "properties": { "ID": 3311330001490, "正式名称": "水島協同病院", "機関区分": 1, "都道府県コード": 33, "市区町村コード": 202, "所在地": "岡山県倉敷市水島南春日町１番１号", "緯度": 34.541805, "経度": 133.742442, "url": "https://www.iryou.teikyouseido.mhlw.go.jp/znk-web/juminkanja/S2430/initialize?prefCd=33&kikanCd=1330001490&kikanKbn=1", "url2": "http://www.mizukyo.jp/", "内容": "水島協同病院【1:病院】【診療科目:内科_糖尿病・内分泌内科_脳神経内科_呼吸器内科_循環器内科_消化器内科_腎臓内科_膵胆道内科_外科_脳神経外科_乳腺外科_整形外科_小児科_産婦人科_眼科_皮膚科_泌尿器科_精神科_リウマチ科_リハビリテーション科_放射線科_救急科_麻酔科】【一般病床数:282療養病床数:0精神病床数:0感染症病床数:0合計病床数:282】岡山県倉敷市水島南春日町１番１号" }, "geometry": { "type": "Point", "coordinates": [ 133.742442, 34.541805 ] } },
{ "type": "Feature", "properties": { "ID": 3311330001500, "正式名称": "医療法人　水清会　水島第一病院", "機関区分": 1, "都道府県コード": 33, "市区町村コード": 202, "所在地": "岡山県倉敷市神田２－３－３３", "緯度": 34.541583, "経度": 133.738664, "url": "https://www.iryou.teikyouseido.mhlw.go.jp/znk-web/juminkanja/S2430/initialize?prefCd=33&kikanCd=1330001500&kikanKbn=1", "url2": "https://suiseikai-group.jp/suiseikai/", "内容": "医療法人　水清会　水島第一病院【1:病院】【診療科目:内科_糖尿病内科_呼吸器内科_循環器内科_消化器内科_老年内科_外科_消化器外科_肛門外科_整形外科_婦人科_皮膚科_歯科_歯科口腔外科_アレルギー科_リハビリテーション科_放射線科】【一般病床数:107療養病床数:92精神病床数:0感染症病床数:0合計病床数:199】岡山県倉敷市神田２－３－３３" }, "geometry": { "type": "Point", "coordinates": [ 133.738664, 34.541583 ] } },
{ "type": "Feature", "properties": { "ID": 3311330001510, "正式名称": "社会医療法人　水和会　水島中央病院", "機関区分": 1, "都道府県コード": 33, "市区町村コード": 202, "所在地": "岡山県倉敷市水島青葉町４番５号", "緯度": 34.534223, "経度": 133.739192, "url": "https://www.iryou.teikyouseido.mhlw.go.jp/znk-web/juminkanja/S2430/initialize?prefCd=33&kikanCd=1330001510&kikanKbn=1", "url2": "http://suiwakai-mch.or.jp/", "内容": "社会医療法人　水和会　水島中央病院【1:病院】【診療科目:内科_脳神経内科_呼吸器内科_循環器内科_消化器内科_外科_脳神経外科_整形外科_形成外科_小児科_眼科_皮膚科_泌尿器科_歯科_アレルギー科_リハビリテーション科_放射線科_救急科_麻酔科】【一般病床数:198療養病床数:0精神病床数:0感染症病床数:0合計病床数:198】岡山県倉敷市水島青葉町４番５号" }, "geometry": { "type": "Point", "coordinates": [ 133.739192, 34.534223 ] } },
{ "type": "Feature", "properties": { "ID": 3311330001520, "正式名称": "医療法人創生会　渡辺胃腸科外科病院", "機関区分": 1, "都道府県コード": 33, "市区町村コード": 202, "所在地": "岡山県倉敷市玉島上成５３９－５", "緯度": 34.562579, "経度": 133.686752, "url": "https://www.iryou.teikyouseido.mhlw.go.jp/znk-web/juminkanja/S2430/initialize?prefCd=33&kikanCd=1330001520&kikanKbn=1", "url2": "http://watanabe.or.jp", "内容": "医療法人創生会　渡辺胃腸科外科病院【1:病院】【診療科目:内科_消化器内科_外科_消化器外科_肛門外科_麻酔科】【一般病床数:40療養病床数:0精神病床数:0感染症病床数:0合計病床数:40】岡山県倉敷市玉島上成５３９－５" }, "geometry": { "type": "Point", "coordinates": [ 133.686752, 34.562579 ] } },
{ "type": "Feature", "properties": { "ID": 3311330001530, "正式名称": "まび記念病院", "機関区分": 1, "都道府県コード": 33, "市区町村コード": 202, "所在地": "岡山県倉敷市真備町川辺２０００－１", "緯度": 34.637099, "経度": 133.709953, "url": "https://www.iryou.teikyouseido.mhlw.go.jp/znk-web/juminkanja/S2430/initialize?prefCd=33&kikanCd=1330001530&kikanKbn=1", "url2": "https://mkh.or.jp", "内容": "まび記念病院【1:病院】【診療科目:内科_呼吸器内科_循環器内科_腎臓内科_人工透析内科_外科_整形外科_小児科_眼科_皮膚科_泌尿器科_リウマチ科_リハビリテーション科_放射線科】【一般病床数:80療養病床数:0精神病床数:0感染症病床数:0合計病床数:80】岡山県倉敷市真備町川辺２０００－１" }, "geometry": { "type": "Point", "coordinates": [ 133.709953, 34.637099 ] } },
{ "type": "Feature", "properties": { "ID": 3311330001540, "正式名称": "医療法人社団　葵会　ＡＯＩ倉敷病院", "機関区分": 1, "都道府県コード": 33, "市区町村コード": 202, "所在地": "岡山県倉敷市四十瀬２９８－５", "緯度": 34.587078, "経度": 133.746801, "url": "https://www.iryou.teikyouseido.mhlw.go.jp/znk-web/juminkanja/S2430/initialize?prefCd=33&kikanCd=1330001540&kikanKbn=1", "url2": "https://www.aoikai.jp/aoikurashikihp/", "内容": "医療法人社団　葵会　ＡＯＩ倉敷病院【1:病院】【診療科目:内科_神経内科_精神科】【一般病床数:0療養病床数:0精神病床数:209感染症病床数:0合計病床数:209】岡山県倉敷市四十瀬２９８－５" }, "geometry": { "type": "Point", "coordinates": [ 133.746801, 34.587078 ] } },
{ "type": "Feature", "properties": { "ID": 3311330001550, "正式名称": "旭川荘療育・医療センター", "機関区分": 1, "都道府県コード": 33, "市区町村コード": 101, "所在地": "岡山県岡山市北区祇園８６６", "緯度": 34.709013, "経度": 133.958584, "url": "https://www.iryou.teikyouseido.mhlw.go.jp/znk-web/juminkanja/S2430/initialize?prefCd=33&kikanCd=1330001550&kikanKbn=1", "url2": "http://www.jidouin.jp/", "内容": "旭川荘療育・医療センター【1:病院】【診療科目:内科_整形外科_小児科_婦人科_眼科_耳鼻いんこう科_皮膚科_泌尿器科_精神科_歯科_リハビリテーション科_麻酔科】【一般病床数:422療養病床数:0精神病床数:0感染症病床数:0合計病床数:422】岡山県岡山市北区祇園８６６" }, "geometry": { "type": "Point", "coordinates": [ 133.958584, 34.709013 ] } },
{ "type": "Feature", "properties": { "ID": 3311330001560, "正式名称": "国立病院機構岡山市立金川病院", "機関区分": 1, "都道府県コード": 33, "市区町村コード": 101, "所在地": "岡山県岡山市北区御津金川４４９番地", "緯度": 34.79628, "経度": 133.932611, "url": "https://www.iryou.teikyouseido.mhlw.go.jp/znk-web/juminkanja/S2430/initialize?prefCd=33&kikanCd=1330001560&kikanKbn=1", "url2": "http://okayamamc.jp/kanagawa/", "内容": "国立病院機構岡山市立金川病院【1:病院】【診療科目:内科_外科_眼科_皮膚科_リハビリテーション科】【一般病床数:30療養病床数:0精神病床数:0感染症病床数:0合計病床数:30】岡山県岡山市北区御津金川４４９番地" }, "geometry": { "type": "Point", "coordinates": [ 133.932611, 34.79628 ] } },
{ "type": "Feature", "properties": { "ID": 3311330001570, "正式名称": "医療法人和香会　倉敷スイートホスピタル", "機関区分": 1, "都道府県コード": 33, "市区町村コード": 202, "所在地": "岡山県倉敷市中庄３５４２番１", "緯度": 34.624214, "経度": 133.803684, "url": "https://www.iryou.teikyouseido.mhlw.go.jp/znk-web/juminkanja/S2430/initialize?prefCd=33&kikanCd=1330001570&kikanKbn=1", "url2": "http://sweet-town.jp/hospital/index.html", "内容": "医療法人和香会　倉敷スイートホスピタル【1:病院】【診療科目:内科_糖尿病内科_代謝・内分泌内科_呼吸器内科_循環器内科_消化器内科_腎臓内科_神経内科_老年内科_ペインクリニック内科_外科_消化器外科_整形外科_小児科_皮膚科_泌尿器科_歯科_アレルギー科_リウマチ科_リハビリテーション科_放射線科】【一般病床数:196療養病床数:0精神病床数:0感染症病床数:0合計病床数:196】岡山県倉敷市中庄３５４２番１" }, "geometry": { "type": "Point", "coordinates": [ 133.803684, 34.624214 ] } },
{ "type": "Feature", "properties": { "ID": 3311330001580, "正式名称": "岡山東部脳神経外科病院", "機関区分": 1, "都道府県コード": 33, "市区町村コード": 101, "所在地": "岡山県岡山市北区牟佐９６－１", "緯度": 34.725817, "経度": 133.983331, "url": "https://www.iryou.teikyouseido.mhlw.go.jp/znk-web/juminkanja/S2430/initialize?prefCd=33&kikanCd=1330001580&kikanKbn=1", "url2": "http://www.oenc.or.jp", "内容": "岡山東部脳神経外科病院【1:病院】【診療科目:内科_脳神経内科_循環器内科_消化器内科_脳神経外科_リハビリテーション科_放射線科】【一般病床数:38療養病床数:0精神病床数:0感染症病床数:0合計病床数:38】岡山県岡山市北区牟佐９６－１" }, "geometry": { "type": "Point", "coordinates": [ 133.983331, 34.725817 ] } },
{ "type": "Feature", "properties": { "ID": 3311330001590, "正式名称": "岡山西大寺病院附属中野分院", "機関区分": 1, "都道府県コード": 33, "市区町村コード": 103, "所在地": "岡山県岡山市東区西大寺中野本町８－４１", "緯度": 34.653938, "経度": 134.027712, "url": "https://www.iryou.teikyouseido.mhlw.go.jp/znk-web/juminkanja/S2430/initialize?prefCd=33&kikanCd=1330001590&kikanKbn=1", "url2": "https://www.saidaiji-hp.or.jp/publics/index/263/", "内容": "岡山西大寺病院附属中野分院【1:病院】【診療科目:内科_整形外科_リハビリテーション科】【一般病床数:0療養病床数:116精神病床数:0感染症病床数:0合計病床数:116】岡山県岡山市東区西大寺中野本町８－４１" }, "geometry": { "type": "Point", "coordinates": [ 134.027712, 34.653938 ] } },
{ "type": "Feature", "properties": { "ID": 3311330001600, "正式名称": "岡山済生会外来センター病院", "機関区分": 1, "都道府県コード": 33, "市区町村コード": 101, "所在地": "岡山県岡山市北区伊福町１丁目１７－１８", "緯度": 34.67056, "経度": 133.917432, "url": "https://www.iryou.teikyouseido.mhlw.go.jp/znk-web/juminkanja/S2430/initialize?prefCd=33&kikanCd=1330001600&kikanKbn=1", "url2": "http://www.okayamasaiseikai.or.jp/", "内容": "岡山済生会外来センター病院【1:病院】【診療科目:内科_血液内科_糖尿病内科_内分泌内科_呼吸器内科_循環器内科_消化器内科_腎臓内科_肝臓内科_神経内科_外科_脳神経外科_呼吸器外科_血管外科_消化器外科_乳腺外科_乳腺・内分泌外科_整形外科_形成外科_美容外科_小児科_産婦人科_眼科_耳鼻いんこう科_皮膚科_泌尿器科_精神科_心療内科_リウマチ科_放射線科_臨床検査科_麻酔科】【一般病床数:80療養病床数:0精神病床数:0感染症病床数:0合計病床数:80】岡山県岡山市北区伊福町１丁目１７－１８" }, "geometry": { "type": "Point", "coordinates": [ 133.917432, 34.67056 ] } },
{ "type": "Feature", "properties": { "ID": 3312023121101, "正式名称": "川崎医科大学高齢者医療センター", "機関区分": 1, "都道府県コード": 33, "市区町村コード": 101, "所在地": "岡山県岡山市北区中山下二丁目１番８０号", "緯度": 34.661362, "経度": 133.927181, "url": "https://www.iryou.teikyouseido.mhlw.go.jp/znk-web/juminkanja/S2430/initialize?prefCd=33&kikanCd=2023121101&kikanKbn=1", "url2": "https://o.kawasaki-m.ac.jp/", "内容": "川崎医科大学高齢者医療センター【1:病院】【診療科目:内科_老年内科_リハビリテーション科】【一般病床数:102療養病床数:0精神病床数:0感染症病床数:0合計病床数:102】岡山県岡山市北区中山下二丁目１番８０号" }, "geometry": { "type": "Point", "coordinates": [ 133.927181, 34.661362 ] } },
{ "type": "Feature", "properties": { "ID": 3312330015450, "正式名称": "医療法人純親会　ながしま形成外科クリニック", "機関区分": 1, "都道府県コード": 33, "市区町村コード": 202, "所在地": "岡山県倉敷市松島１１５４－２マルナカマスカット店ドーム棟１階", "緯度": 34.627711, "経度": 133.802447, "url": "https://www.iryou.teikyouseido.mhlw.go.jp/znk-web/juminkanja/S2430/initialize?prefCd=33&kikanCd=2330015450&kikanKbn=1", "url2": "https://www.nagashima-keisei.jp/", "内容": "医療法人純親会　ながしま形成外科クリニック【1:病院】【診療科目:形成外科_美容外科_皮膚科】【一般病床数:0療養病床数:0精神病床数:0感染症病床数:0合計病床数:0】岡山県倉敷市松島１１５４－２マルナカマスカット店ドーム棟１階" }, "geometry": { "type": "Point", "coordinates": [ 133.802447, 34.627711 ] } }
]
}
