{
"type": "FeatureCollection",
"name": "geo_33_短期大学",
"crs": { "type": "name", "properties": { "name": "urn:ogc:def:crs:EPSG::6668" } },
"features": [
{ "type": "Feature", "properties": { "P29_001": "33202", "P29_002": "F233210109680", "P29_003": "16006", "P29_004": "倉敷市立短期大学", "P29_005": "岡山県倉敷市児島稗田町160", "P29_006": "3", "P29_007": "0", "P29_008": "00", "P29_009": null }, "geometry": { "type": "Point", "coordinates": [ 133.808424185910781, 34.497916181149641 ] } },
{ "type": "Feature", "properties": { "P29_001": "33102", "P29_002": "F233310109704", "P29_003": "16006", "P29_004": "就実短期大学", "P29_005": "岡山県岡山市中区西川原1-6-1", "P29_006": "4", "P29_007": "0", "P29_008": "00", "P29_009": null }, "geometry": { "type": "Point", "coordinates": [ 133.93641385867727, 34.676689149190487 ] } },
{ "type": "Feature", "properties": { "P29_001": "33202", "P29_002": "F233310109713", "P29_003": "16006", "P29_004": "岡山短期大学", "P29_005": "岡山県倉敷市有城787", "P29_006": "4", "P29_007": "0", "P29_008": "00", "P29_009": null }, "geometry": { "type": "Point", "coordinates": [ 133.798768997497262, 34.572708996245545 ] } },
{ "type": "Feature", "properties": { "P29_001": "33202", "P29_002": "F233310109722", "P29_003": "16006", "P29_004": "作陽短期大学", "P29_005": "岡山県倉敷市玉島長尾3524", "P29_006": "4", "P29_007": "0", "P29_008": "00", "P29_009": null }, "geometry": { "type": "Point", "coordinates": [ 133.678518362544793, 34.575402193546424 ] } },
{ "type": "Feature", "properties": { "P29_001": "33101", "P29_002": "F233310109731", "P29_003": "16006", "P29_004": "中国短期大学", "P29_005": "岡山県岡山市北区庭瀬83", "P29_006": "4", "P29_007": "0", "P29_008": "00", "P29_009": null }, "geometry": { "type": "Point", "coordinates": [ 133.849327045974945, 34.651072717462277 ] } },
{ "type": "Feature", "properties": { "P29_001": "33203", "P29_002": "F233310109740", "P29_003": "16006", "P29_004": "美作大学短期大学部", "P29_005": "岡山県津山市北園町50", "P29_006": "4", "P29_007": "0", "P29_008": "00", "P29_009": null }, "geometry": { "type": "Point", "coordinates": [ 134.007962594079459, 35.076736298226393 ] } },
{ "type": "Feature", "properties": { "P29_001": "33102", "P29_002": "F233310109759", "P29_003": "16006", "P29_004": "山陽学園短期大学", "P29_005": "岡山県岡山市中区平井1-14-1", "P29_006": "4", "P29_007": "0", "P29_008": "00", "P29_009": null }, "geometry": { "type": "Point", "coordinates": [ 133.943491081696891, 34.642700841936865 ] } },
{ "type": "Feature", "properties": { "P29_001": "33101", "P29_002": "F233310109768", "P29_003": "16006", "P29_004": "川崎医療短期大学", "P29_005": "岡山県岡山市北区中山下2-1-70", "P29_006": "4", "P29_007": "0", "P29_008": "00", "P29_009": null }, "geometry": { "type": "Point", "coordinates": [ 133.926881504102454, 34.660736628542033 ] } }
]
}
