{
"type": "FeatureCollection",
"name": "geo_33_各種学校",
"crs": { "type": "name", "properties": { "name": "urn:ogc:def:crs:EPSG::6668" } },
"features": [
{ "type": "Feature", "properties": { "P29_001": "33101", "P29_002": "H233310000014", "P29_003": "16015", "P29_004": "岡山進研学院", "P29_005": "岡山県岡山市北区伊福町2-10-27", "P29_006": "4", "P29_007": "0", "P29_008": "00", "P29_009": null }, "geometry": { "type": "Point", "coordinates": [ 133.914825957462966, 34.672365946105508 ] } },
{ "type": "Feature", "properties": { "P29_001": "33102", "P29_002": "H233310000023", "P29_003": "16015", "P29_004": "岡山自動車学校", "P29_005": "岡山県岡山市中区円山646", "P29_006": "4", "P29_007": "0", "P29_008": "00", "P29_009": null }, "geometry": { "type": "Point", "coordinates": [ 133.967722103910546, 34.658521846297035 ] } },
{ "type": "Feature", "properties": { "P29_001": "33101", "P29_002": "H233310000032", "P29_003": "16015", "P29_004": "英数学館岡山校", "P29_005": "岡山県岡山市北区学南町1-9-1", "P29_006": "4", "P29_007": "0", "P29_008": "00", "P29_009": null }, "geometry": { "type": "Point", "coordinates": [ 133.923042248173857, 34.679141353604457 ] } },
{ "type": "Feature", "properties": { "P29_001": "33101", "P29_002": "H233310000041", "P29_003": "16015", "P29_004": "岡山健康学院", "P29_005": "岡山県岡山市北区田町1-8-17", "P29_006": "4", "P29_007": "0", "P29_008": "00", "P29_009": null }, "geometry": { "type": "Point", "coordinates": [ 133.924123316790229, 34.661448280615062 ] } },
{ "type": "Feature", "properties": { "P29_001": "33101", "P29_002": "H233310000050", "P29_003": "16015", "P29_004": "旭川荘療育アカデミー", "P29_005": "岡山県岡山市北区祇園866", "P29_006": "4", "P29_007": "0", "P29_008": "00", "P29_009": null }, "geometry": { "type": "Point", "coordinates": [ 133.958572295576573, 34.709036415467061 ] } },
{ "type": "Feature", "properties": { "P29_001": "33203", "P29_002": "H233310000069", "P29_003": "16015", "P29_004": "沼自動車学校", "P29_005": "岡山県津山市沼121", "P29_006": "4", "P29_007": "0", "P29_008": "00", "P29_009": null }, "geometry": { "type": "Point", "coordinates": [ 134.010347712125338, 35.084087353039983 ] } },
{ "type": "Feature", "properties": { "P29_001": "33202", "P29_002": "H233310000078", "P29_003": "16015", "P29_004": "倉敷自動車学校", "P29_005": "岡山県倉敷市中庄1822", "P29_006": "4", "P29_007": "0", "P29_008": "00", "P29_009": null }, "geometry": { "type": "Point", "coordinates": [ 133.797838729202169, 34.612119727813052 ] } },
{ "type": "Feature", "properties": { "P29_001": "33202", "P29_002": "H233310000087", "P29_003": "16015", "P29_004": "岡山朝鮮初中級学校", "P29_005": "岡山県倉敷市水島北緑町2-3", "P29_006": "4", "P29_007": "0", "P29_008": "00", "P29_009": null }, "geometry": { "type": "Point", "coordinates": [ 133.745094627681169, 34.548067615276985 ] } },
{ "type": "Feature", "properties": { "P29_001": "33202", "P29_002": "H233310000096", "P29_003": "16015", "P29_004": "菅公学生服家政学園", "P29_005": "岡山県倉敷市児島田の口3-10-25", "P29_006": "4", "P29_007": "0", "P29_008": "00", "P29_009": null }, "geometry": { "type": "Point", "coordinates": [ 133.842307668329966, 34.475109284601132 ] } },
{ "type": "Feature", "properties": { "P29_001": "33204", "P29_002": "H233310000103", "P29_003": "16015", "P29_004": "玉野ドレスメーカー女学院", "P29_005": "岡山県玉野市玉1-16-4", "P29_006": "4", "P29_007": "0", "P29_008": "00", "P29_009": null }, "geometry": { "type": "Point", "coordinates": [ 133.932072419669936, 34.484269477724922 ] } },
{ "type": "Feature", "properties": { "P29_001": "33205", "P29_002": "H233310000121", "P29_003": "16015", "P29_004": "笠岡自動車学校", "P29_005": "岡山県笠岡市十番町1-2", "P29_006": "4", "P29_007": "0", "P29_008": "00", "P29_009": null }, "geometry": { "type": "Point", "coordinates": [ 133.515278177847222, 34.495243053763197 ] } },
{ "type": "Feature", "properties": { "P29_001": "33101", "P29_002": "H233310000130", "P29_003": "16015", "P29_004": "岡山外語学院", "P29_005": "岡山県岡山市北区舟橋町2-10", "P29_006": "4", "P29_007": "0", "P29_008": "00", "P29_009": null }, "geometry": { "type": "Point", "coordinates": [ 133.93008976143895, 34.653710678708293 ] } },
{ "type": "Feature", "properties": { "P29_001": "33216", "P29_002": "H233310000149", "P29_003": "16015", "P29_004": "金光教学院", "P29_005": "岡山県浅口市金光町大谷1486", "P29_006": "4", "P29_007": "0", "P29_008": "00", "P29_009": null }, "geometry": { "type": "Point", "coordinates": [ 133.627523323421372, 34.534647093080785 ] } },
{ "type": "Feature", "properties": { "P29_001": "33202", "P29_002": "H233310000158", "P29_003": "16015", "P29_004": "ＫＵＲＡＦＵＫＵキャリアカレッジ", "P29_005": "岡山県倉敷市連島1-3-21", "P29_006": "4", "P29_007": "0", "P29_008": "00", "P29_009": null }, "geometry": { "type": "Point", "coordinates": [ 133.739284165803042, 34.54439566512972 ] } }
]
}
