{
"type": "FeatureCollection",
"name": "geo_33_短期入所生活介護",
"crs": { "type": "name", "properties": { "name": "urn:ogc:def:crs:OGC:1.3:CRS84" } },
"features": [
{ "type": "Feature", "properties": { "内容": "特別養護老人ホーム津高寮【短期入所生活介護】岡山県岡山市北区津高４３６－１", "url": "https://www.kaigokensaku.mhlw.go.jp/33/index.php?action_kouhyou_detail_004_kani=true&JigyosyoCd=3370102182-00&ServiceCd=210&Type=search", "url2": "http://www.tsudakaryou.jp/" }, "geometry": { "type": "Point", "coordinates": [ 133.908320900000035, 34.7008592 ] } },
{ "type": "Feature", "properties": { "内容": "特別養護老人ホーム　みなみがた荘【短期入所生活介護】岡山県岡山市北区国体町3-12", "url": "https://www.kaigokensaku.mhlw.go.jp/33/index.php?action_kouhyou_detail_004_kani=true&JigyosyoCd=3370101259-00&ServiceCd=210&Type=search", "url2": "http://www.okasaisei-life.jp" }, "geometry": { "type": "Point", "coordinates": [ 133.920442900000012, 34.6734989 ] } },
{ "type": "Feature", "properties": { "内容": "特別養護老人ホーム　つしま苑【短期入所生活介護】岡山県北区津島福居12-13-17", "url": "https://www.kaigokensaku.mhlw.go.jp/33/index.php?action_kouhyou_detail_004_kani=true&JigyosyoCd=3370114369-00&ServiceCd=210&Type=search", "url2": "http://momotarokai.com/" }, "geometry": { "type": "Point", "coordinates": [ 133.917409764695748, 34.691452556502206 ] } },
{ "type": "Feature", "properties": { "内容": "特別養護老人ホーム　想い愛【短期入所生活介護】岡山県岡山市北区楢津418-1", "url": "https://www.kaigokensaku.mhlw.go.jp/33/index.php?action_kouhyou_detail_004_kani=true&JigyosyoCd=3370109146-00&ServiceCd=210&Type=search", "url2": "http://www.okayama-junshinkai.co.jp/aiaikai/index.html" }, "geometry": { "type": "Point", "coordinates": [ 133.885413215930157, 34.679609386477686 ] } },
{ "type": "Feature", "properties": { "内容": "ライフケアももぞの【短期入所生活介護】岡山市北区下足守1627-1", "url": "https://www.kaigokensaku.mhlw.go.jp/33/index.php?action_kouhyou_detail_004_kani=true&JigyosyoCd=3370111480-00&ServiceCd=210&Type=search", "url2": "http://momozonogakuen.jp" }, "geometry": { "type": "Point", "coordinates": [ 133.802639099999965, 34.7134065 ] } },
{ "type": "Feature", "properties": { "内容": "旭川敬老園【短期入所生活介護】岡山県岡山市北区祇園866", "url": "https://www.kaigokensaku.mhlw.go.jp/33/index.php?action_kouhyou_detail_004_kani=true&JigyosyoCd=3370101952-00&ServiceCd=210&Type=search", "url2": "http://www.asahigawasou.or.jp/keirouen/index.html" }, "geometry": { "type": "Point", "coordinates": [ 133.95785879999994, 34.7079489 ] } },
{ "type": "Feature", "properties": { "内容": "介護老人福祉施設　特別養護老人ホーム　岡山シルバーセンター【短期入所生活介護】岡山県岡山市北区新庄上５４５－１", "url": "https://www.kaigokensaku.mhlw.go.jp/33/index.php?action_kouhyou_detail_004_kani=true&JigyosyoCd=3370102083-00&ServiceCd=210&Type=search", "url2": "http://www.silver21.or.jp" }, "geometry": { "type": "Point", "coordinates": [ 133.804960599999959, 34.6816235 ] } },
{ "type": "Feature", "properties": { "内容": "特別養護老人ホーム　憩いの丘【短期入所生活介護】岡山県岡山市北区日近1807", "url": "https://www.kaigokensaku.mhlw.go.jp/33/index.php?action_kouhyou_detail_004_kani=true&JigyosyoCd=3370102158-00&ServiceCd=210&Type=search", "url2": "https://www.okasaisei-life.jp/facility-list/corp-ikoino_oka" }, "geometry": { "type": "Point", "coordinates": [ 133.8179149, 34.7516321 ] } },
{ "type": "Feature", "properties": { "内容": "ショートステイ　さわらび苑【短期入所生活介護】岡山県岡山市北区平野１００５－９", "url": "https://www.kaigokensaku.mhlw.go.jp/33/index.php?action_kouhyou_detail_004_kani=true&JigyosyoCd=3370102224-00&ServiceCd=210&Type=search", "url2": "https://www.fukujukai-gp.com/" }, "geometry": { "type": "Point", "coordinates": [ 133.858217200000013, 34.6473746 ] } },
{ "type": "Feature", "properties": { "内容": "特別養護老人ホーム旭ヶ丘【短期入所生活介護】岡山県岡山市北区万成東町２－２８", "url": "https://www.kaigokensaku.mhlw.go.jp/33/index.php?action_kouhyou_detail_004_kani=true&JigyosyoCd=3370103412-00&ServiceCd=210&Type=search", "url2": "http://junfuku.jp/" }, "geometry": { "type": "Point", "coordinates": [ 133.896290099999987, 34.6739287 ] } },
{ "type": "Feature", "properties": { "内容": "特別養護老人ホームマスカット倶楽部【短期入所生活介護】岡山県岡山市北区田原１－３", "url": "https://www.kaigokensaku.mhlw.go.jp/33/index.php?action_kouhyou_detail_004_kani=true&JigyosyoCd=3370104246-00&ServiceCd=210&Type=search", "url2": "https://www.isto.or.jp/" }, "geometry": { "type": "Point", "coordinates": [ 133.885664099999985, 34.7413918 ] } },
{ "type": "Feature", "properties": { "内容": "泉寿の里　特別養護老人ホーム【短期入所生活介護】岡山県岡山市北区三門中町1-2", "url": "https://www.kaigokensaku.mhlw.go.jp/33/index.php?action_kouhyou_detail_004_kani=true&JigyosyoCd=3370104741-00&ServiceCd=210&Type=search", "url2": "https://senjunosato.or.jp" }, "geometry": { "type": "Point", "coordinates": [ 133.904558800000018, 34.6684657 ] } },
{ "type": "Feature", "properties": { "内容": "特別養護老人ホーム　ぬくもりの里あおえ【短期入所生活介護】岡山県岡山市北区青江三丁目１０番２８号", "url": "https://www.kaigokensaku.mhlw.go.jp/33/index.php?action_kouhyou_detail_004_kani=true&JigyosyoCd=3370107546-00&ServiceCd=210&Type=search", "url2": "http://www.nukumorinosato.jp" }, "geometry": { "type": "Point", "coordinates": [ 133.926471099999958, 34.6341705 ] } },
{ "type": "Feature", "properties": { "内容": "ユニット型地域密着型特別養護老人ホーム　　長春苑【短期入所生活介護】岡山市北区富町２丁目１９－41", "url": "https://www.kaigokensaku.mhlw.go.jp/33/index.php?action_kouhyou_detail_004_kani=true&JigyosyoCd=3370110250-00&ServiceCd=210&Type=search", "url2": "http://tyousyun.kawada.or.jp/index.html" }, "geometry": { "type": "Point", "coordinates": [ 133.907289200000037, 34.6642386 ] } },
{ "type": "Feature", "properties": { "内容": "特別養護老人ホーム　牟佐げんき【短期入所生活介護】岡山市北区牟佐１４７９番地１", "url": "https://www.kaigokensaku.mhlw.go.jp/33/index.php?action_kouhyou_detail_004_kani=true&JigyosyoCd=3370110672-00&ServiceCd=210&Type=search", "url2": "https://okayama-kotobuki.sakura.ne.jp/" }, "geometry": { "type": "Point", "coordinates": [ 133.975962100000061, 34.7244924 ] } },
{ "type": "Feature", "properties": { "内容": "特別養護老人ホーム　宇甘川荘〈ユニット型〉【短期入所生活介護】岡山県岡山市北区御津紙工1410番地", "url": "https://www.kaigokensaku.mhlw.go.jp/33/index.php?action_kouhyou_detail_004_kani=true&JigyosyoCd=3370111464-00&ServiceCd=210&Type=search", "url2": "https://okayama-kotobuki.sakura.ne.jp" }, "geometry": { "type": "Point", "coordinates": [ 133.858040399999936, 34.8192363 ] } },
{ "type": "Feature", "properties": { "内容": "特別養護老人ホーム津高寮（ユニット型）【短期入所生活介護】岡山県岡山市北区津高436-1", "url": "https://www.kaigokensaku.mhlw.go.jp/33/index.php?action_kouhyou_detail_004_kani=true&JigyosyoCd=3370111472-00&ServiceCd=210&Type=search", "url2": "http://www.tsudakaryou.jp/" }, "geometry": { "type": "Point", "coordinates": [ 133.908320900000035, 34.7008592 ] } },
{ "type": "Feature", "properties": { "内容": "特別養護老人ホーム　宇垣荘【短期入所生活介護】岡山県岡山市北区御津宇垣2069-10", "url": "https://www.kaigokensaku.mhlw.go.jp/33/index.php?action_kouhyou_detail_004_kani=true&JigyosyoCd=3370111795-00&ServiceCd=210&Type=search", "url2": "http://www.okayamasaiseikai.or.jp/ugakiso/" }, "geometry": { "type": "Point", "coordinates": [ 133.918598100000054, 34.7805689 ] } },
{ "type": "Feature", "properties": { "内容": "特別養護老人ホーム　よつば園【短期入所生活介護】岡山県岡山市北区吉宗853", "url": "https://www.kaigokensaku.mhlw.go.jp/33/index.php?action_kouhyou_detail_004_kani=true&JigyosyoCd=3370112017-00&ServiceCd=210&Type=search", "url2": "http://yotubaen.com" }, "geometry": { "type": "Point", "coordinates": [ 133.9098679, 34.7306568 ] } },
{ "type": "Feature", "properties": { "内容": "地域密着型特別養護老人ホーム　いきがいライフたかまつ【短期入所生活介護】岡山市北区立田５８６番地1", "url": "https://www.kaigokensaku.mhlw.go.jp/33/index.php?action_kouhyou_detail_004_kani=true&JigyosyoCd=3370112025-00&ServiceCd=210&Type=search", "url2": "http://ikenaga-group.jp/" }, "geometry": { "type": "Point", "coordinates": [ 133.83177360000002, 34.6795324 ] } },
{ "type": "Feature", "properties": { "内容": "丸の内ヒルズ　ショートステイ【短期入所生活介護】岡山県岡山市北区丸の内二丁目1番10号", "url": "https://www.kaigokensaku.mhlw.go.jp/33/index.php?action_kouhyou_detail_004_kani=true&JigyosyoCd=3370112298-00&ServiceCd=210&Type=search", "url2": "http://www.ryobi-hc.jp/" }, "geometry": { "type": "Point", "coordinates": [ 133.933030799999983, 34.665445 ] } },
{ "type": "Feature", "properties": { "内容": "特別養護老人ホーム光生げんき【短期入所生活介護】厚生町３－８－３５", "url": "https://www.kaigokensaku.mhlw.go.jp/33/index.php?action_kouhyou_detail_004_kani=true&JigyosyoCd=3370112413-00&ServiceCd=210&Type=search", "url2": "https://okayama-kotobuki.sakura.ne.jp/new/02facility/kousei.html" }, "geometry": { "type": "Point", "coordinates": [ 133.910753809787053, 34.655680029402369 ] } },
{ "type": "Feature", "properties": { "内容": "喜福の里ショートステイ【短期入所生活介護】岡山県岡山市北区今保18-1", "url": "https://www.kaigokensaku.mhlw.go.jp/33/index.php?action_kouhyou_detail_004_kani=true&JigyosyoCd=3370113460-00&ServiceCd=210&Type=search", "url2": "https://www.fuku-sankeikai.jp/" }, "geometry": { "type": "Point", "coordinates": [ 133.868077399999947, 34.6371928 ] } },
{ "type": "Feature", "properties": { "内容": "葵の園・岡山福渡　短期入所生活介護【短期入所生活介護】岡山県岡山市北区建部町福渡408-1", "url": "https://www.kaigokensaku.mhlw.go.jp/33/index.php?action_kouhyou_detail_004_kani=true&JigyosyoCd=3370113783-00&ServiceCd=210&Type=search", "url2": "http://www.aoikai.jp/fukuwatari/" }, "geometry": { "type": "Point", "coordinates": [ 133.904994242188991, 34.869336930425717 ] } },
{ "type": "Feature", "properties": { "内容": "ショートステイきび庭瀬【短期入所生活介護】岡山県岡山市北区庭瀬１０５４－３", "url": "https://www.kaigokensaku.mhlw.go.jp/33/index.php?action_kouhyou_detail_004_kani=true&JigyosyoCd=3370115143-00&ServiceCd=210&Type=search", "url2": "https://makotokai.okayama.jp" }, "geometry": { "type": "Point", "coordinates": [ 133.854307647915704, 34.639127390287662 ] } },
{ "type": "Feature", "properties": { "内容": "ショートステイたけべ【短期入所生活介護】岡山県岡山市北区建部町建部上557-6", "url": "https://www.kaigokensaku.mhlw.go.jp/33/index.php?action_kouhyou_detail_004_kani=true&JigyosyoCd=3370115416-00&ServiceCd=210&Type=search", "url2": "http://www.hoyukai.co.jp" }, "geometry": { "type": "Point", "coordinates": [ 133.905616968647792, 34.862563850393435 ] } },
{ "type": "Feature", "properties": { "内容": "特別養護老人ホーム　旭水荘【短期入所生活介護】岡山県岡山市北区建部町福渡１００５－１", "url": "https://www.kaigokensaku.mhlw.go.jp/33/index.php?action_kouhyou_detail_004_kani=true&JigyosyoCd=3372100101-00&ServiceCd=210&Type=search", "url2": "http://okayama-airinkai.jp" }, "geometry": { "type": "Point", "coordinates": [ 133.905984699999976, 34.8652123 ] } },
{ "type": "Feature", "properties": { "内容": "特別養護老人ホーム　宇甘川荘〈従来型〉【短期入所生活介護】岡山県岡山市北区御津紙工1410番地", "url": "https://www.kaigokensaku.mhlw.go.jp/33/index.php?action_kouhyou_detail_004_kani=true&JigyosyoCd=3372100143-00&ServiceCd=210&Type=search", "url2": "http://okayama-kotobuki.sakura.ne.jp" }, "geometry": { "type": "Point", "coordinates": [ 133.858040399999936, 34.8192363 ] } },
{ "type": "Feature", "properties": { "内容": "特別養護老人ホーム足守荘【短期入所生活介護】岡山県岡山市北区下足守１８９８", "url": "https://www.kaigokensaku.mhlw.go.jp/33/index.php?action_kouhyou_detail_004_kani=true&JigyosyoCd=3370102109-00&ServiceCd=210&Type=search", "url2": "https://ikenaga-group.jp/" }, "geometry": { "type": "Point", "coordinates": [ 133.803677900000025, 34.7184117 ] } },
{ "type": "Feature", "properties": { "内容": "ショートステイ　あさひ園【短期入所生活介護】岡山県岡山市北区旭本町6-20", "url": "https://www.kaigokensaku.mhlw.go.jp/33/index.php?action_kouhyou_detail_004_kani=true&JigyosyoCd=3370102323-00&ServiceCd=210&Type=search", "url2": "https://suiseikai-group.jp/seioukai/" }, "geometry": { "type": "Point", "coordinates": [ 133.9277707, 34.6423168 ] } },
{ "type": "Feature", "properties": { "内容": "特別養護老人ホーム鹿田の庄【短期入所生活介護】岡山県岡山市北区東古松５丁目５－３", "url": "https://www.kaigokensaku.mhlw.go.jp/33/index.php?action_kouhyou_detail_004_kani=true&JigyosyoCd=3370108601-00&ServiceCd=210&Type=search", "url2": "http://www.midorikai-net.or.jp/" }, "geometry": { "type": "Point", "coordinates": [ 133.918905, 34.6460439 ] } },
{ "type": "Feature", "properties": { "内容": "創心会ポジリハショート大安寺【短期入所生活介護】岡山県岡山市北区日吉町14-3創心会リハケアベース大安寺", "url": "https://www.kaigokensaku.mhlw.go.jp/33/index.php?action_kouhyou_detail_004_kani=true&JigyosyoCd=3370116638-00&ServiceCd=210&Type=search", "url2": "soushinkai.com" }, "geometry": { "type": "Point", "coordinates": [ 133.879309637573272, 34.65602400407397 ] } },
{ "type": "Feature", "properties": { "内容": "特別養護老人ホーム　幸輝園【短期入所生活介護】岡山県岡山市中区国府市場985-1", "url": "https://www.kaigokensaku.mhlw.go.jp/33/index.php?action_kouhyou_detail_004_kani=true&JigyosyoCd=3370102141-00&ServiceCd=210&Type=search", "url2": "http://www.fukushi-koukikai.jp/" }, "geometry": { "type": "Point", "coordinates": [ 133.964980299999979, 34.6938092 ] } },
{ "type": "Feature", "properties": { "内容": "特別養護老人ホーム恵風荘【短期入所生活介護】岡山県岡山市中区今谷770-1", "url": "https://www.kaigokensaku.mhlw.go.jp/33/index.php?action_kouhyou_detail_004_kani=true&JigyosyoCd=3370102174-00&ServiceCd=210&Type=search", "url2": "http://www.keifuukai.or.jp/" }, "geometry": { "type": "Point", "coordinates": [ 133.983933699999966, 34.6667851 ] } },
{ "type": "Feature", "properties": { "内容": "特別養護老人ホーム富山荘【短期入所生活介護】岡山県岡山市中区海吉2306-1", "url": "https://www.kaigokensaku.mhlw.go.jp/33/index.php?action_kouhyou_detail_004_kani=true&JigyosyoCd=3370107413-00&ServiceCd=210&Type=search", "url2": "https://tomiyamaso2020.wixsite.com/my-site" }, "geometry": { "type": "Point", "coordinates": [ 133.982687599999963, 34.6475734 ] } },
{ "type": "Feature", "properties": { "内容": "エルダーホーム高島【短期入所生活介護】岡山県岡山市中区高島新屋敷３９５－１", "url": "https://www.kaigokensaku.mhlw.go.jp/33/index.php?action_kouhyou_detail_004_kani=true&JigyosyoCd=3370107967-00&ServiceCd=210&Type=search", "url2": "http://www.takufukai-group.or.jp" }, "geometry": { "type": "Point", "coordinates": [ 133.951215100000013, 34.6851406 ] } },
{ "type": "Feature", "properties": { "内容": "特別養護老人ホームおもいやり【短期入所生活介護】岡山県岡山市中区平井１２６０番１", "url": "https://www.kaigokensaku.mhlw.go.jp/33/index.php?action_kouhyou_detail_004_kani=true&JigyosyoCd=3370109138-00&ServiceCd=210&Type=search", "url2": "https://okayama-kotobuki.sakura.ne.jp/" }, "geometry": { "type": "Point", "coordinates": [ 133.9524768, 34.6268083 ] } },
{ "type": "Feature", "properties": { "内容": "さつき園【短期入所生活介護】岡山県岡山市中区乙多見１４７－１", "url": "https://www.kaigokensaku.mhlw.go.jp/33/index.php?action_kouhyou_detail_004_kani=true&JigyosyoCd=3370110151-00&ServiceCd=210&Type=search", "url2": "http://www.fukushi-koukikai.jp/" }, "geometry": { "type": "Point", "coordinates": [ 133.9761512, 34.6799446 ] } },
{ "type": "Feature", "properties": { "内容": "岡山ケアセンター両備サン・オークス【短期入所生活介護】岡山県岡山市中区森下町5番5号", "url": "https://www.kaigokensaku.mhlw.go.jp/33/index.php?action_kouhyou_detail_004_kani=true&JigyosyoCd=3370110581-00&ServiceCd=210&Type=search", "url2": "http://www.ryobi-hc.jp" }, "geometry": { "type": "Point", "coordinates": [ 133.942024400000037, 34.6626125 ] } },
{ "type": "Feature", "properties": { "内容": "短期入所生活介護　いこいの里【短期入所生活介護】岡山市中区祇園541-1", "url": "https://www.kaigokensaku.mhlw.go.jp/33/index.php?action_kouhyou_detail_004_kani=true&JigyosyoCd=3370111837-00&ServiceCd=210&Type=search", "url2": "https://www.takufukai-group.or.jp/syoyukai.html" }, "geometry": { "type": "Point", "coordinates": [ 133.955473100000063, 34.6981639 ] } },
{ "type": "Feature", "properties": { "内容": "ショートステイ　いやしの杜【短期入所生活介護】岡山県岡山市中区海吉1447番地7", "url": "https://www.kaigokensaku.mhlw.go.jp/33/index.php?action_kouhyou_detail_004_kani=true&JigyosyoCd=3370114153-00&ServiceCd=210&Type=search", "url2": "http://kojinkai.net/" }, "geometry": { "type": "Point", "coordinates": [ 133.9896315879746, 34.660797879263072 ] } },
{ "type": "Feature", "properties": { "内容": "社会福祉法人　岡山博愛会　特別養護老人ホーム　アダムスホーム【短期入所生活介護】岡山県岡山市中区沖元502", "url": "https://www.kaigokensaku.mhlw.go.jp/33/index.php?action_kouhyou_detail_004_kani=true&JigyosyoCd=3370103172-00&ServiceCd=210&Type=search", "url2": "http://www.okayama-hakuaikai.or.jp/" }, "geometry": { "type": "Point", "coordinates": [ 133.977030099999979, 34.6372022 ] } },
{ "type": "Feature", "properties": { "内容": "ショートステイケアポート生き活き館原尾島【短期入所生活介護】岡山市中区東川原361番1", "url": "https://www.kaigokensaku.mhlw.go.jp/33/index.php?action_kouhyou_detail_004_kani=true&JigyosyoCd=3370110334-00&ServiceCd=210&Type=search", "url2": "http://kokoro-net.org" }, "geometry": { "type": "Point", "coordinates": [ 133.9491653, 34.6748309 ] } },
{ "type": "Feature", "properties": { "内容": "笑福亭【短期入所生活介護】岡山市中区桑野５２５番１２５", "url": "https://www.kaigokensaku.mhlw.go.jp/33/index.php?action_kouhyou_detail_004_kani=true&JigyosyoCd=3370111803-00&ServiceCd=210&Type=search", "url2": "http://dojinkai-nozomi.jp" }, "geometry": { "type": "Point", "coordinates": [ 133.979397964279201, 34.612971214957966 ] } },
{ "type": "Feature", "properties": { "内容": "特別養護老人ホーム　穂香の里【短期入所生活介護】岡山県岡山市東区豊田300-1", "url": "https://www.kaigokensaku.mhlw.go.jp/33/index.php?action_kouhyou_detail_004_kani=true&JigyosyoCd=3370109401-00&ServiceCd=210&Type=search", "url2": "https://www.chuo-fukushikai.jp" }, "geometry": { "type": "Point", "coordinates": [ 134.015825575393706, 34.614570738196861 ] } },
{ "type": "Feature", "properties": { "内容": "特別養護老人ホーム阿知の里（短期入所生活介護）【短期入所生活介護】岡山県岡山市東区下阿知１１８０番地", "url": "https://www.kaigokensaku.mhlw.go.jp/33/index.php?action_kouhyou_detail_004_kani=true&JigyosyoCd=3370101317-00&ServiceCd=210&Type=search", "url2": "http://c-oka.org/" }, "geometry": { "type": "Point", "coordinates": [ 134.093937699999969, 34.6256236 ] } },
{ "type": "Feature", "properties": { "内容": "特別養護老人ホーム　ハモニカ【短期入所生活介護】岡山県岡山市東区浅川520番地の9", "url": "https://www.kaigokensaku.mhlw.go.jp/33/index.php?action_kouhyou_detail_004_kani=true&JigyosyoCd=3370101945-00&ServiceCd=210&Type=search", "url2": "http://www.hamonika.com" }, "geometry": { "type": "Point", "coordinates": [ 134.069689199999971, 34.7091854 ] } },
{ "type": "Feature", "properties": { "内容": "特別養護老人ホーム　中野けんせいえん【短期入所生活介護】岡山県岡山市東区西大寺中野677-1", "url": "https://www.kaigokensaku.mhlw.go.jp/33/index.php?action_kouhyou_detail_004_kani=true&JigyosyoCd=3370102000-00&ServiceCd=210&Type=search", "url2": "https://www.chuo-fukushikai.jp/facility/nakano-kenseien/" }, "geometry": { "type": "Point", "coordinates": [ 134.020759938006563, 34.650617171852474 ] } },
{ "type": "Feature", "properties": { "内容": "特別養護老人ホーム　上道荘【短期入所生活介護】岡山県岡山市東区中尾１０３６", "url": "https://www.kaigokensaku.mhlw.go.jp/33/index.php?action_kouhyou_detail_004_kani=true&JigyosyoCd=3370102216-00&ServiceCd=210&Type=search", "url2": "http://dainimakotokai.com/" }, "geometry": { "type": "Point", "coordinates": [ 134.021793800000069, 34.70766 ] } },
{ "type": "Feature", "properties": { "内容": "特別養護老人ホーム　グリーン・コム【短期入所生活介護】岡山県岡山市東区宿毛748－1", "url": "https://www.kaigokensaku.mhlw.go.jp/33/index.php?action_kouhyou_detail_004_kani=true&JigyosyoCd=3370104576-00&ServiceCd=210&Type=search", "url2": "https://www.yunagi.jp/pages/60/" }, "geometry": { "type": "Point", "coordinates": [ 134.083305399999972, 34.6246235 ] } },
{ "type": "Feature", "properties": { "内容": "特別養護老人ホーム　けしごの里【短期入所生活介護】岡山県岡山市東区中川町211-3", "url": "https://www.kaigokensaku.mhlw.go.jp/33/index.php?action_kouhyou_detail_004_kani=true&JigyosyoCd=3370105649-00&ServiceCd=210&Type=search", "url2": "http://keshigonosato.jp" }, "geometry": { "type": "Point", "coordinates": [ 133.998049101852416, 34.667674349446195 ] } },
{ "type": "Feature", "properties": { "内容": "特別養護老人ホーム　せとうちの郷【短期入所生活介護】岡山県岡山市東区西大寺北９６６", "url": "https://www.kaigokensaku.mhlw.go.jp/33/index.php?action_kouhyou_detail_004_kani=true&JigyosyoCd=3370114351-00&ServiceCd=210&Type=search", "url2": "http://www.tohkakai.jp/" }, "geometry": { "type": "Point", "coordinates": [ 134.039952295411013, 34.663124840036801 ] } },
{ "type": "Feature", "properties": { "内容": "地域密着型特別養護老人ホーム　あお鳩の杜　岡山東【短期入所生活介護】岡山県岡山市東区瀬戸町鍛冶屋190番地", "url": "https://www.kaigokensaku.mhlw.go.jp/33/index.php?action_kouhyou_detail_004_kani=true&JigyosyoCd=3370116372-00&ServiceCd=210&Type=search", "url2": "http://poppo-kai.or.jp" }, "geometry": { "type": "Point", "coordinates": [ 134.0651235, 34.773042 ] } },
{ "type": "Feature", "properties": { "内容": "多聞荘ショートステイセンター【短期入所生活介護】岡山県岡山市東区瀬戸町坂根792-14", "url": "https://www.kaigokensaku.mhlw.go.jp/33/index.php?action_kouhyou_detail_004_kani=true&JigyosyoCd=3372200448-00&ServiceCd=210&Type=search", "url2": "http://www.tensetsukai.or.jp" }, "geometry": { "type": "Point", "coordinates": [ 134.0586293, 34.7400628 ] } },
{ "type": "Feature", "properties": { "内容": "ショートステイ　みよしの里【短期入所生活介護】岡山県岡山市東区中川町835-1", "url": "https://www.kaigokensaku.mhlw.go.jp/33/index.php?action_kouhyou_detail_004_kani=true&JigyosyoCd=3370115226-00&ServiceCd=210&Type=search", "url2": "http://www.itsuhakai.jp" }, "geometry": { "type": "Point", "coordinates": [ 133.9900582, 34.6659591 ] } },
{ "type": "Feature", "properties": { "内容": "介護施設みどり乃杜【短期入所生活介護】北浦121", "url": "https://www.kaigokensaku.mhlw.go.jp/33/index.php?action_kouhyou_detail_004_kani=true&JigyosyoCd=3370113478-00&ServiceCd=210&Type=search", "url2": "http://www.midorikai-net.or.jp/midorinomori/index.html" }, "geometry": { "type": "Point", "coordinates": [ 133.963324899999975, 34.5868579 ] } },
{ "type": "Feature", "properties": { "内容": "ピオーネ倶楽部【短期入所生活介護】岡山県岡山市南区当新田485-25", "url": "https://www.kaigokensaku.mhlw.go.jp/33/index.php?action_kouhyou_detail_004_kani=true&JigyosyoCd=3370108445-00&ServiceCd=210&Type=search", "url2": "http://www.isto.or.jp/pioneclub.html" }, "geometry": { "type": "Point", "coordinates": [ 133.891144700000041, 34.6237763 ] } },
{ "type": "Feature", "properties": { "内容": "岡山福成ケアセンターそよ風【短期入所生活介護】岡山県岡山市南区福成1丁目161－10", "url": "https://www.kaigokensaku.mhlw.go.jp/33/index.php?action_kouhyou_detail_004_kani=true&JigyosyoCd=3370116729-00&ServiceCd=210&Type=search", "url2": "https://www.sykz.co.jp/map/search?pref_name=%E5%B2%A1%E5%B1%B1%E7%9C%8C" }, "geometry": { "type": "Point", "coordinates": [ 133.932364428033452, 34.616598367162439 ] } },
{ "type": "Feature", "properties": { "内容": "特別養護老人ホーム共生苑【短期入所生活介護】岡山県岡山市南区東畦768", "url": "https://www.kaigokensaku.mhlw.go.jp/33/index.php?action_kouhyou_detail_004_kani=true&JigyosyoCd=3370101101-00&ServiceCd=210&Type=search", "url2": "http://www.keiyuu-kai.or.jp/top.html" }, "geometry": { "type": "Point", "coordinates": [ 133.881339900000057, 34.6044116 ] } },
{ "type": "Feature", "properties": { "内容": "特別養護老人ホーム　若宮園【短期入所生活介護】岡山県岡山市南区箕島3491-7", "url": "https://www.kaigokensaku.mhlw.go.jp/33/index.php?action_kouhyou_detail_004_kani=true&JigyosyoCd=3370102166-00&ServiceCd=210&Type=search", "url2": "http://junfuku.jp/" }, "geometry": { "type": "Point", "coordinates": [ 133.836727154106171, 34.615446023791939 ] } },
{ "type": "Feature", "properties": { "内容": "特別養護老人ホーム　愛光苑【短期入所生活介護】岡山県岡山市南区浦安本町81-2", "url": "https://www.kaigokensaku.mhlw.go.jp/33/index.php?action_kouhyou_detail_004_kani=true&JigyosyoCd=3370102208-00&ServiceCd=210&Type=search", "url2": "https://aiko-en.jp/" }, "geometry": { "type": "Point", "coordinates": [ 133.930146, 34.6069683 ] } },
{ "type": "Feature", "properties": { "内容": "特別養護老人ホームうららか短期入所生活介護【短期入所生活介護】岡山市南区福富東1-7-43", "url": "https://www.kaigokensaku.mhlw.go.jp/33/index.php?action_kouhyou_detail_004_kani=true&JigyosyoCd=3370102240-00&ServiceCd=210&Type=search", "url2": "https://www.sato-hp.com" }, "geometry": { "type": "Point", "coordinates": [ 133.939167200000043, 34.6229361 ] } },
{ "type": "Feature", "properties": { "内容": "特別養護老人ホーム　健老園【短期入所生活介護】岡山県岡山市南区古新田1351-3", "url": "https://www.kaigokensaku.mhlw.go.jp/33/index.php?action_kouhyou_detail_004_kani=true&JigyosyoCd=3370106191-00&ServiceCd=210&Type=search", "url2": "http://kenrokai.net/" }, "geometry": { "type": "Point", "coordinates": [ 133.876115499999969, 34.6247921 ] } },
{ "type": "Feature", "properties": { "内容": "藤田荘短期入所生活介護事業所【短期入所生活介護】岡山県岡山市南区藤田2662番地2", "url": "https://www.kaigokensaku.mhlw.go.jp/33/index.php?action_kouhyou_detail_004_kani=true&JigyosyoCd=3370108916-00&ServiceCd=210&Type=search", "url2": "http://www8.ocn.ne.jp/^fujitaso/map.html" }, "geometry": { "type": "Point", "coordinates": [ 133.868575599999986, 34.5615406 ] } },
{ "type": "Feature", "properties": { "内容": "特別養護老人ホームけやき【短期入所生活介護】岡山市南区築港元町2-31", "url": "https://www.kaigokensaku.mhlw.go.jp/33/index.php?action_kouhyou_detail_004_kani=true&JigyosyoCd=3370109856-00&ServiceCd=210&Type=search", "url2": "https://sato-hp.com" }, "geometry": { "type": "Point", "coordinates": [ 133.9491531, 34.6075161 ] } },
{ "type": "Feature", "properties": { "内容": "特別養護老人ホーム敬愛【短期入所生活介護】岡山市南区福田480－5", "url": "https://www.kaigokensaku.mhlw.go.jp/33/index.php?action_kouhyou_detail_004_kani=true&JigyosyoCd=3370110425-00&ServiceCd=210&Type=search", "url2": "http://keiaigroup.com" }, "geometry": { "type": "Point", "coordinates": [ 133.920880099999977, 34.6181889 ] } },
{ "type": "Feature", "properties": { "内容": "特別養護老人ホーム　あずみ【短期入所生活介護】岡山市南区中畦443-4", "url": "https://www.kaigokensaku.mhlw.go.jp/33/index.php?action_kouhyou_detail_004_kani=true&JigyosyoCd=3370111811-00&ServiceCd=210&Type=search", "url2": "https://meiseikai-azumi.jp" }, "geometry": { "type": "Point", "coordinates": [ 133.854375962565626, 34.579951815910078 ] } },
{ "type": "Feature", "properties": { "内容": "岡山ケアセンターそよ風【短期入所生活介護】岡山県岡山市南区米倉43-13", "url": "https://www.kaigokensaku.mhlw.go.jp/33/index.php?action_kouhyou_detail_004_kani=true&JigyosyoCd=3370113015-00&ServiceCd=210&Type=search", "url2": "https://corp.sykz.co.jp/" }, "geometry": { "type": "Point", "coordinates": [ 133.893858300000062, 34.628150800000029 ] } },
{ "type": "Feature", "properties": { "内容": "特別養護老人ホーム　若宮の杜【短期入所生活介護】岡山県岡山市南区箕島3491-6", "url": "https://www.kaigokensaku.mhlw.go.jp/33/index.php?action_kouhyou_detail_004_kani=true&JigyosyoCd=3370113536-00&ServiceCd=210&Type=search", "url2": "http://junfuku.jp/" }, "geometry": { "type": "Point", "coordinates": [ 133.836195248626751, 34.614896871004575 ] } },
{ "type": "Feature", "properties": { "内容": "ピオーネ当新田【短期入所生活介護】岡山県岡山市南区当新田482-51", "url": "https://www.kaigokensaku.mhlw.go.jp/33/index.php?action_kouhyou_detail_004_kani=true&JigyosyoCd=3370114187-00&ServiceCd=210&Type=search", "url2": "http://www.isto.or.jp" }, "geometry": { "type": "Point", "coordinates": [ 133.896708519157386, 34.622302157674781 ] } },
{ "type": "Feature", "properties": { "内容": "特別養護老人ホーム古新田げんき【短期入所生活介護】岡山県岡山市南区古新田796-1", "url": "https://www.kaigokensaku.mhlw.go.jp/33/index.php?action_kouhyou_detail_004_kani=true&JigyosyoCd=3370115325-00&ServiceCd=210&Type=search", "url2": "http://okayama-kotobuki.sakura.ne.jp/koshinden/index.htm" }, "geometry": { "type": "Point", "coordinates": [ 133.872130708488839, 34.628920926048124 ] } },
{ "type": "Feature", "properties": { "内容": "特別養護老人ホーム　灘崎荘【短期入所生活介護】岡山県岡山市南区彦崎2300", "url": "https://www.kaigokensaku.mhlw.go.jp/33/index.php?action_kouhyou_detail_004_kani=true&JigyosyoCd=3372500060-00&ServiceCd=210&Type=search", "url2": "http://nadasakiso.syoyokai.com/" }, "geometry": { "type": "Point", "coordinates": [ 133.83388130000003, 34.5447921 ] } },
{ "type": "Feature", "properties": { "内容": "宮浦荘（介護予防）短期入所生活介護事業所【短期入所生活介護】宮浦209番地1", "url": "https://www.kaigokensaku.mhlw.go.jp/33/index.php?action_kouhyou_detail_004_kani=true&JigyosyoCd=3370115788-00&ServiceCd=210&Type=search", "url2": null }, "geometry": { "type": "Point", "coordinates": [ 133.981528, 34.593175 ] } },
{ "type": "Feature", "properties": { "内容": "特別養護老人ホームプルミエ岡山【短期入所生活介護】岡山県岡山市南区北浦１００番地", "url": "https://www.kaigokensaku.mhlw.go.jp/33/index.php?action_kouhyou_detail_004_kani=true&JigyosyoCd=3370102232-00&ServiceCd=210&Type=search", "url2": "http://suiseikai-group.jp/" }, "geometry": { "type": "Point", "coordinates": [ 133.963036, 34.5871411 ] } },
{ "type": "Feature", "properties": { "内容": "特別養護老人ホーム天赦の里【短期入所生活介護】岡山県岡山市南区福浜町19番17号", "url": "https://www.kaigokensaku.mhlw.go.jp/33/index.php?action_kouhyou_detail_004_kani=true&JigyosyoCd=3370110953-00&ServiceCd=210&Type=search", "url2": "http://www.midorikai-net.or.jp/tensyanosato/" }, "geometry": { "type": "Point", "coordinates": [ 133.943816800000036, 34.6196228 ] } },
{ "type": "Feature", "properties": { "内容": "浮洲園【短期入所生活介護】岡山県倉敷市粒江２５００－１", "url": "https://www.kaigokensaku.mhlw.go.jp/33/index.php?action_kouhyou_detail_004_kani=true&JigyosyoCd=3370207254-00&ServiceCd=210&Type=search", "url2": "http://www.ukisuen.com" }, "geometry": { "type": "Point", "coordinates": [ 133.803044099999966, 34.5617664 ] } },
{ "type": "Feature", "properties": { "内容": "特別養護老人ホーム　庄の里（新館）【短期入所生活介護】山地1297番地", "url": "https://www.kaigokensaku.mhlw.go.jp/33/index.php?action_kouhyou_detail_004_kani=true&JigyosyoCd=3370209078-00&ServiceCd=210&Type=search", "url2": "http://www.syounosato.or.jp/" }, "geometry": { "type": "Point", "coordinates": [ 133.81566, 34.65124 ] } },
{ "type": "Feature", "properties": { "内容": "地域密着型特別養護老人ホーム　ひかりの里【短期入所生活介護】倉敷市玉島八島70番地1", "url": "https://www.kaigokensaku.mhlw.go.jp/33/index.php?action_kouhyou_detail_004_kani=true&JigyosyoCd=3370208260-00&ServiceCd=210&Type=search", "url2": "http://www.onkochishinkai.or.jp/" }, "geometry": { "type": "Point", "coordinates": [ 133.663584899999933, 34.5572206 ] } },
{ "type": "Feature", "properties": { "内容": "特別養護老人ホーム　サンバードナーシングホーム【短期入所生活介護】岡山県倉敷市藤戸町藤戸1585-1", "url": "https://www.kaigokensaku.mhlw.go.jp/33/index.php?action_kouhyou_detail_004_kani=true&JigyosyoCd=3370200820-00&ServiceCd=210&Type=search", "url2": "http://www.fukujyu.or.jp" }, "geometry": { "type": "Point", "coordinates": [ 133.823037399999947, 34.5582286 ] } },
{ "type": "Feature", "properties": { "内容": "特別養護老人ホーム碧山荘【短期入所生活介護】岡山県倉敷市林1140", "url": "https://www.kaigokensaku.mhlw.go.jp/33/index.php?action_kouhyou_detail_004_kani=true&JigyosyoCd=3370205175-00&ServiceCd=210&Type=search", "url2": "https://碧山荘.com/" }, "geometry": { "type": "Point", "coordinates": [ 133.816821800000071, 34.5310715 ] } },
{ "type": "Feature", "properties": { "内容": "ショートステイあいの泉【短期入所生活介護】岡山県倉敷市玉島1720-18", "url": "https://www.kaigokensaku.mhlw.go.jp/33/index.php?action_kouhyou_detail_004_kani=true&JigyosyoCd=3370206231-00&ServiceCd=210&Type=search", "url2": "http://www.sinkura-hsp.com/" }, "geometry": { "type": "Point", "coordinates": [ 133.681281848471031, 34.554876476470099 ] } },
{ "type": "Feature", "properties": { "内容": "特別養護老人ホーム倉敷シルバーセンター【短期入所生活介護】岡山県倉敷市児島柳田町355-1", "url": "https://www.kaigokensaku.mhlw.go.jp/33/index.php?action_kouhyou_detail_004_kani=true&JigyosyoCd=3370201141-00&ServiceCd=210&Type=search", "url2": "http://www.silver21.or.jp/" }, "geometry": { "type": "Point", "coordinates": [ 133.789404200000035, 34.4948907 ] } },
{ "type": "Feature", "properties": { "内容": "ベネヴィータ王慈ショートステイセンター【短期入所生活介護】児島田の口7-6-39", "url": "https://www.kaigokensaku.mhlw.go.jp/33/index.php?action_kouhyou_detail_004_kani=true&JigyosyoCd=3370207734-00&ServiceCd=210&Type=search", "url2": "http//www.ohji.ne.jp" }, "geometry": { "type": "Point", "coordinates": [ 133.8395908, 34.4716922 ] } },
{ "type": "Feature", "properties": { "内容": "特別養護老人ホーム浅原桃花園【短期入所生活介護】岡山県倉敷市浅原３８０番地２", "url": "https://www.kaigokensaku.mhlw.go.jp/33/index.php?action_kouhyou_detail_004_kani=true&JigyosyoCd=3370201166-00&ServiceCd=210&Type=search", "url2": "http://www.asabaratoukaen.com/" }, "geometry": { "type": "Point", "coordinates": [ 133.76860320000003, 34.6272707 ] } },
{ "type": "Feature", "properties": { "内容": "短期入所生活介護ショートステイあんど【短期入所生活介護】岡山県倉敷市真備町川辺2000番地1", "url": "https://www.kaigokensaku.mhlw.go.jp/33/index.php?action_kouhyou_detail_004_kani=true&JigyosyoCd=3370208039-00&ServiceCd=210&Type=search", "url2": "http://mkh.or.jp/" }, "geometry": { "type": "Point", "coordinates": [ 133.710012022090154, 34.637896363997726 ] } },
{ "type": "Feature", "properties": { "内容": "ショートスティ　秀明荘【短期入所生活介護】岡山県倉敷市玉島中央町1-4-8", "url": "https://www.kaigokensaku.mhlw.go.jp/33/index.php?action_kouhyou_detail_004_kani=true&JigyosyoCd=3370208369-00&ServiceCd=210&Type=search", "url2": "http://www.tamashima-ch.or.jp/shumei/" }, "geometry": { "type": "Point", "coordinates": [ 133.6729166, 34.5465058 ] } },
{ "type": "Feature", "properties": { "内容": "シルバーセンター後楽【短期入所生活介護】岡山県倉敷市真備町箭田２１５９番地", "url": "https://www.kaigokensaku.mhlw.go.jp/33/index.php?action_kouhyou_detail_004_kani=true&JigyosyoCd=3373000037-00&ServiceCd=210&Type=search", "url2": "http://www.kouraku.or.jp/" }, "geometry": { "type": "Point", "coordinates": [ 133.6859518, 34.6408713 ] } },
{ "type": "Feature", "properties": { "内容": "特別養護老人ホーム　アミカル【短期入所生活介護】岡山県倉敷市玉島1275番地1", "url": "https://www.kaigokensaku.mhlw.go.jp/33/index.php?action_kouhyou_detail_004_kani=true&JigyosyoCd=3370201034-00&ServiceCd=210&Type=search", "url2": "http://www.amical.or.jp/" }, "geometry": { "type": "Point", "coordinates": [ 133.6836237, 34.548875 ] } },
{ "type": "Feature", "properties": { "内容": "短期入所生活介護ながわりの華【短期入所生活介護】岡山県倉敷市玉島3075", "url": "https://www.kaigokensaku.mhlw.go.jp/33/index.php?action_kouhyou_detail_004_kani=true&JigyosyoCd=3370207353-00&ServiceCd=210&Type=search", "url2": "http://www.amical.or.jp/" }, "geometry": { "type": "Point", "coordinates": [ 133.686270757238731, 34.55063946322219 ] } },
{ "type": "Feature", "properties": { "内容": "短期入所生活介護アミカル【短期入所生活介護】岡山県倉敷市玉島1275番地1", "url": "https://www.kaigokensaku.mhlw.go.jp/33/index.php?action_kouhyou_detail_004_kani=true&JigyosyoCd=3370207221-00&ServiceCd=210&Type=search", "url2": "http://www.amical.or.jp/" }, "geometry": { "type": "Point", "coordinates": [ 133.6836237, 34.548875 ] } },
{ "type": "Feature", "properties": { "内容": "ユニット型指定介護予防短期入所生活介護　ショートステイ桃のかおり【短期入所生活介護】岡山県倉敷市玉島道口85番地", "url": "https://www.kaigokensaku.mhlw.go.jp/33/index.php?action_kouhyou_detail_004_kani=true&JigyosyoCd=3370206611-00&ServiceCd=210&Type=search", "url2": "http://www.tomicare.com" }, "geometry": { "type": "Point", "coordinates": [ 133.653868200000034, 34.563321 ] } },
{ "type": "Feature", "properties": { "内容": "ショートステイ庄の里「なごやか」【短期入所生活介護】岡山県倉敷市生坂698", "url": "https://www.kaigokensaku.mhlw.go.jp/33/index.php?action_kouhyou_detail_004_kani=true&JigyosyoCd=3370207833-00&ServiceCd=210&Type=search", "url2": "http://www.syounosato.or.jp/" }, "geometry": { "type": "Point", "coordinates": [ 133.789472470591704, 34.622332124592063 ] } },
{ "type": "Feature", "properties": { "内容": "ショートステイ　グリーンピア瀬戸内【短期入所生活介護】岡山県倉敷市玉島陶８５６－１", "url": "https://www.kaigokensaku.mhlw.go.jp/33/index.php?action_kouhyou_detail_004_kani=true&JigyosyoCd=3370201349-00&ServiceCd=210&Type=search", "url2": "http://www.setouchifukushi.jp/greenpia/" }, "geometry": { "type": "Point", "coordinates": [ 133.676196, 34.5872632 ] } },
{ "type": "Feature", "properties": { "内容": "特別養護老人ホーム　のぞみ荘【短期入所生活介護】岡山県倉敷市福田町福田２３４－１", "url": "https://www.kaigokensaku.mhlw.go.jp/33/index.php?action_kouhyou_detail_004_kani=true&JigyosyoCd=3370201216-00&ServiceCd=210&Type=search", "url2": "http://www.jpk.or.jp" }, "geometry": { "type": "Point", "coordinates": [ 133.775193599999966, 34.5390273 ] } },
{ "type": "Feature", "properties": { "内容": "浮洲園【短期入所生活介護】岡山県倉敷市粒江２５００－１", "url": "https://www.kaigokensaku.mhlw.go.jp/33/index.php?action_kouhyou_detail_004_kani=true&JigyosyoCd=3370200978-00&ServiceCd=210&Type=search", "url2": "http://www.ukisuen.com" }, "geometry": { "type": "Point", "coordinates": [ 133.803044099999966, 34.5617664 ] } },
{ "type": "Feature", "properties": { "内容": "特別養護老人ホームますみ荘【短期入所生活介護】岡山県倉敷市中島８３７－５", "url": "https://www.kaigokensaku.mhlw.go.jp/33/index.php?action_kouhyou_detail_004_kani=true&JigyosyoCd=3370201117-00&ServiceCd=210&Type=search", "url2": "https://masumikai.or.jp" }, "geometry": { "type": "Point", "coordinates": [ 133.739892300000065, 34.5784279 ] } },
{ "type": "Feature", "properties": { "内容": "うらたの里短期入所生活介護【短期入所生活介護】岡山県倉敷市浦田1533番地2", "url": "https://www.kaigokensaku.mhlw.go.jp/33/index.php?action_kouhyou_detail_004_kani=true&JigyosyoCd=3370206496-00&ServiceCd=210&Type=search", "url2": "http://nijinosato-kurashiki.com/" }, "geometry": { "type": "Point", "coordinates": [ 133.765399, 34.565598700000024 ] } },
{ "type": "Feature", "properties": { "内容": "地域密着型特別養護老人ホームくらしき里桜【短期入所生活介護】岡山県倉敷市中帯江400地域密着型特別養護老人ホームくらしき里桜", "url": "https://www.kaigokensaku.mhlw.go.jp/33/index.php?action_kouhyou_detail_004_kani=true&JigyosyoCd=3370209029-00&ServiceCd=210&Type=search", "url2": "hyyps://kiryukai.com/" }, "geometry": { "type": "Point", "coordinates": [ 133.801607100000012, 34.5999236 ] } },
{ "type": "Feature", "properties": { "内容": "クレールエステート悠楽【短期入所生活介護】岡山県倉敷市真備町有井1472", "url": "https://www.kaigokensaku.mhlw.go.jp/33/index.php?action_kouhyou_detail_004_kani=true&JigyosyoCd=3370207395-00&ServiceCd=210&Type=search", "url2": "http://www.kouraku.or.jp/" }, "geometry": { "type": "Point", "coordinates": [ 133.702678974560541, 34.636183894995035 ] } },
{ "type": "Feature", "properties": { "内容": "特別養護老人ホームショートステイくらしき【短期入所生活介護】倉敷市亀山７８０－２", "url": "https://www.kaigokensaku.mhlw.go.jp/33/index.php?action_kouhyou_detail_004_kani=true&JigyosyoCd=3370206439-00&ServiceCd=210&Type=search", "url2": "http://kiryukai.com/" }, "geometry": { "type": "Point", "coordinates": [ 133.802436561346411, 34.589312977105038 ] } },
{ "type": "Feature", "properties": { "内容": "ショート・ステイ　あいわ【短期入所生活介護】倉敷市児島稗田町５１７－１", "url": "https://www.kaigokensaku.mhlw.go.jp/33/index.php?action_kouhyou_detail_004_kani=true&JigyosyoCd=3370205977-00&ServiceCd=210&Type=search", "url2": "http://www.npo-aiwa.org/" }, "geometry": { "type": "Point", "coordinates": [ 133.803103299999947, 34.4927188 ] } },
{ "type": "Feature", "properties": { "内容": "あすなろ園ショートステイサービス【短期入所生活介護】岡山県倉敷市玉島勇崎1044", "url": "https://www.kaigokensaku.mhlw.go.jp/33/index.php?action_kouhyou_detail_004_kani=true&JigyosyoCd=3370201679-00&ServiceCd=210&Type=search", "url2": "http://www.asunaro.or.jp" }, "geometry": { "type": "Point", "coordinates": [ 133.649838899999963, 34.5187144 ] } },
{ "type": "Feature", "properties": { "内容": "ショートステイ　みずしま【短期入所生活介護】倉敷市水島北幸町4番5号", "url": "https://www.kaigokensaku.mhlw.go.jp/33/index.php?action_kouhyou_detail_004_kani=true&JigyosyoCd=3370205803-00&ServiceCd=210&Type=search", "url2": "http://suiseikai-group.jp/kunpukai/" }, "geometry": { "type": "Point", "coordinates": [ 133.73960169999998, 34.5412761 ] } },
{ "type": "Feature", "properties": { "内容": "ピースガーデン倉敷ショートステイ【短期入所生活介護】倉敷市白楽町40ピースガーデン倉敷3階", "url": "https://www.kaigokensaku.mhlw.go.jp/33/index.php?action_kouhyou_detail_004_kani=true&JigyosyoCd=3370206678-00&ServiceCd=210&Type=search", "url2": "URL:http://sw--zenjinkai.jp/" }, "geometry": { "type": "Point", "coordinates": [ 133.764987099999985, 34.5907518 ] } },
{ "type": "Feature", "properties": { "内容": "ショートステイかたしま【短期入所生活介護】岡山県倉敷市片島町1057番地1", "url": "https://www.kaigokensaku.mhlw.go.jp/33/index.php?action_kouhyou_detail_004_kani=true&JigyosyoCd=3370209359-00&ServiceCd=210&Type=search", "url2": "https://suiseikai-group.jp" }, "geometry": { "type": "Point", "coordinates": [ 133.715822086508211, 34.568855926920769 ] } },
{ "type": "Feature", "properties": { "内容": "ショートステイオーシャンビュー倉敷【短期入所生活介護】岡山県倉敷市児島下の町9丁目17-17オーシャンビュー倉敷　4階", "url": "https://www.kaigokensaku.mhlw.go.jp/33/index.php?action_kouhyou_detail_004_kani=true&JigyosyoCd=3370208575-00&ServiceCd=210&Type=search", "url2": "https://kiryukai.com/group/facility/stov_kurashiki/" }, "geometry": { "type": "Point", "coordinates": [ 133.833594299999959, 34.471309799999986 ] } },
{ "type": "Feature", "properties": { "内容": "特別養護老人ホーム　しおかぜ【短期入所生活介護】岡山県倉敷市下津井１４８２番地１８", "url": "https://www.kaigokensaku.mhlw.go.jp/33/index.php?action_kouhyou_detail_004_kani=true&JigyosyoCd=3370201133-00&ServiceCd=210&Type=search", "url2": "http://www.shiokaze-group.co.jp" }, "geometry": { "type": "Point", "coordinates": [ 133.7847392, 34.4484767 ] } },
{ "type": "Feature", "properties": { "内容": "P.P.P.ブラヴィッシモ！通生ショートステイ【短期入所生活介護】岡山県倉敷市児島通生818", "url": "https://www.kaigokensaku.mhlw.go.jp/33/index.php?action_kouhyou_detail_004_kani=true&JigyosyoCd=3370208294-00&ServiceCd=210&Type=search", "url2": "http://www.3flower.jp/" }, "geometry": { "type": "Point", "coordinates": [ 133.777605799999947, 34.4643385 ] } },
{ "type": "Feature", "properties": { "内容": "ショートステイ　みどりの杜【短期入所生活介護】東塚1丁目12-3", "url": "https://www.kaigokensaku.mhlw.go.jp/33/index.php?action_kouhyou_detail_004_kani=true&JigyosyoCd=3370208658-00&ServiceCd=210&Type=search", "url2": "http://kunpoo.jp/" }, "geometry": { "type": "Point", "coordinates": [ 133.760789299999942, 34.5243953 ] } },
{ "type": "Feature", "properties": { "内容": "特別養護老人ホーム　太陽の丘【短期入所生活介護】岡山県倉敷市連島町西之浦3390番地", "url": "https://www.kaigokensaku.mhlw.go.jp/33/index.php?action_kouhyou_detail_004_kani=true&JigyosyoCd=3370204251-00&ServiceCd=210&Type=search", "url2": "http://www.kunpoohukushikai.com" }, "geometry": { "type": "Point", "coordinates": [ 133.716775699999971, 34.5543273 ] } },
{ "type": "Feature", "properties": { "内容": "短期入所ホームしおかぜ　陽だまりの家児島駅前【短期入所生活介護】児島駅前4丁目53番", "url": "https://www.kaigokensaku.mhlw.go.jp/33/index.php?action_kouhyou_detail_004_kani=true&JigyosyoCd=3370206827-00&ServiceCd=210&Type=search", "url2": "https://www.shiokaze-group.co.jp/" }, "geometry": { "type": "Point", "coordinates": [ 133.805351277280778, 34.459743410352615 ] } },
{ "type": "Feature", "properties": { "内容": "ショートステイ　みどり荘【短期入所生活介護】岡山県倉敷市神田2-3-5", "url": "https://www.kaigokensaku.mhlw.go.jp/33/index.php?action_kouhyou_detail_004_kani=true&JigyosyoCd=3370200887-00&ServiceCd=210&Type=search", "url2": "https://suiseikai-group.jp/" }, "geometry": { "type": "Point", "coordinates": [ 133.7382546, 34.5415761 ] } },
{ "type": "Feature", "properties": { "内容": "ショートステイ　グリーンビレッジ瀬戸内【短期入所生活介護】倉敷市船穂町柳井原２３００－１", "url": "https://www.kaigokensaku.mhlw.go.jp/33/index.php?action_kouhyou_detail_004_kani=true&JigyosyoCd=3370206470-00&ServiceCd=210&Type=search", "url2": null }, "geometry": { "type": "Point", "coordinates": [ 133.715471500000035, 34.6111497 ] } },
{ "type": "Feature", "properties": { "内容": "創心会ポジリハショート茶屋町【短期入所生活介護】岡山県倉敷市茶屋町1720番地1創心会リハケアタウン北館", "url": "https://www.kaigokensaku.mhlw.go.jp/33/index.php?action_kouhyou_detail_004_kani=true&JigyosyoCd=3370207643-00&ServiceCd=210&Type=search", "url2": "http://www.soushinkai.com/" }, "geometry": { "type": "Point", "coordinates": [ 133.82512290373532, 34.583664514025394 ] } },
{ "type": "Feature", "properties": { "内容": "王慈園ショートステイセンター【短期入所生活介護】倉敷市児島下の町５－２－１７", "url": "https://www.kaigokensaku.mhlw.go.jp/33/index.php?action_kouhyou_detail_004_kani=true&JigyosyoCd=3370201315-00&ServiceCd=210&Type=search", "url2": "http//www.ohji.ne.jp" }, "geometry": { "type": "Point", "coordinates": [ 133.82167979999997, 34.4776046 ] } },
{ "type": "Feature", "properties": { "内容": "特別養護老人ホーム　みゆき園　本館【短期入所生活介護】岡山県倉敷市幸町８番２７号", "url": "https://www.kaigokensaku.mhlw.go.jp/33/index.php?action_kouhyou_detail_004_kani=true&JigyosyoCd=3370201158-00&ServiceCd=210&Type=search", "url2": "https://miyuki-kai.jp/" }, "geometry": { "type": "Point", "coordinates": [ 133.774875100000031, 34.6074197 ] } },
{ "type": "Feature", "properties": { "内容": "両備ショートステイセンター浜町【短期入所生活介護】岡山県倉敷市浜町1丁目1番23号", "url": "https://www.kaigokensaku.mhlw.go.jp/33/index.php?action_kouhyou_detail_004_kani=true&JigyosyoCd=3370207205-00&ServiceCd=210&Type=search", "url2": "http://www.ryobi-hc.jp/" }, "geometry": { "type": "Point", "coordinates": [ 133.769950974868863, 34.605826463321243 ] } },
{ "type": "Feature", "properties": { "内容": "倉敷ケアセンター両備サン・オークス【短期入所生活介護】岡山県倉敷市中島1551-1", "url": "https://www.kaigokensaku.mhlw.go.jp/33/index.php?action_kouhyou_detail_004_kani=true&JigyosyoCd=3370205522-00&ServiceCd=210&Type=search", "url2": "http://www.ryobi-hc.jp" }, "geometry": { "type": "Point", "coordinates": [ 133.732634599999983, 34.5780751 ] } },
{ "type": "Feature", "properties": { "内容": "特別養護老人ホーム　「元気の家」【短期入所生活介護】岡山県倉敷市徳芳５０１－１", "url": "https://www.kaigokensaku.mhlw.go.jp/33/index.php?action_kouhyou_detail_004_kani=true&JigyosyoCd=3370203345-00&ServiceCd=210&Type=search", "url2": "http://www.yotsubakai.or.jp" }, "geometry": { "type": "Point", "coordinates": [ 133.812869299999988, 34.6207661 ] } },
{ "type": "Feature", "properties": { "内容": "特別養護老人ホーム庄の里（本館）【短期入所生活介護】山地1297番地", "url": "https://www.kaigokensaku.mhlw.go.jp/33/index.php?action_kouhyou_detail_004_kani=true&JigyosyoCd=3370209060-00&ServiceCd=210&Type=search", "url2": "http://www.syounosato.or.jp/" }, "geometry": { "type": "Point", "coordinates": [ 133.81566, 34.65124 ] } },
{ "type": "Feature", "properties": { "内容": "ポジリハショート平田【短期入所生活介護】岡山県倉敷市平田855", "url": "https://www.kaigokensaku.mhlw.go.jp/33/index.php?action_kouhyou_detail_004_kani=true&JigyosyoCd=3370208609-00&ServiceCd=210&Type=search", "url2": "https://soushin-fukushikai.org/" }, "geometry": { "type": "Point", "coordinates": [ 133.784479499999946, 34.618597 ] } },
{ "type": "Feature", "properties": { "内容": "倉敷児島ケアセンターそよ風【短期入所生活介護】岡山県倉敷市児島味野三丁目2番4号", "url": "https://www.kaigokensaku.mhlw.go.jp/33/index.php?action_kouhyou_detail_004_kani=true&JigyosyoCd=3370209714-00&ServiceCd=210&Type=search", "url2": "https://corp.sykz.co.jp/" }, "geometry": { "type": "Point", "coordinates": [ 133.8021612, 34.4668325 ] } },
{ "type": "Feature", "properties": { "内容": "ショートステイてれさ【短期入所生活介護】岡山県倉敷市酒津２５１２－２", "url": "https://www.kaigokensaku.mhlw.go.jp/33/index.php?action_kouhyou_detail_004_kani=true&JigyosyoCd=3370205985-00&ServiceCd=210&Type=search", "url2": "http://cocoteresa.jp" }, "geometry": { "type": "Point", "coordinates": [ 133.75689629939734, 34.612435043428817 ] } },
{ "type": "Feature", "properties": { "内容": "倉敷在宅総合ケアセンターショートステイ【短期入所生活介護】岡山県倉敷市老松町4丁目4-7倉敷在宅総合ケアセンター　3階", "url": "https://www.kaigokensaku.mhlw.go.jp/33/index.php?action_kouhyou_detail_004_kani=true&JigyosyoCd=3370200986-00&ServiceCd=210&Type=search", "url2": "http//www.heisei.or.jp" }, "geometry": { "type": "Point", "coordinates": [ 133.760956699999952, 34.594082 ] } },
{ "type": "Feature", "properties": { "内容": "ショートステイ　ネクストケア【短期入所生活介護】岡山県倉敷市亀山668-1ネクストケア", "url": "https://www.kaigokensaku.mhlw.go.jp/33/index.php?action_kouhyou_detail_004_kani=true&JigyosyoCd=3370208740-00&ServiceCd=210&Type=search", "url2": "http://www.nextcare.co.jp" }, "geometry": { "type": "Point", "coordinates": [ 133.803998299999989, 34.5831561 ] } },
{ "type": "Feature", "properties": { "内容": "特別養護老人ホーム日本原荘（ユニット型）【短期入所生活介護】津山市新野東1797-11", "url": "https://www.kaigokensaku.mhlw.go.jp/33/index.php?action_kouhyou_detail_004_kani=true&JigyosyoCd=3370301966-00&ServiceCd=210&Type=search", "url2": "http://nihonbaraso.blogspot.jp/" }, "geometry": { "type": "Point", "coordinates": [ 134.129082299999936, 35.1042585 ] } },
{ "type": "Feature", "properties": { "内容": "特別養護老人ホームサンライフみのり（ユニット型）【短期入所生活介護】岡山県津山市二宮999番地", "url": "https://www.kaigokensaku.mhlw.go.jp/33/index.php?action_kouhyou_detail_004_kani=true&JigyosyoCd=3370301958-00&ServiceCd=210&Type=search", "url2": "ｈｔｔｐｓ：//www.minori21.or.jp" }, "geometry": { "type": "Point", "coordinates": [ 133.9680128, 35.0677729 ] } },
{ "type": "Feature", "properties": { "内容": "特別養護老人ホーム第三日本原荘【短期入所生活介護】岡山県津山市新野東1798-1", "url": "https://www.kaigokensaku.mhlw.go.jp/33/index.php?action_kouhyou_detail_004_kani=true&JigyosyoCd=3373600125-00&ServiceCd=210&Type=search", "url2": "http://www.nihonbara.or.jp/" }, "geometry": { "type": "Point", "coordinates": [ 134.1282602, 35.1039057 ] } },
{ "type": "Feature", "properties": { "内容": "特別養護老人ホーム　ミ・カサ【短期入所生活介護】岡山県津山市北町44-1", "url": "https://www.kaigokensaku.mhlw.go.jp/33/index.php?action_kouhyou_detail_004_kani=true&JigyosyoCd=3370302105-00&ServiceCd=210&Type=search", "url2": "www.eharakeimeikai.jp/mi-casa/" }, "geometry": { "type": "Point", "coordinates": [ 134.005663204754626, 35.065475456500536 ] } },
{ "type": "Feature", "properties": { "内容": "特別養護老人ホーム　　サンライフみのり【短期入所生活介護】岡山県津山市二宮９９９番地", "url": "https://www.kaigokensaku.mhlw.go.jp/33/index.php?action_kouhyou_detail_004_kani=true&JigyosyoCd=3370300240-00&ServiceCd=210&Type=search", "url2": "http://www.minori21.or.jp/" }, "geometry": { "type": "Point", "coordinates": [ 133.9680128, 35.0677729 ] } },
{ "type": "Feature", "properties": { "内容": "特別養護老人ホーム　鶯園【短期入所生活介護】岡山県津山市瓜生原３３７－１", "url": "https://www.kaigokensaku.mhlw.go.jp/33/index.php?action_kouhyou_detail_004_kani=true&JigyosyoCd=3370300364-00&ServiceCd=210&Type=search", "url2": "http://www.uguisuen.jp/" }, "geometry": { "type": "Point", "coordinates": [ 134.042567500000018, 35.0429274 ] } },
{ "type": "Feature", "properties": { "内容": "特別養護老人ホーム高寿園【短期入所生活介護】岡山県津山市下高倉西１５８１－１", "url": "https://www.kaigokensaku.mhlw.go.jp/33/index.php?action_kouhyou_detail_004_kani=true&JigyosyoCd=3370300455-00&ServiceCd=210&Type=search", "url2": "http://www.kojuen.jp/" }, "geometry": { "type": "Point", "coordinates": [ 134.037696367159469, 35.097172479010965 ] } },
{ "type": "Feature", "properties": { "内容": "サン・オークス津山ショートステイ【短期入所生活介護】岡山県津山市紫保井1464", "url": "https://www.kaigokensaku.mhlw.go.jp/33/index.php?action_kouhyou_detail_004_kani=true&JigyosyoCd=3370302360-00&ServiceCd=210&Type=search", "url2": "http://ryobi-hc.jp/" }, "geometry": { "type": "Point", "coordinates": [ 134.013063200000033, 35.0906771 ] } },
{ "type": "Feature", "properties": { "内容": "加茂介護支援センター　緑山荘【短期入所生活介護】岡山県津山市加茂町小中原１１５", "url": "https://www.kaigokensaku.mhlw.go.jp/33/index.php?action_kouhyou_detail_004_kani=true&JigyosyoCd=3373500085-00&ServiceCd=210&Type=search", "url2": "http://www.kamo-koyokai.jp" }, "geometry": { "type": "Point", "coordinates": [ 134.049134900000013, 35.1783763 ] } },
{ "type": "Feature", "properties": { "内容": "特別養護老人ホーム日本原荘【短期入所生活介護】岡山県津山市新野東１７９７番地", "url": "https://www.kaigokensaku.mhlw.go.jp/33/index.php?action_kouhyou_detail_004_kani=true&JigyosyoCd=3373600117-00&ServiceCd=210&Type=search", "url2": "http://www.nihonbara.or.jp" }, "geometry": { "type": "Point", "coordinates": [ 134.129082299999936, 35.1042585 ] } },
{ "type": "Feature", "properties": { "内容": "特別養護老人ホーム　愛和荘【短期入所生活介護】岡山県津山市桑下１２７２－３", "url": "https://www.kaigokensaku.mhlw.go.jp/33/index.php?action_kouhyou_detail_004_kani=true&JigyosyoCd=3373800196-00&ServiceCd=210&Type=search", "url2": "www.aiwa-kai.or.jp" }, "geometry": { "type": "Point", "coordinates": [ 133.920417199999946, 35.0288262 ] } },
{ "type": "Feature", "properties": { "内容": "特別養護老人ホーム　玉野山田荘【短期入所生活介護】岡山県玉野市山田3275番地特別養護老人ホーム　玉野山田荘", "url": "https://www.kaigokensaku.mhlw.go.jp/33/index.php?action_kouhyou_detail_004_kani=true&JigyosyoCd=3370401402-00&ServiceCd=210&Type=search", "url2": "syoyokai.com" }, "geometry": { "type": "Point", "coordinates": [ 133.991415100000012, 34.5418269 ] } },
{ "type": "Feature", "properties": { "内容": "ショートステイさくらのさく郷【短期入所生活介護】岡山県玉野市八浜町大崎字天神１６９番地１３", "url": "https://www.kaigokensaku.mhlw.go.jp/33/index.php?action_kouhyou_detail_004_kani=true&JigyosyoCd=3370400529-00&ServiceCd=210&Type=search", "url2": "http://www.sakuranosakumura.com/" }, "geometry": { "type": "Point", "coordinates": [ 133.918305713955647, 34.532205782972603 ] } },
{ "type": "Feature", "properties": { "内容": "ショートステイサービスフェニックス田井【短期入所生活介護】岡山県玉野市田井四丁目10番45号", "url": "https://www.kaigokensaku.mhlw.go.jp/33/index.php?action_kouhyou_detail_004_kani=true&JigyosyoCd=3370400685-00&ServiceCd=210&Type=search", "url2": "http://www.fenix-tai.co.jp" }, "geometry": { "type": "Point", "coordinates": [ 133.9465338, 34.5181216 ] } },
{ "type": "Feature", "properties": { "内容": "ショートステイ　いろりの里【短期入所生活介護】玉野市八浜町波知555番地特別養護老人ホーム　いろりの里　2階", "url": "https://www.kaigokensaku.mhlw.go.jp/33/index.php?action_kouhyou_detail_004_kani=true&JigyosyoCd=3370401030-00&ServiceCd=210&Type=search", "url2": "http://www.itsuhakai.jp" }, "geometry": { "type": "Point", "coordinates": [ 133.955273900000066, 34.5523234 ] } },
{ "type": "Feature", "properties": { "内容": "ショートステイ　アガペ【短期入所生活介護】岡山県玉野市八浜町八浜1440-4", "url": "https://www.kaigokensaku.mhlw.go.jp/33/index.php?action_kouhyou_detail_004_kani=true&JigyosyoCd=3370401071-00&ServiceCd=210&Type=search", "url2": "http://agape-wanoka.com/" }, "geometry": { "type": "Point", "coordinates": [ 133.945043899999973, 34.5549033 ] } },
{ "type": "Feature", "properties": { "内容": "特別養護老人ホーム　宗玉園【短期入所生活介護】岡山県玉野市梶岡576-2", "url": "https://www.kaigokensaku.mhlw.go.jp/33/index.php?action_kouhyou_detail_004_kani=true&JigyosyoCd=3370400362-00&ServiceCd=210&Type=search", "url2": "http://www.nichirinkai.or.jp" }, "geometry": { "type": "Point", "coordinates": [ 133.996922899999987, 34.5540345 ] } },
{ "type": "Feature", "properties": { "内容": "特別養護老人ホーム　グランデパール【短期入所生活介護】岡山県玉野市用吉1676-1", "url": "https://www.kaigokensaku.mhlw.go.jp/33/index.php?action_kouhyou_detail_004_kani=true&JigyosyoCd=3370400784-00&ServiceCd=210&Type=search", "url2": "https://www.grand-depart.jp/" }, "geometry": { "type": "Point", "coordinates": [ 133.8970511, 34.5263191 ] } },
{ "type": "Feature", "properties": { "内容": "特別養護老人ホーム　いこい荘【短期入所生活介護】岡山県玉野市長尾１５７８－２", "url": "https://www.kaigokensaku.mhlw.go.jp/33/index.php?action_kouhyou_detail_004_kani=true&JigyosyoCd=3370400248-00&ServiceCd=210&Type=search", "url2": "http://www.navita.co.jp/s/11060352/" }, "geometry": { "type": "Point", "coordinates": [ 133.8983656, 34.4867418 ] } },
{ "type": "Feature", "properties": { "内容": "特別養護老人ホーム　いこい荘【短期入所生活介護】岡山県玉野市長尾１５７８－２", "url": "https://www.kaigokensaku.mhlw.go.jp/33/index.php?action_kouhyou_detail_004_kani=true&JigyosyoCd=3370401378-00&ServiceCd=210&Type=search", "url2": "https://ikoisou-tamano-okayama.jimdosite.com/" }, "geometry": { "type": "Point", "coordinates": [ 133.898387800000023, 34.486820899999969 ] } },
{ "type": "Feature", "properties": { "内容": "特別養護老人ホームハモニカドゥーエ【短期入所生活介護】岡山県玉野市長尾2116", "url": "https://www.kaigokensaku.mhlw.go.jp/33/index.php?action_kouhyou_detail_004_kani=true&JigyosyoCd=3370400891-00&ServiceCd=210&Type=search", "url2": "http://www.hamonika.com" }, "geometry": { "type": "Point", "coordinates": [ 133.888355400000023, 34.4922815 ] } },
{ "type": "Feature", "properties": { "内容": "特別養護老人ホーム　夢（短期入所）【短期入所生活介護】岡山県玉野市山田468-1", "url": "https://www.kaigokensaku.mhlw.go.jp/33/index.php?action_kouhyou_detail_004_kani=true&JigyosyoCd=3370401188-00&ServiceCd=210&Type=search", "url2": "https://yume-shinseikai.or.jp" }, "geometry": { "type": "Point", "coordinates": [ 133.988862700000027, 34.5472384 ] } },
{ "type": "Feature", "properties": { "内容": "特別養護老人ホームアザレア【短期入所生活介護】岡山県玉野市玉原二丁目２４番４０号", "url": "https://www.kaigokensaku.mhlw.go.jp/33/index.php?action_kouhyou_detail_004_kani=true&JigyosyoCd=3370400370-00&ServiceCd=210&Type=search", "url2": "http://tamano-azalea.jp" }, "geometry": { "type": "Point", "coordinates": [ 133.912242099999958, 34.476969 ] } },
{ "type": "Feature", "properties": { "内容": "特別養護老人ホームひび喜楽園【短期入所生活介護】岡山県玉野市渋川１丁目１４－１３", "url": "https://www.kaigokensaku.mhlw.go.jp/33/index.php?action_kouhyou_detail_004_kani=true&JigyosyoCd=3370401253-00&ServiceCd=210&Type=search", "url2": "http://www7b.biglobe.ne.jp/~sankeikai/" }, "geometry": { "type": "Point", "coordinates": [ 133.90739259999998, 34.4580458 ] } },
{ "type": "Feature", "properties": { "内容": "玉野スマイルタウン　特別養護老人ホームすまいる苑　短期入所生活介護【短期入所生活介護】玉野市田井6-8-1", "url": "https://www.kaigokensaku.mhlw.go.jp/33/index.php?action_kouhyou_detail_004_kani=true&JigyosyoCd=3370401311-00&ServiceCd=210&Type=search", "url2": "http://www.momotaro.jpn.com/" }, "geometry": { "type": "Point", "coordinates": [ 133.95502350000001, 34.5114639 ] } },
{ "type": "Feature", "properties": { "内容": "短期入所生活介護笠岡すみれ園【短期入所生活介護】岡山県笠岡市笠岡1080－1", "url": "https://www.kaigokensaku.mhlw.go.jp/33/index.php?action_kouhyou_detail_004_kani=true&JigyosyoCd=3370500088-00&ServiceCd=210&Type=search", "url2": "https://www.sumire.or.jp" }, "geometry": { "type": "Point", "coordinates": [ 133.520096692854906, 34.509691627168991 ] } },
{ "type": "Feature", "properties": { "内容": "瀬戸内荘ショートステイ【短期入所生活介護】岡山県笠岡市横島1944-1", "url": "https://www.kaigokensaku.mhlw.go.jp/33/index.php?action_kouhyou_detail_004_kani=true&JigyosyoCd=3370500203-00&ServiceCd=210&Type=search", "url2": "http://www.kabutokai.jp/" }, "geometry": { "type": "Point", "coordinates": [ 133.519745175918615, 34.478666858279439 ] } },
{ "type": "Feature", "properties": { "内容": "ショートステイみどりの丘【短期入所生活介護】岡山県笠岡市笠岡5128-1", "url": "https://www.kaigokensaku.mhlw.go.jp/33/index.php?action_kouhyou_detail_004_kani=true&JigyosyoCd=3370501029-00&ServiceCd=210&Type=search", "url2": "https://suiseikai-group.jp/ryokufukai/" }, "geometry": { "type": "Point", "coordinates": [ 133.507048343516516, 34.51201685696725 ] } },
{ "type": "Feature", "properties": { "内容": "天神荘ショートステイ【短期入所生活介護】岡山県笠岡市神島３６２６－７", "url": "https://www.kaigokensaku.mhlw.go.jp/33/index.php?action_kouhyou_detail_004_kani=true&JigyosyoCd=3370500195-00&ServiceCd=210&Type=search", "url2": "http://www.tenjinkai.org/" }, "geometry": { "type": "Point", "coordinates": [ 133.509644900000012, 34.4731837 ] } },
{ "type": "Feature", "properties": { "内容": "飛鳥の里三清荘ショートステイ【短期入所生活介護】岡山県笠岡市関戸837-1", "url": "https://www.kaigokensaku.mhlw.go.jp/33/index.php?action_kouhyou_detail_004_kani=true&JigyosyoCd=3370500880-00&ServiceCd=210&Type=search", "url2": "http://www.keizankai.or.jp/" }, "geometry": { "type": "Point", "coordinates": [ 133.528335931707716, 34.558208641909701 ] } },
{ "type": "Feature", "properties": { "内容": "小田川荘短期入所生活介護事業所【短期入所生活介護】岡山県井原市芳井町川相351", "url": "https://www.kaigokensaku.mhlw.go.jp/33/index.php?action_kouhyou_detail_004_kani=true&JigyosyoCd=3372900047-00&ServiceCd=210&Type=search", "url2": "http://www.odagawasou.or.jp" }, "geometry": { "type": "Point", "coordinates": [ 133.410050400000046, 34.6476016 ] } },
{ "type": "Feature", "properties": { "内容": "長楽園短期入所生活介護事業所【短期入所生活介護】岡山県井原市美星町西水砂２２３６番地７", "url": "https://www.kaigokensaku.mhlw.go.jp/33/index.php?action_kouhyou_detail_004_kani=true&JigyosyoCd=3372800080-00&ServiceCd=210&Type=search", "url2": "http://www.chorakuen.or.jp" }, "geometry": { "type": "Point", "coordinates": [ 133.536445400000048, 34.6600094 ] } },
{ "type": "Feature", "properties": { "内容": "西部いこいの里短期入所生活介護事業所【短期入所生活介護】岡山県井原市高屋町4丁目25番地の２", "url": "https://www.kaigokensaku.mhlw.go.jp/33/index.php?action_kouhyou_detail_004_kani=true&JigyosyoCd=3370700092-00&ServiceCd=210&Type=search", "url2": "http://www.kinoko-group.jp/ikoi_no_sato/" }, "geometry": { "type": "Point", "coordinates": [ 133.436445300000059, 34.5803512 ] } },
{ "type": "Feature", "properties": { "内容": "特別養護老人ホーム四季の里　短期入所生活介護事業所【短期入所生活介護】岡山県井原市上出部町四季が丘２０番地4", "url": "https://www.kaigokensaku.mhlw.go.jp/33/index.php?action_kouhyou_detail_004_kani=true&JigyosyoCd=3370700555-00&ServiceCd=210&Type=search", "url2": "http://kyouwa.or.jp" }, "geometry": { "type": "Point", "coordinates": [ 133.4678537, 34.5848677 ] } },
{ "type": "Feature", "properties": { "内容": "きのこ短期入所生活介護事業所【短期入所生活介護】岡山県井原市木之子町2416-1", "url": "https://www.kaigokensaku.mhlw.go.jp/33/index.php?action_kouhyou_detail_004_kani=true&JigyosyoCd=3370700159-00&ServiceCd=210&Type=search", "url2": "http://kinoko‾group.jp/" }, "geometry": { "type": "Point", "coordinates": [ 133.482627994913884, 34.578749006472357 ] } },
{ "type": "Feature", "properties": { "内容": "特別養護老人ホームみずき　短期入所生活介護事業所【短期入所生活介護】岡山県井原市東江原町１６６１－１", "url": "https://www.kaigokensaku.mhlw.go.jp/33/index.php?action_kouhyou_detail_004_kani=true&JigyosyoCd=3370700720-00&ServiceCd=210&Type=search", "url2": "https://mizuki-okayama.jp/" }, "geometry": { "type": "Point", "coordinates": [ 133.5135047, 34.5999243 ] } },
{ "type": "Feature", "properties": { "内容": "特別養護老人ホーム　みずき　短期入所生活介護事業所【短期入所生活介護】岡山県井原市東江原町1661-1", "url": "https://www.kaigokensaku.mhlw.go.jp/33/index.php?action_kouhyou_detail_004_kani=true&JigyosyoCd=3370700282-00&ServiceCd=210&Type=search", "url2": "https://mizuki-okayama.jp/" }, "geometry": { "type": "Point", "coordinates": [ 133.5135047, 34.5999271 ] } },
{ "type": "Feature", "properties": { "内容": "特別養護老人ホーム　いずみの杜【短期入所生活介護】岡山県総社市小寺958番地", "url": "https://www.kaigokensaku.mhlw.go.jp/33/index.php?action_kouhyou_detail_004_kani=true&JigyosyoCd=3370801015-00&ServiceCd=210&Type=search", "url2": null }, "geometry": { "type": "Point", "coordinates": [ 133.74526370000001, 34.6900307 ] } },
{ "type": "Feature", "properties": { "内容": "特別養護老人ホーム三清荘【短期入所生活介護】岡山県総社市久米48-1", "url": "https://www.kaigokensaku.mhlw.go.jp/33/index.php?action_kouhyou_detail_004_kani=true&JigyosyoCd=3370801130-00&ServiceCd=210&Type=search", "url2": "http://www.keizankai.or.jp" }, "geometry": { "type": "Point", "coordinates": [ 133.777213299999971, 34.6985327 ] } },
{ "type": "Feature", "properties": { "内容": "特別養護老人ホーム　グリーンアンドリバーホーム（ユニット型）【短期入所生活介護】岡山県総社市清音三因1074-1", "url": "https://www.kaigokensaku.mhlw.go.jp/33/index.php?action_kouhyou_detail_004_kani=true&JigyosyoCd=3370801114-00&ServiceCd=210&Type=search", "url2": "https://green-river.or.jp" }, "geometry": { "type": "Point", "coordinates": [ 133.755753499999969, 34.6544177 ] } },
{ "type": "Feature", "properties": { "内容": "ショートステイ　セレーノ総社【短期入所生活介護】岡山県総社市久代5127番地", "url": "https://www.kaigokensaku.mhlw.go.jp/33/index.php?action_kouhyou_detail_004_kani=true&JigyosyoCd=3370800231-00&ServiceCd=210&Type=search", "url2": "http://www.sesshu-fukushikai.or.jp/sereno/" }, "geometry": { "type": "Point", "coordinates": [ 133.699285300000042, 34.6775123 ] } },
{ "type": "Feature", "properties": { "内容": "総社市山手福祉センター短期入所生活介護事業所【短期入所生活介護】岡山県総社市地頭片山１５０", "url": "https://www.kaigokensaku.mhlw.go.jp/33/index.php?action_kouhyou_detail_004_kani=true&JigyosyoCd=3372600126-00&ServiceCd=210&Type=search", "url2": null }, "geometry": { "type": "Point", "coordinates": [ 133.769894199999953, 34.6582534 ] } },
{ "type": "Feature", "properties": { "内容": "特別養護老人ホーム三清荘【短期入所生活介護】岡山県総社市久米48番地の1", "url": "https://www.kaigokensaku.mhlw.go.jp/33/index.php?action_kouhyou_detail_004_kani=true&JigyosyoCd=3370800132-00&ServiceCd=210&Type=search", "url2": "http://keizankai.or.jp/" }, "geometry": { "type": "Point", "coordinates": [ 133.777213299999971, 34.6985327 ] } },
{ "type": "Feature", "properties": { "内容": "介護老人福祉施設　光憂舘【短期入所生活介護】岡山県総社市日羽４５４番地", "url": "https://www.kaigokensaku.mhlw.go.jp/33/index.php?action_kouhyou_detail_004_kani=true&JigyosyoCd=3370800173-00&ServiceCd=210&Type=search", "url2": "http://www.k5963.com/" }, "geometry": { "type": "Point", "coordinates": [ 133.676483842327912, 34.724130854230857 ] } },
{ "type": "Feature", "properties": { "内容": "特別養護老人ホーム　グリーンアンドリバーホーム（従来型）【短期入所生活介護】岡山県総社市清音三因1074-1", "url": "https://www.kaigokensaku.mhlw.go.jp/33/index.php?action_kouhyou_detail_004_kani=true&JigyosyoCd=3372600035-00&ServiceCd=210&Type=search", "url2": "https://green-river.or.jp" }, "geometry": { "type": "Point", "coordinates": [ 133.755753499999969, 34.6544177 ] } },
{ "type": "Feature", "properties": { "内容": "特別養護老人ホーム　ホタルの里【短期入所生活介護】高梁市落合町福地３９４", "url": "https://www.kaigokensaku.mhlw.go.jp/33/index.php?action_kouhyou_detail_004_kani=true&JigyosyoCd=3370900569-00&ServiceCd=210&Type=search", "url2": "https://www.magokoro-ok.com/list/hotaru.html" }, "geometry": { "type": "Point", "coordinates": [ 133.555257179159526, 34.78265900470717 ] } },
{ "type": "Feature", "properties": { "内容": "短期入所生活介護事業所　有漢荘【短期入所生活介護】岡山県高梁市有漢町有漢7945-16", "url": "https://www.kaigokensaku.mhlw.go.jp/33/index.php?action_kouhyou_detail_004_kani=true&JigyosyoCd=3373100100-00&ServiceCd=210&Type=search", "url2": "http://yoshimikai.com" }, "geometry": { "type": "Point", "coordinates": [ 133.679705600000034, 34.901967 ] } },
{ "type": "Feature", "properties": { "内容": "特別養護老人ホームグリーンヒル順正【短期入所生活介護】岡山県高梁市松原町神原2281-8", "url": "https://www.kaigokensaku.mhlw.go.jp/33/index.php?action_kouhyou_detail_004_kani=true&JigyosyoCd=3370900148-00&ServiceCd=210&Type=search", "url2": "http://greenhill-junsei.com/" }, "geometry": { "type": "Point", "coordinates": [ 133.595367, 34.8143886 ] } },
{ "type": "Feature", "properties": { "内容": "白和荘短期入所生活介護事業所　（ユニット型　空床利用）【短期入所生活介護】岡山県高梁市高倉町大瀬八長２６６３－１", "url": "https://www.kaigokensaku.mhlw.go.jp/33/index.php?action_kouhyou_detail_004_kani=true&JigyosyoCd=3370900643-00&ServiceCd=210&Type=search", "url2": "http://www.jyunshinkai.or.jp" }, "geometry": { "type": "Point", "coordinates": [ 133.612040500000035, 34.8214605 ] } },
{ "type": "Feature", "properties": { "内容": "白和荘短期入所生活介護事業所【短期入所生活介護】岡山県高梁市高倉町大瀬八長２６６３－１", "url": "https://www.kaigokensaku.mhlw.go.jp/33/index.php?action_kouhyou_detail_004_kani=true&JigyosyoCd=3370900049-00&ServiceCd=210&Type=search", "url2": "http://www.jyunshinkai.or.jp" }, "geometry": { "type": "Point", "coordinates": [ 133.612040500000035, 34.8214605 ] } },
{ "type": "Feature", "properties": { "内容": "高梁市特別養護老人ホーム鶴寿荘【短期入所生活介護】岡山県高梁市成羽町下原２６８番地１", "url": "https://www.kaigokensaku.mhlw.go.jp/33/index.php?action_kouhyou_detail_004_kani=true&JigyosyoCd=3373200199-00&ServiceCd=210&Type=search", "url2": "http://www.city.takahashi.lg.jp/soshiki/17/" }, "geometry": { "type": "Point", "coordinates": [ 133.54671529999996, 34.782876 ] } },
{ "type": "Feature", "properties": { "内容": "短期入所生活介護ちかのり【短期入所生活介護】岡山県高梁市落合町近似1326-1", "url": "https://www.kaigokensaku.mhlw.go.jp/33/index.php?action_kouhyou_detail_004_kani=true&JigyosyoCd=3370900619-00&ServiceCd=210&Type=search", "url2": "http://fukumikai.or.jp/" }, "geometry": { "type": "Point", "coordinates": [ 133.608940434501619, 34.797120272155446 ] } },
{ "type": "Feature", "properties": { "内容": "老人短期入所施設　高倉荘【短期入所生活介護】岡山県高梁市高倉町飯部３３４４－１地域密着型特別養護老人ホーム　高倉荘", "url": "https://www.kaigokensaku.mhlw.go.jp/33/index.php?action_kouhyou_detail_004_kani=true&JigyosyoCd=3370900577-00&ServiceCd=210&Type=search", "url2": "http://koushinkai-okayama.jp/" }, "geometry": { "type": "Point", "coordinates": [ 133.568730800000026, 34.8547083 ] } },
{ "type": "Feature", "properties": { "内容": "特別養護老人ホームケアポート生き活き館神郷【短期入所生活介護】新見市神郷下神代4390", "url": "https://www.kaigokensaku.mhlw.go.jp/33/index.php?action_kouhyou_detail_004_kani=true&JigyosyoCd=3371000351-00&ServiceCd=210&Type=search", "url2": null }, "geometry": { "type": "Point", "coordinates": [ 133.398659400000042, 34.9964795 ] } },
{ "type": "Feature", "properties": { "内容": "おおさ苑指定短期入所生活介護事業所【短期入所生活介護】岡山県新見市大佐田治部３２２１番地", "url": "https://www.kaigokensaku.mhlw.go.jp/33/index.php?action_kouhyou_detail_004_kani=true&JigyosyoCd=3373300098-00&ServiceCd=210&Type=search", "url2": "http://www.osaen.jp/" }, "geometry": { "type": "Point", "coordinates": [ 133.5563469, 35.0413254 ] } },
{ "type": "Feature", "properties": { "内容": "哲西荘短期入所生活介護事業所【短期入所生活介護】岡山県新見市哲西町矢田４３５１", "url": "https://www.kaigokensaku.mhlw.go.jp/33/index.php?action_kouhyou_detail_004_kani=true&JigyosyoCd=3373300312-00&ServiceCd=210&Type=search", "url2": "http://www.tesseisou.jp/index.html" }, "geometry": { "type": "Point", "coordinates": [ 133.334514, 34.923884 ] } },
{ "type": "Feature", "properties": { "内容": "唐松荘短期入所生活介護事業所【短期入所生活介護】岡山県新見市唐松１７４９番地２", "url": "https://www.kaigokensaku.mhlw.go.jp/33/index.php?action_kouhyou_detail_004_kani=true&JigyosyoCd=3371000138-00&ServiceCd=210&Type=search", "url2": "http://www.karamatsu-so.jp" }, "geometry": { "type": "Point", "coordinates": [ 133.508350800000017, 34.9640904 ] } },
{ "type": "Feature", "properties": { "内容": "短期入所生活介護ゆずり葉【短期入所生活介護】岡山県新見市新見８９７－７", "url": "https://www.kaigokensaku.mhlw.go.jp/33/index.php?action_kouhyou_detail_004_kani=true&JigyosyoCd=3371000500-00&ServiceCd=210&Type=search", "url2": "https://west-koseikai.jp" }, "geometry": { "type": "Point", "coordinates": [ 133.468035919573907, 34.984679016676473 ] } },
{ "type": "Feature", "properties": { "内容": "老人短期入所事業　蕃山荘【短期入所生活介護】岡山県備前市蕃山１３０９－１", "url": "https://www.kaigokensaku.mhlw.go.jp/33/index.php?action_kouhyou_detail_004_kani=true&JigyosyoCd=3371100094-00&ServiceCd=210&Type=search", "url2": null }, "geometry": { "type": "Point", "coordinates": [ 134.2583717, 34.7607032 ] } },
{ "type": "Feature", "properties": { "内容": "亀楽荘短期入所生活介護事業所【短期入所生活介護】岡山県備前市吉永町吉永中363番地", "url": "https://www.kaigokensaku.mhlw.go.jp/33/index.php?action_kouhyou_detail_004_kani=true&JigyosyoCd=3372300263-00&ServiceCd=210&Type=search", "url2": "http://kirakuso.or.jp" }, "geometry": { "type": "Point", "coordinates": [ 134.208206099999984, 34.8109874 ] } },
{ "type": "Feature", "properties": { "内容": "ミドルステイ　あおさぎ【短期入所生活介護】岡山県備前市日生町日生801", "url": "https://www.kaigokensaku.mhlw.go.jp/33/index.php?action_kouhyou_detail_004_kani=true&JigyosyoCd=3372300214-00&ServiceCd=210&Type=search", "url2": "http://www.keiyuu-kai.or.jp/top.html" }, "geometry": { "type": "Point", "coordinates": [ 134.271405299999969, 34.7289039 ] } },
{ "type": "Feature", "properties": { "内容": "老人短期入所事業（大ヶ池荘）【短期入所生活介護】岡山県備前市伊部964-1", "url": "https://www.kaigokensaku.mhlw.go.jp/33/index.php?action_kouhyou_detail_004_kani=true&JigyosyoCd=3371100086-00&ServiceCd=210&Type=search", "url2": null }, "geometry": { "type": "Point", "coordinates": [ 134.145619600000032, 34.7390312 ] } },
{ "type": "Feature", "properties": { "内容": "特別養護老人ホーム　いやしの杜備前【短期入所生活介護】岡山県備前市浦伊部721番地", "url": "https://www.kaigokensaku.mhlw.go.jp/33/index.php?action_kouhyou_detail_004_kani=true&JigyosyoCd=3371100805-00&ServiceCd=210&Type=search", "url2": null }, "geometry": { "type": "Point", "coordinates": [ 134.174274304563653, 34.732625389327602 ] } },
{ "type": "Feature", "properties": { "内容": "特別養護老人ホーム　深谷荘【短期入所生活介護】岡山県備前市三石2791-1", "url": "https://www.kaigokensaku.mhlw.go.jp/33/index.php?action_kouhyou_detail_004_kani=true&JigyosyoCd=3371100334-00&ServiceCd=210&Type=search", "url2": "http://mitanisou.com/" }, "geometry": { "type": "Point", "coordinates": [ 134.27995420000002, 34.8159254 ] } },
{ "type": "Feature", "properties": { "内容": "特別養護老人ホーム紅葉川荘【短期入所生活介護】岡山県備前市吉永町神根本61番地6", "url": "https://www.kaigokensaku.mhlw.go.jp/33/index.php?action_kouhyou_detail_004_kani=true&JigyosyoCd=3371100573-00&ServiceCd=210&Type=search", "url2": null }, "geometry": { "type": "Point", "coordinates": [ 134.23959590000004, 34.8431239 ] } },
{ "type": "Feature", "properties": { "内容": "備前多聞荘ショートステイセンター【短期入所生活介護】岡山県備前市鶴海２４０１番", "url": "https://www.kaigokensaku.mhlw.go.jp/33/index.php?action_kouhyou_detail_004_kani=true&JigyosyoCd=3371100771-00&ServiceCd=210&Type=search", "url2": "http://www.tensetsukai.or.jp" }, "geometry": { "type": "Point", "coordinates": [ 134.185256200000026, 34.6976364 ] } },
{ "type": "Feature", "properties": { "内容": "ショートステイ悠の里【短期入所生活介護】岡山県備前市木谷214", "url": "https://www.kaigokensaku.mhlw.go.jp/33/index.php?action_kouhyou_detail_004_kani=true&JigyosyoCd=3371100813-00&ServiceCd=210&Type=search", "url2": "http://yuyukai.or.jp" }, "geometry": { "type": "Point", "coordinates": [ 134.222506181089784, 34.762596480425195 ] } },
{ "type": "Feature", "properties": { "内容": "特別養護老人ホーム深谷荘【短期入所生活介護】岡山県備前市三石2791-1", "url": "https://www.kaigokensaku.mhlw.go.jp/33/index.php?action_kouhyou_detail_004_kani=true&JigyosyoCd=3371100862-00&ServiceCd=210&Type=search", "url2": "http://mitanisou.com/" }, "geometry": { "type": "Point", "coordinates": [ 134.279941400000013, 34.8157449 ] } },
{ "type": "Feature", "properties": { "内容": "特別養護老人ホーム　あじさいのおか牛窓【短期入所生活介護】岡山県瀬戸内市牛窓町長浜1745-1", "url": "https://www.kaigokensaku.mhlw.go.jp/33/index.php?action_kouhyou_detail_004_kani=true&JigyosyoCd=3372400170-00&ServiceCd=210&Type=search", "url2": "http://www.ajisai-s.or.jp" }, "geometry": { "type": "Point", "coordinates": [ 134.133278300000029, 34.6375462 ] } },
{ "type": "Feature", "properties": { "内容": "特別養護老人ホームせとの夢【短期入所生活介護】岡山県瀬戸内市邑久町虫明6268番地2", "url": "https://www.kaigokensaku.mhlw.go.jp/33/index.php?action_kouhyou_detail_004_kani=true&JigyosyoCd=3372400972-00&ServiceCd=210&Type=search", "url2": "www.okayama-junshinkai.co.jp/aiaikai/index.html" }, "geometry": { "type": "Point", "coordinates": [ 134.202713200000062, 34.6823968 ] } },
{ "type": "Feature", "properties": { "内容": "特別養護老人ホーム　錦海荘【短期入所生活介護】岡山県瀬戸内市邑久町尻海5513-1", "url": "https://www.kaigokensaku.mhlw.go.jp/33/index.php?action_kouhyou_detail_004_kani=true&JigyosyoCd=3372400121-00&ServiceCd=210&Type=search", "url2": "https://kenrokai.net/" }, "geometry": { "type": "Point", "coordinates": [ 134.1821132, 34.6558432 ] } },
{ "type": "Feature", "properties": { "内容": "特別養護老人ホームせとうち【短期入所生活介護】岡山県瀬戸内市邑久町福中1180", "url": "https://www.kaigokensaku.mhlw.go.jp/33/index.php?action_kouhyou_detail_004_kani=true&JigyosyoCd=3372400675-00&ServiceCd=210&Type=search", "url2": "http://www.tohkakai.jp" }, "geometry": { "type": "Point", "coordinates": [ 134.066753799999987, 34.6703333 ] } },
{ "type": "Feature", "properties": { "内容": "特別養護老人ホームグランディアあじさい【短期入所生活介護】岡山県瀬戸内市長船町服部1141番地", "url": "https://www.kaigokensaku.mhlw.go.jp/33/index.php?action_kouhyou_detail_004_kani=true&JigyosyoCd=3372401178-00&ServiceCd=210&Type=search", "url2": null }, "geometry": { "type": "Point", "coordinates": [ 134.1101396, 34.7092465 ] } },
{ "type": "Feature", "properties": { "内容": "広虫荘短期入所生活介護事業所【短期入所生活介護】岡山県赤磐市沢原１３９５", "url": "https://www.kaigokensaku.mhlw.go.jp/33/index.php?action_kouhyou_detail_004_kani=true&JigyosyoCd=3372200265-00&ServiceCd=210&Type=search", "url2": "www.hiromushisou.org" }, "geometry": { "type": "Point", "coordinates": [ 134.083096899999987, 34.7932442 ] } },
{ "type": "Feature", "properties": { "内容": "ショートステイさくら木【短期入所生活介護】岡山県赤磐市河本４８８番地１", "url": "https://www.kaigokensaku.mhlw.go.jp/33/index.php?action_kouhyou_detail_004_kani=true&JigyosyoCd=3372201347-00&ServiceCd=210&Type=search", "url2": "https://yufukai.com/" }, "geometry": { "type": "Point", "coordinates": [ 134.014549667320239, 34.746610146099698 ] } },
{ "type": "Feature", "properties": { "内容": "特別養護老人ホーム　パインスクエア【短期入所生活介護】岡山県赤磐市稲蒔１２２２", "url": "https://www.kaigokensaku.mhlw.go.jp/33/index.php?action_kouhyou_detail_004_kani=true&JigyosyoCd=3372201008-00&ServiceCd=210&Type=search", "url2": "www.pinesquare.jp" }, "geometry": { "type": "Point", "coordinates": [ 134.08226860000002, 34.895784297578025 ] } },
{ "type": "Feature", "properties": { "内容": "特別養護老人ホームまごころの里赤磐【短期入所生活介護】西軽部1244－１", "url": "https://www.kaigokensaku.mhlw.go.jp/33/index.php?action_kouhyou_detail_004_kani=true&JigyosyoCd=3372201156-00&ServiceCd=210&Type=search", "url2": "magokoro-ok.com/blog/" }, "geometry": { "type": "Point", "coordinates": [ 134.0151185, 34.8061016 ] } },
{ "type": "Feature", "properties": { "内容": "特別養護老人ホーム　桃香の里【短期入所生活介護】岡山県赤磐市熊崎２７６－１", "url": "https://www.kaigokensaku.mhlw.go.jp/33/index.php?action_kouhyou_detail_004_kani=true&JigyosyoCd=3372200729-00&ServiceCd=210&Type=search", "url2": "https://kyokusuikai-momoka.com/" }, "geometry": { "type": "Point", "coordinates": [ 134.01174889999993, 34.7565372 ] } },
{ "type": "Feature", "properties": { "内容": "特別養護老人ホーム　桃香の里【短期入所生活介護】岡山県赤磐市熊崎276-1", "url": "https://www.kaigokensaku.mhlw.go.jp/33/index.php?action_kouhyou_detail_004_kani=true&JigyosyoCd=3372201255-00&ServiceCd=210&Type=search", "url2": "https://kyokusuikai-momoka.com/" }, "geometry": { "type": "Point", "coordinates": [ 134.01174889999993, 34.756537200000018 ] } },
{ "type": "Feature", "properties": { "内容": "特別養護老人ホーム山陽寿荘【短期入所生活介護】岡山県赤磐市桜が丘西９丁目１番1号", "url": "https://www.kaigokensaku.mhlw.go.jp/33/index.php?action_kouhyou_detail_004_kani=true&JigyosyoCd=3372200216-00&ServiceCd=210&Type=search", "url2": "http://ww9.tiki.ne.jp/~kotobuki/" }, "geometry": { "type": "Point", "coordinates": [ 134.024338700000044, 34.777127 ] } },
{ "type": "Feature", "properties": { "内容": "特別養護老人ホーム千寿荘【短期入所生活介護】岡山県真庭市蒜山上長田２８－１", "url": "https://www.kaigokensaku.mhlw.go.jp/33/index.php?action_kouhyou_detail_004_kani=true&JigyosyoCd=3373400534-00&ServiceCd=210&Type=search", "url2": "https://senju-sou.com/" }, "geometry": { "type": "Point", "coordinates": [ 133.687347199999977, 35.2863203 ] } },
{ "type": "Feature", "properties": { "内容": "短期入所生活介護施設高瀬Ⅱ【短期入所生活介護】岡山県真庭市中島380番地1ラ・ストーリア・ケイズ", "url": "https://www.kaigokensaku.mhlw.go.jp/33/index.php?action_kouhyou_detail_004_kani=true&JigyosyoCd=3373401268-00&ServiceCd=210&Type=search", "url2": "http://f-keishinkai.jp/" }, "geometry": { "type": "Point", "coordinates": [ 133.7493859, 35.0730243 ] } },
{ "type": "Feature", "properties": { "内容": "短期入所生活介護事業所　花岡荘【短期入所生活介護】岡山県真庭市下中津井505", "url": "https://www.kaigokensaku.mhlw.go.jp/33/index.php?action_kouhyou_detail_004_kani=true&JigyosyoCd=3373100084-00&ServiceCd=210&Type=search", "url2": "http://yoshimikai.com" }, "geometry": { "type": "Point", "coordinates": [ 133.626975691261578, 34.943967269255737 ] } },
{ "type": "Feature", "properties": { "内容": "十字園ショートステイ【短期入所生活介護】岡山県真庭市下河内２２７５番地", "url": "https://www.kaigokensaku.mhlw.go.jp/33/index.php?action_kouhyou_detail_004_kani=true&JigyosyoCd=3373400336-00&ServiceCd=210&Type=search", "url2": "http://www.jyujikai.or.jp" }, "geometry": { "type": "Point", "coordinates": [ 133.786581800000022, 35.03251 ] } },
{ "type": "Feature", "properties": { "内容": "指定短期入所生活介護施設神庭荘（従来型）【短期入所生活介護】岡山県真庭市組370番地1", "url": "https://www.kaigokensaku.mhlw.go.jp/33/index.php?action_kouhyou_detail_004_kani=true&JigyosyoCd=3373400542-00&ServiceCd=210&Type=search", "url2": "http://f-keishinkai.jp" }, "geometry": { "type": "Point", "coordinates": [ 133.68895509877666, 35.095516364701368 ] } },
{ "type": "Feature", "properties": { "内容": "指定短期入所生活介護施設神庭荘Ⅱ【短期入所生活介護】岡山県真庭市組370番地1", "url": "https://www.kaigokensaku.mhlw.go.jp/33/index.php?action_kouhyou_detail_004_kani=true&JigyosyoCd=3373401136-00&ServiceCd=210&Type=search", "url2": "http://f-keishinkai.jp/" }, "geometry": { "type": "Point", "coordinates": [ 133.689685736874679, 35.095530910221001 ] } },
{ "type": "Feature", "properties": { "内容": "檜山荘短期入所生活介護事業所【短期入所生活介護】岡山県真庭市上市瀬1050-39", "url": "https://www.kaigokensaku.mhlw.go.jp/33/index.php?action_kouhyou_detail_004_kani=true&JigyosyoCd=3373400203-00&ServiceCd=210&Type=search", "url2": "kaizansou@mx9.tiki.ne.jp" }, "geometry": { "type": "Point", "coordinates": [ 133.741965106854167, 35.029695700280435 ] } },
{ "type": "Feature", "properties": { "内容": "緑風荘短期入所生活介護事業所【短期入所生活介護】岡山県真庭市美甘３２６番地", "url": "https://www.kaigokensaku.mhlw.go.jp/33/index.php?action_kouhyou_detail_004_kani=true&JigyosyoCd=3373400559-00&ServiceCd=210&Type=search", "url2": "http://www.suimeikai.or.jp" }, "geometry": { "type": "Point", "coordinates": [ 133.62589360000004, 35.1548254 ] } },
{ "type": "Feature", "properties": { "内容": "真庭市社協短期入所生活介護事業所【短期入所生活介護】岡山県真庭市下湯原４７番地", "url": "https://www.kaigokensaku.mhlw.go.jp/33/index.php?action_kouhyou_detail_004_kani=true&JigyosyoCd=3373400997-00&ServiceCd=210&Type=search", "url2": null }, "geometry": { "type": "Point", "coordinates": [ 133.735036900000068, 35.1876319 ] } },
{ "type": "Feature", "properties": { "内容": "特別養護老人ホーム　ロマンシティあいだ【短期入所生活介護】岡山県美作市井口４１－２", "url": "https://www.kaigokensaku.mhlw.go.jp/33/index.php?action_kouhyou_detail_004_kani=true&JigyosyoCd=3373700263-00&ServiceCd=210&Type=search", "url2": "http://uguisuen.com/" }, "geometry": { "type": "Point", "coordinates": [ 134.128276300000039, 34.9384179 ] } },
{ "type": "Feature", "properties": { "内容": "みまさか園【短期入所生活介護】岡山県美作市北山404-1", "url": "https://www.kaigokensaku.mhlw.go.jp/33/index.php?action_kouhyou_detail_004_kani=true&JigyosyoCd=3373700388-00&ServiceCd=210&Type=search", "url2": "http://www.fukushi-koukikai.jp/" }, "geometry": { "type": "Point", "coordinates": [ 134.156314599999973, 35.0319002 ] } },
{ "type": "Feature", "properties": { "内容": "特別養護老人ホーム　作東寮【短期入所生活介護】岡山県美作市川北1089", "url": "https://www.kaigokensaku.mhlw.go.jp/33/index.php?action_kouhyou_detail_004_kani=true&JigyosyoCd=3373700883-00&ServiceCd=210&Type=search", "url2": "http://www.fukushi-koukikai.jp/" }, "geometry": { "type": "Point", "coordinates": [ 134.214695900000038, 35.0144164 ] } },
{ "type": "Feature", "properties": { "内容": "総合ケアサービスセンターかつた【短期入所生活介護】岡山県美作市大町１７２７番地", "url": "https://www.kaigokensaku.mhlw.go.jp/33/index.php?action_kouhyou_detail_004_kani=true&JigyosyoCd=3373600349-00&ServiceCd=210&Type=search", "url2": "http://ns.nihonbara.or.jp/" }, "geometry": { "type": "Point", "coordinates": [ 134.198626800000056, 35.0712163 ] } },
{ "type": "Feature", "properties": { "内容": "特別養護老人ホーム蛍流荘【短期入所生活介護】岡山県美作市湯郷903", "url": "https://www.kaigokensaku.mhlw.go.jp/33/index.php?action_kouhyou_detail_004_kani=true&JigyosyoCd=3373700834-00&ServiceCd=210&Type=search", "url2": "http://www.keiryusou.com/" }, "geometry": { "type": "Point", "coordinates": [ 134.131202199999962, 34.9915589 ] } },
{ "type": "Feature", "properties": { "内容": "美作特別養護老人ホーム地域密着型やすらぎ荘【短期入所生活介護】岡山県美作市古町1707-3", "url": "https://www.kaigokensaku.mhlw.go.jp/33/index.php?action_kouhyou_detail_004_kani=true&JigyosyoCd=3373700701-00&ServiceCd=210&Type=search", "url2": "http://www.keizankai.or.jp/" }, "geometry": { "type": "Point", "coordinates": [ 134.326719599999933, 35.1217997 ] } },
{ "type": "Feature", "properties": { "内容": "特別養護老人ホームオペラハウス鴨方　短期入所生活介護事業所【短期入所生活介護】岡山県浅口市鴨方町地頭上５６７番地", "url": "https://www.kaigokensaku.mhlw.go.jp/33/index.php?action_kouhyou_detail_004_kani=true&JigyosyoCd=3372700215-00&ServiceCd=210&Type=search", "url2": "http://www.okayama-chidori.or.jp/opera/" }, "geometry": { "type": "Point", "coordinates": [ 133.5903399, 34.5589695 ] } },
{ "type": "Feature", "properties": { "内容": "ショートステイセンター桃花【短期入所生活介護】岡山県浅口市鴨方町六条院中1329", "url": "https://www.kaigokensaku.mhlw.go.jp/33/index.php?action_kouhyou_detail_004_kani=true&JigyosyoCd=3372700736-00&ServiceCd=210&Type=search", "url2": "httpｓ://www.sunpalacetouka2.com/." }, "geometry": { "type": "Point", "coordinates": [ 133.578430499999968, 34.5214482 ] } },
{ "type": "Feature", "properties": { "内容": "寿光園短期入所生活介護事業所【短期入所生活介護】岡山県浅口市金光町下竹１７７５番の1", "url": "https://www.kaigokensaku.mhlw.go.jp/33/index.php?action_kouhyou_detail_004_kani=true&JigyosyoCd=3372700272-00&ServiceCd=210&Type=search", "url2": "http://www.kcv.ne.jp/~jukoukai" }, "geometry": { "type": "Point", "coordinates": [ 133.641425600000048, 34.5595466 ] } },
{ "type": "Feature", "properties": { "内容": "和気広虫荘短期入所生活介護事業所【短期入所生活介護】岡山県和気郡和気町和気108", "url": "https://www.kaigokensaku.mhlw.go.jp/33/index.php?action_kouhyou_detail_004_kani=true&JigyosyoCd=3372300198-00&ServiceCd=210&Type=search", "url2": "http://hiromushisou.jp" }, "geometry": { "type": "Point", "coordinates": [ 134.144989799999962, 34.8066261 ] } },
{ "type": "Feature", "properties": { "内容": "特別養護老人ホームひまわり園【短期入所生活介護】岡山県和気郡和気町佐伯158", "url": "https://www.kaigokensaku.mhlw.go.jp/33/index.php?action_kouhyou_detail_004_kani=true&JigyosyoCd=3372300313-00&ServiceCd=210&Type=search", "url2": "http://www.himawarien.org" }, "geometry": { "type": "Point", "coordinates": [ 134.092529399999989, 34.8448716 ] } },
{ "type": "Feature", "properties": { "内容": "短期入所生活介護　和気えんじゅの里【短期入所生活介護】岡山県和気郡和気町衣笠834－1", "url": "https://www.kaigokensaku.mhlw.go.jp/33/index.php?action_kouhyou_detail_004_kani=true&JigyosyoCd=3372300792-00&ServiceCd=210&Type=search", "url2": "http://www.takufukai-group.or.jp/index.html" }, "geometry": { "type": "Point", "coordinates": [ 134.156104736523503, 34.796614875483009 ] } },
{ "type": "Feature", "properties": { "内容": "特別養護老人ホーム　白亜館【短期入所生活介護】岡山県都窪郡早島町早島4962-11", "url": "https://www.kaigokensaku.mhlw.go.jp/33/index.php?action_kouhyou_detail_004_kani=true&JigyosyoCd=3372600233-00&ServiceCd=210&Type=search", "url2": "http://hakuakan.ec-net.jp" }, "geometry": { "type": "Point", "coordinates": [ 133.806986942327882, 34.609408842530165 ] } },
{ "type": "Feature", "properties": { "内容": "ショートステイ矢掛荘【短期入所生活介護】岡山県小田郡矢掛町南山田3044-12", "url": "https://www.kaigokensaku.mhlw.go.jp/33/index.php?action_kouhyou_detail_004_kani=true&JigyosyoCd=3372800064-00&ServiceCd=210&Type=search", "url2": "http://yakage-so.jp/" }, "geometry": { "type": "Point", "coordinates": [ 133.613008900000068, 34.5853672 ] } },
{ "type": "Feature", "properties": { "内容": "特別養護老人ホーム奥津広済園【短期入所生活介護】岡山県苫田郡鏡野町杉７５０－４", "url": "https://www.kaigokensaku.mhlw.go.jp/33/index.php?action_kouhyou_detail_004_kani=true&JigyosyoCd=3373500481-00&ServiceCd=210&Type=search", "url2": "https://okutsu-kousaikai.net/" }, "geometry": { "type": "Point", "coordinates": [ 133.9121319, 35.174723099999966 ] } },
{ "type": "Feature", "properties": { "内容": "いずみ山荘在宅介護サービスセンター【短期入所生活介護】岡山県苫田郡鏡野町公保田７３－２", "url": "https://www.kaigokensaku.mhlw.go.jp/33/index.php?action_kouhyou_detail_004_kani=true&JigyosyoCd=3373500143-00&ServiceCd=210&Type=search", "url2": "http://www.mto.ne.jp/tyoujyu/" }, "geometry": { "type": "Point", "coordinates": [ 133.955854400000021, 35.1086678 ] } },
{ "type": "Feature", "properties": { "内容": "特別養護老人ホーム　あかり【短期入所生活介護】岡山県勝田郡勝央町小矢田６５３番地１", "url": "https://www.kaigokensaku.mhlw.go.jp/33/index.php?action_kouhyou_detail_004_kani=true&JigyosyoCd=3373600539-00&ServiceCd=210&Type=search", "url2": "https://www.f-akari.jp/" }, "geometry": { "type": "Point", "coordinates": [ 134.126370899999984, 35.0277302 ] } },
{ "type": "Feature", "properties": { "内容": "南光荘短期入所生活介護事業所【短期入所生活介護】岡山県勝田郡勝央町美野１８７７番地", "url": "https://www.kaigokensaku.mhlw.go.jp/33/index.php?action_kouhyou_detail_004_kani=true&JigyosyoCd=3373600158-00&ServiceCd=210&Type=search", "url2": "http://www.shoumei-fukushikai.or.jp/" }, "geometry": { "type": "Point", "coordinates": [ 134.1531314, 35.0670377 ] } },
{ "type": "Feature", "properties": { "内容": "なぎみ苑指定短期入所生活介護事業所【短期入所生活介護】岡山県勝田郡奈義町広岡30", "url": "https://www.kaigokensaku.mhlw.go.jp/33/index.php?action_kouhyou_detail_004_kani=true&JigyosyoCd=3373600216-00&ServiceCd=210&Type=search", "url2": "http://www.jifu-kai.or.jp" }, "geometry": { "type": "Point", "coordinates": [ 134.166784199999938, 35.1158719 ] } },
{ "type": "Feature", "properties": { "内容": "特別養護老人ホームイーエスサウスヒルズ【短期入所生活介護】岡山県久米郡久米南町下弓削647", "url": "https://www.kaigokensaku.mhlw.go.jp/33/index.php?action_kouhyou_detail_004_kani=true&JigyosyoCd=3373800162-00&ServiceCd=210&Type=search", "url2": "http://www.eharakeimeikai.jp/essouthhills/index.html" }, "geometry": { "type": "Point", "coordinates": [ 133.966447600000038, 34.9317565 ] } },
{ "type": "Feature", "properties": { "内容": "特別養護老人ホーム　川柳の里三清荘【短期入所生活介護】岡山県久米郡久米南町羽出木753-11", "url": "https://www.kaigokensaku.mhlw.go.jp/33/index.php?action_kouhyou_detail_004_kani=true&JigyosyoCd=3373800600-00&ServiceCd=210&Type=search", "url2": "http://www.keizankai.or.jp/" }, "geometry": { "type": "Point", "coordinates": [ 133.992122699999982, 34.9440867 ] } },
{ "type": "Feature", "properties": { "内容": "特別養護老人ホーム吉井川荘【短期入所生活介護】岡山県久米郡美咲町吉ヶ原８３８", "url": "https://www.kaigokensaku.mhlw.go.jp/33/index.php?action_kouhyou_detail_004_kani=true&JigyosyoCd=3373800121-00&ServiceCd=210&Type=search", "url2": "https://yoshiigawa.jp" }, "geometry": { "type": "Point", "coordinates": [ 134.076601100000062, 34.9432725 ] } },
{ "type": "Feature", "properties": { "内容": "ショートスティわかば【短期入所生活介護】岡山県久米郡美咲町打穴下412-5", "url": "https://www.kaigokensaku.mhlw.go.jp/33/index.php?action_kouhyou_detail_004_kani=true&JigyosyoCd=3373800535-00&ServiceCd=210&Type=search", "url2": "http://www.hakujuso.or.jp" }, "geometry": { "type": "Point", "coordinates": [ 133.9390922, 35.0277195 ] } },
{ "type": "Feature", "properties": { "内容": "社会福祉法人　中央福祉会　ショートステイ白寿荘【短期入所生活介護】岡山県久米郡美咲町錦織2357-1", "url": "https://www.kaigokensaku.mhlw.go.jp/33/index.php?action_kouhyou_detail_004_kani=true&JigyosyoCd=3373800097-00&ServiceCd=210&Type=search", "url2": "http://www.hakujuso.or.jp/" }, "geometry": { "type": "Point", "coordinates": [ 133.944332499999973, 35.0287464 ] } },
{ "type": "Feature", "properties": { "内容": "ショートステイ　あさひが丘【短期入所生活介護】岡山県久米郡美咲町東垪和190", "url": "https://www.kaigokensaku.mhlw.go.jp/33/index.php?action_kouhyou_detail_004_kani=true&JigyosyoCd=3373800550-00&ServiceCd=210&Type=search", "url2": "www.fukushiokayama.or.jp/misaki/Misaki.html" }, "geometry": { "type": "Point", "coordinates": [ 133.846339400000033, 34.9677464 ] } },
{ "type": "Feature", "properties": { "内容": "特別養護老人ホームかもがわ荘【短期入所生活介護】岡山県加賀郡吉備中央町上加茂５１７－３", "url": "https://www.kaigokensaku.mhlw.go.jp/33/index.php?action_kouhyou_detail_004_kani=true&JigyosyoCd=3372100093-00&ServiceCd=210&Type=search", "url2": "https://makotokai.okayama.jp/" }, "geometry": { "type": "Point", "coordinates": [ 133.80536589999997, 34.8508132 ] } },
{ "type": "Feature", "properties": { "内容": "賀陽荘ショートステイ【短期入所生活介護】岡山県加賀郡吉備中央町上竹７５３番地", "url": "https://www.kaigokensaku.mhlw.go.jp/33/index.php?action_kouhyou_detail_004_kani=true&JigyosyoCd=3373100167-00&ServiceCd=210&Type=search", "url2": "care-net.biz/33/kayousou753/" }, "geometry": { "type": "Point", "coordinates": [ 133.6793983, 34.8539105 ] } },
{ "type": "Feature", "properties": { "内容": "特別養護老人ホームきびハイツ【短期入所生活介護】岡山県加賀郡吉備中央町上野1883-5", "url": "https://www.kaigokensaku.mhlw.go.jp/33/index.php?action_kouhyou_detail_004_kani=true&JigyosyoCd=3372100374-00&ServiceCd=210&Type=search", "url2": "https://amical.or.jp/kibi/" }, "geometry": { "type": "Point", "coordinates": [ 133.770994299999984, 34.8357139 ] } }
]
}
