{
"type": "FeatureCollection",
"name": "geo_33_地域密着型介護老人福祉施設入所者生活介護",
"crs": { "type": "name", "properties": { "name": "urn:ogc:def:crs:OGC:1.3:CRS84" } },
"features": [
{ "type": "Feature", "properties": { "内容": "特別養護老人ホーム　想い愛【地域密着型介護老人福祉施設入所者生活介護】岡山県岡山市北区楢津418番地1", "url": "https://www.kaigokensaku.mhlw.go.jp/33/index.php?action_kouhyou_detail_004_kani=true&JigyosyoCd=3390100471-00&ServiceCd=540&Type=search", "url2": "http://www.okayama-junshinkai.co.jp/aiaikai/index.html" }, "geometry": { "type": "Point", "coordinates": [ 133.885273741061383, 34.679521158213433 ] } },
{ "type": "Feature", "properties": { "内容": "特別養護老人ホームライフケアももぞの【地域密着型介護老人福祉施設入所者生活介護】岡山市北区下足守１６２７－１", "url": "https://www.kaigokensaku.mhlw.go.jp/33/index.php?action_kouhyou_detail_004_kani=true&JigyosyoCd=3390101081-00&ServiceCd=540&Type=search", "url2": "http://momozonogakuen.jp/" }, "geometry": { "type": "Point", "coordinates": [ 133.802639099999965, 34.7134065 ] } },
{ "type": "Feature", "properties": { "内容": "地域密着型特別養護老人ホーム　いきがいライフたかまつ【地域密着型介護老人福祉施設入所者生活介護】岡山市北区立田586番地１", "url": "https://www.kaigokensaku.mhlw.go.jp/33/index.php?action_kouhyou_detail_004_kani=true&JigyosyoCd=3390101305-00&ServiceCd=540&Type=search", "url2": "http://www.okayama-ikiiki-shiawase.net/" }, "geometry": { "type": "Point", "coordinates": [ 133.83177360000002, 34.6795324 ] } },
{ "type": "Feature", "properties": { "内容": "ユニット型地域密着型特別養護老人ホーム　　長春苑【地域密着型介護老人福祉施設入所者生活介護】岡山市北区富町２丁目１９－41", "url": "https://www.kaigokensaku.mhlw.go.jp/33/index.php?action_kouhyou_detail_004_kani=true&JigyosyoCd=3390100802-00&ServiceCd=540&Type=search", "url2": "http://tyousyun.kawada.or.jp/index.html" }, "geometry": { "type": "Point", "coordinates": [ 133.907289200000037, 34.6642386 ] } },
{ "type": "Feature", "properties": { "内容": "特別養護老人ホーム　牟佐げんき【地域密着型介護老人福祉施設入所者生活介護】岡山市北区牟佐１４７９番地１", "url": "https://www.kaigokensaku.mhlw.go.jp/33/index.php?action_kouhyou_detail_004_kani=true&JigyosyoCd=3390100950-00&ServiceCd=540&Type=search", "url2": "https://okayama-kotobuki.sakura.ne.jp/" }, "geometry": { "type": "Point", "coordinates": [ 133.975962100000061, 34.7244924 ] } },
{ "type": "Feature", "properties": { "内容": "特別養護老人ホーム　宇垣荘【地域密着型介護老人福祉施設入所者生活介護】岡山県岡山市北区御津宇垣2069-10", "url": "https://www.kaigokensaku.mhlw.go.jp/33/index.php?action_kouhyou_detail_004_kani=true&JigyosyoCd=3390101156-00&ServiceCd=540&Type=search", "url2": "http://www.okayamasaiseikai.or.jp/ugakiso/" }, "geometry": { "type": "Point", "coordinates": [ 133.918598100000054, 34.7805689 ] } },
{ "type": "Feature", "properties": { "内容": "特別養護老人ホーム　よつば園【地域密着型介護老人福祉施設入所者生活介護】岡山県岡山市北区吉宗853特別養護老人ホーム　よつば園", "url": "https://www.kaigokensaku.mhlw.go.jp/33/index.php?action_kouhyou_detail_004_kani=true&JigyosyoCd=3390101297-00&ServiceCd=540&Type=search", "url2": "http://yotubaen.com" }, "geometry": { "type": "Point", "coordinates": [ 133.9098679, 34.7306568 ] } },
{ "type": "Feature", "properties": { "内容": "特別養護老人ホーム　光生げんき【地域密着型介護老人福祉施設入所者生活介護】岡山県岡山市北区厚生町3-8-35", "url": "https://www.kaigokensaku.mhlw.go.jp/33/index.php?action_kouhyou_detail_004_kani=true&JigyosyoCd=3390101412-00&ServiceCd=540&Type=search", "url2": "https://okayama-kotobuki.sakura.ne.jp/new/02facility/kousei.html" }, "geometry": { "type": "Point", "coordinates": [ 133.910710894442786, 34.655644727912744 ] } },
{ "type": "Feature", "properties": { "内容": "特別養護老人ホーム喜福の里【地域密着型介護老人福祉施設入所者生活介護】岡山県岡山市北区今保18-1", "url": "https://www.kaigokensaku.mhlw.go.jp/33/index.php?action_kouhyou_detail_004_kani=true&JigyosyoCd=3390101602-00&ServiceCd=540&Type=search", "url2": "http://www.fuku-sankeikai.jp/" }, "geometry": { "type": "Point", "coordinates": [ 133.868077399999947, 34.6371928 ] } },
{ "type": "Feature", "properties": { "内容": "特別養護老人ホーム　つしま苑【地域密着型介護老人福祉施設入所者生活介護】岡山県岡山市北区津島福居２－１３－１７", "url": "https://www.kaigokensaku.mhlw.go.jp/33/index.php?action_kouhyou_detail_004_kani=true&JigyosyoCd=3390101867-00&ServiceCd=540&Type=search", "url2": "https://momotarogroup.com/facility/#momotarokai" }, "geometry": { "type": "Point", "coordinates": [ 133.91743565595857, 34.691501183835051 ] } },
{ "type": "Feature", "properties": { "内容": "特別養護老人ホームきび庭瀬【地域密着型介護老人福祉施設入所者生活介護】岡山県岡山市北区庭瀬１０５４－３", "url": "https://www.kaigokensaku.mhlw.go.jp/33/index.php?action_kouhyou_detail_004_kani=true&JigyosyoCd=3390102154-00&ServiceCd=540&Type=search", "url2": "https://makotokai.okayama.jp" }, "geometry": { "type": "Point", "coordinates": [ 133.854275461407525, 34.639056773197005 ] } },
{ "type": "Feature", "properties": { "内容": "特別養護老人ホームたけべ【地域密着型介護老人福祉施設入所者生活介護】-岡山県岡山市北区建部町建部上-５５７－６", "url": "https://www.kaigokensaku.mhlw.go.jp/33/index.php?action_kouhyou_detail_004_kani=true&JigyosyoCd=3390102444-00&ServiceCd=540&Type=search", "url2": "www.hoyukai.co.jp" }, "geometry": { "type": "Point", "coordinates": [ 133.905603810519153, 34.862413011091604 ] } },
{ "type": "Feature", "properties": { "内容": "特別養護老人ホームおもいやり【地域密着型介護老人福祉施設入所者生活介護】岡山県岡山市中区平井１２６０番１", "url": "https://www.kaigokensaku.mhlw.go.jp/33/index.php?action_kouhyou_detail_004_kani=true&JigyosyoCd=3390100463-00&ServiceCd=540&Type=search", "url2": "https://okayama-kotobuki.sakura.ne.jp/" }, "geometry": { "type": "Point", "coordinates": [ 133.9524768, 34.6268083 ] } },
{ "type": "Feature", "properties": { "内容": "さつき園【地域密着型介護老人福祉施設入所者生活介護】岡山県岡山市岡山市中区乙多見１４７－１", "url": "https://www.kaigokensaku.mhlw.go.jp/33/index.php?action_kouhyou_detail_004_kani=true&JigyosyoCd=3390100786-00&ServiceCd=540&Type=search", "url2": "http://www.fukushi-koukikai.jp/" }, "geometry": { "type": "Point", "coordinates": [ 133.976381869975285, 34.679971068353723 ] } },
{ "type": "Feature", "properties": { "内容": "特別養護老人ホーム　いこいの里【地域密着型介護老人福祉施設入所者生活介護】祇園541-1", "url": "https://www.kaigokensaku.mhlw.go.jp/33/index.php?action_kouhyou_detail_004_kani=true&JigyosyoCd=3390101172-00&ServiceCd=540&Type=search", "url2": null }, "geometry": { "type": "Point", "coordinates": [ 133.955473100000063, 34.6981639 ] } },
{ "type": "Feature", "properties": { "内容": "特別養護老人ホーム　白樺【地域密着型介護老人福祉施設入所者生活介護】岡山市中区湯迫19-1", "url": "https://www.kaigokensaku.mhlw.go.jp/33/index.php?action_kouhyou_detail_004_kani=true&JigyosyoCd=3390101222-00&ServiceCd=540&Type=search", "url2": "http//www.shirakaba-kai.com" }, "geometry": { "type": "Point", "coordinates": [ 133.965688600000021, 34.6966199 ] } },
{ "type": "Feature", "properties": { "内容": "特別養護老人ホーム　いやしの杜【地域密着型介護老人福祉施設入所者生活介護】岡山県岡山市中区海吉1447番地７", "url": "https://www.kaigokensaku.mhlw.go.jp/33/index.php?action_kouhyou_detail_004_kani=true&JigyosyoCd=3390101784-00&ServiceCd=540&Type=search", "url2": "http://kojinkai.net/" }, "geometry": { "type": "Point", "coordinates": [ 133.989651738020285, 34.660816176349115 ] } },
{ "type": "Feature", "properties": { "内容": "特別養護老人ホーム　ケアポート生き活き館原尾島【地域密着型介護老人福祉施設入所者生活介護】岡山市中区東川原361番1", "url": "https://www.kaigokensaku.mhlw.go.jp/33/index.php?action_kouhyou_detail_004_kani=true&JigyosyoCd=3390100869-00&ServiceCd=540&Type=search", "url2": "http://kokoro-net.org" }, "geometry": { "type": "Point", "coordinates": [ 133.9491653, 34.6748309 ] } },
{ "type": "Feature", "properties": { "内容": "地域密着型特別養護老人ホーム笑福亭【地域密着型介護老人福祉施設入所者生活介護】岡山市中区桑野５２５番１２５", "url": "https://www.kaigokensaku.mhlw.go.jp/33/index.php?action_kouhyou_detail_004_kani=true&JigyosyoCd=3390101214-00&ServiceCd=540&Type=search", "url2": "http://dojinkai-nozomi.jp" }, "geometry": { "type": "Point", "coordinates": [ 133.979408693115261, 34.61294600153726 ] } },
{ "type": "Feature", "properties": { "内容": "特別養護老人ホーム　穂香の里【地域密着型介護老人福祉施設入所者生活介護】岡山県岡山市東区豊田300-1", "url": "https://www.kaigokensaku.mhlw.go.jp/33/index.php?action_kouhyou_detail_004_kani=true&JigyosyoCd=3390100588-00&ServiceCd=540&Type=search", "url2": "https://www.chuo-fukushikai.jp/facility/honoka" }, "geometry": { "type": "Point", "coordinates": [ 134.016244, 34.6152727 ] } },
{ "type": "Feature", "properties": { "内容": "特別養護老人ホーム　せとうちの郷【地域密着型介護老人福祉施設入所者生活介護】岡山県岡山市東区西大寺北９６６", "url": "https://www.kaigokensaku.mhlw.go.jp/33/index.php?action_kouhyou_detail_004_kani=true&JigyosyoCd=3390101859-00&ServiceCd=540&Type=search", "url2": "http://www.tohkakai.jp/" }, "geometry": { "type": "Point", "coordinates": [ 134.040017848651928, 34.663095454238935 ] } },
{ "type": "Feature", "properties": { "内容": "特別養護老人ホーム　みよしの里【地域密着型介護老人福祉施設入所者生活介護】岡山市東区中川町835-1", "url": "https://www.kaigokensaku.mhlw.go.jp/33/index.php?action_kouhyou_detail_004_kani=true&JigyosyoCd=3390102238-00&ServiceCd=540&Type=search", "url2": "http://www.itsuhakai.jp" }, "geometry": { "type": "Point", "coordinates": [ 133.990096900000026, 34.668535 ] } },
{ "type": "Feature", "properties": { "内容": "地域密着型特別養護老人ホーム　あお鳩の杜　岡山東【地域密着型介護老人福祉施設入所者生活介護】岡山県岡山市東区瀬戸町鍛冶屋190番地", "url": "https://www.kaigokensaku.mhlw.go.jp/33/index.php?action_kouhyou_detail_004_kani=true&JigyosyoCd=3390102857-00&ServiceCd=540&Type=search", "url2": "http://poppo-kai.or.jp" }, "geometry": { "type": "Point", "coordinates": [ 134.0651235, 34.773042 ] } },
{ "type": "Feature", "properties": { "内容": "ラヴィシャイン小鳥の森苑【地域密着型介護老人福祉施設入所者生活介護】岡山県岡山市東区南古都６７６番地ラヴィシャイン小鳥の森苑", "url": "https://www.kaigokensaku.mhlw.go.jp/33/index.php?action_kouhyou_detail_004_kani=true&JigyosyoCd=3390102998-00&ServiceCd=540&Type=search", "url2": null }, "geometry": { "type": "Point", "coordinates": [ 134.0496623, 34.7030146 ] } },
{ "type": "Feature", "properties": { "内容": "特別養護老人ホーム藤田荘【地域密着型介護老人福祉施設入所者生活介護】岡山県岡山市南区藤田2662番地2", "url": "https://www.kaigokensaku.mhlw.go.jp/33/index.php?action_kouhyou_detail_004_kani=true&JigyosyoCd=3390100307-00&ServiceCd=540&Type=search", "url2": "http://www8.ocn.ne.jp/＾fujitaso/map.html" }, "geometry": { "type": "Point", "coordinates": [ 133.868575599999986, 34.5615406 ] } },
{ "type": "Feature", "properties": { "内容": "特別養護老人ホーム　けやき【地域密着型介護老人福祉施設入所者生活介護】岡山市南区築港元町2-31", "url": "https://www.kaigokensaku.mhlw.go.jp/33/index.php?action_kouhyou_detail_004_kani=true&JigyosyoCd=3390100679-00&ServiceCd=540&Type=search", "url2": "https://sato-hp.com" }, "geometry": { "type": "Point", "coordinates": [ 133.9491531, 34.6075161 ] } },
{ "type": "Feature", "properties": { "内容": "特別養護老人ホーム敬愛【地域密着型介護老人福祉施設入所者生活介護】岡山県岡山市南区福田480－5", "url": "https://www.kaigokensaku.mhlw.go.jp/33/index.php?action_kouhyou_detail_004_kani=true&JigyosyoCd=3390100919-00&ServiceCd=540&Type=search", "url2": "http://keiaigroup.com" }, "geometry": { "type": "Point", "coordinates": [ 133.920880099999977, 34.6181889 ] } },
{ "type": "Feature", "properties": { "内容": "特別養護老人ホームあずみ【地域密着型介護老人福祉施設入所者生活介護】岡山県岡山市中畦443-4", "url": "https://www.kaigokensaku.mhlw.go.jp/33/index.php?action_kouhyou_detail_004_kani=true&JigyosyoCd=3390101198-00&ServiceCd=540&Type=search", "url2": "https://meiseikai-azumi.jp" }, "geometry": { "type": "Point", "coordinates": [ 133.854349140475506, 34.579956232623111 ] } },
{ "type": "Feature", "properties": { "内容": "特別養護老人ホーム　若宮の杜【地域密着型介護老人福祉施設入所者生活介護】岡山県岡山市南区箕島３４９１－６", "url": "https://www.kaigokensaku.mhlw.go.jp/33/index.php?action_kouhyou_detail_004_kani=true&JigyosyoCd=3390101628-00&ServiceCd=540&Type=search", "url2": "http://junfuku.jp/" }, "geometry": { "type": "Point", "coordinates": [ 133.836780748787021, 34.614810511118797 ] } },
{ "type": "Feature", "properties": { "内容": "ピオーネ当新田【地域密着型介護老人福祉施設入所者生活介護】岡山県岡山市南区当新田482-51", "url": "https://www.kaigokensaku.mhlw.go.jp/33/index.php?action_kouhyou_detail_004_kani=true&JigyosyoCd=3390101792-00&ServiceCd=540&Type=search", "url2": "www.isto.or.jp" }, "geometry": { "type": "Point", "coordinates": [ 133.896762163337712, 34.622227111795034 ] } },
{ "type": "Feature", "properties": { "内容": "特別養護老人ホーム古新田げんき【地域密着型介護老人福祉施設入所者生活介護】岡山県岡山市南区古新田796-1", "url": "https://www.kaigokensaku.mhlw.go.jp/33/index.php?action_kouhyou_detail_004_kani=true&JigyosyoCd=3390102295-00&ServiceCd=540&Type=search", "url2": "http://okayama-kotobuki.sakura.ne.jp" }, "geometry": { "type": "Point", "coordinates": [ 133.871879916264561, 34.62890508984492 ] } },
{ "type": "Feature", "properties": { "内容": "特別養護老人ホーム　宮浦荘【地域密着型介護老人福祉施設入所者生活介護】宮浦209番地１", "url": "https://www.kaigokensaku.mhlw.go.jp/33/index.php?action_kouhyou_detail_004_kani=true&JigyosyoCd=3390102535-00&ServiceCd=540&Type=search", "url2": null }, "geometry": { "type": "Point", "coordinates": [ 133.981389368422896, 34.593190585785663 ] } },
{ "type": "Feature", "properties": { "内容": "特別養護老人ホーム天赦の里【地域密着型介護老人福祉施設入所者生活介護】岡山県岡山市南区福浜町19番17号", "url": "https://www.kaigokensaku.mhlw.go.jp/33/index.php?action_kouhyou_detail_004_kani=true&JigyosyoCd=3390101024-00&ServiceCd=540&Type=search", "url2": "http://www.midorikai-net.or.jp/tensyanosato/" }, "geometry": { "type": "Point", "coordinates": [ 133.943816800000036, 34.6196228 ] } },
{ "type": "Feature", "properties": { "内容": "地域密着型特別養護老人ホームあいの泉【地域密着型介護老人福祉施設入所者生活介護】岡山県倉敷市玉島1720-18", "url": "https://www.kaigokensaku.mhlw.go.jp/33/index.php?action_kouhyou_detail_004_kani=true&JigyosyoCd=3390200719-00&ServiceCd=540&Type=search", "url2": "http://www.sinkura-hsp.com/" }, "geometry": { "type": "Point", "coordinates": [ 133.681295259516105, 34.554847759170762 ] } },
{ "type": "Feature", "properties": { "内容": "地域密着型特別養護老人ホームめばえ【地域密着型介護老人福祉施設入所者生活介護】岡山県倉敷市連島町鶴新田1956-1", "url": "https://www.kaigokensaku.mhlw.go.jp/33/index.php?action_kouhyou_detail_004_kani=true&JigyosyoCd=3390201105-00&ServiceCd=540&Type=search", "url2": "https://www.aiikufukushi.or.jp" }, "geometry": { "type": "Point", "coordinates": [ 133.708047321998606, 34.538596725039561 ] } },
{ "type": "Feature", "properties": { "内容": "地域密着型特別養護老人ホームベネヴィータ王慈【地域密着型介護老人福祉施設入所者生活介護】児島田の口7-6-39", "url": "https://www.kaigokensaku.mhlw.go.jp/33/index.php?action_kouhyou_detail_004_kani=true&JigyosyoCd=3390201139-00&ServiceCd=540&Type=search", "url2": "http//www.ohji.ne.jp" }, "geometry": { "type": "Point", "coordinates": [ 133.839725899999962, 34.4725943 ] } },
{ "type": "Feature", "properties": { "内容": "地域密着型　特別養護老人ホーム　アミカル【地域密着型介護老人福祉施設入所者生活介護】岡山県倉敷市玉島１２７５番地１", "url": "https://www.kaigokensaku.mhlw.go.jp/33/index.php?action_kouhyou_detail_004_kani=true&JigyosyoCd=3390200982-00&ServiceCd=540&Type=search", "url2": "http://www.amical.or.jp/" }, "geometry": { "type": "Point", "coordinates": [ 133.684380082942198, 34.549073826137843 ] } },
{ "type": "Feature", "properties": { "内容": "地域密着型特別養護老人ホーム庄の里「なごやか」【地域密着型介護老人福祉施設入所者生活介護】岡山県倉敷市生坂698", "url": "https://www.kaigokensaku.mhlw.go.jp/33/index.php?action_kouhyou_detail_004_kani=true&JigyosyoCd=3390201170-00&ServiceCd=540&Type=search", "url2": "http://www.syounosato.or.jp/" }, "geometry": { "type": "Point", "coordinates": [ 133.789515385935943, 34.622460143833273 ] } },
{ "type": "Feature", "properties": { "内容": "地域密着型特別養護老人ホーム　のぞみ荘【地域密着型介護老人福祉施設入所者生活介護】岡山県倉敷市福田町福田234－1", "url": "https://www.kaigokensaku.mhlw.go.jp/33/index.php?action_kouhyou_detail_004_kani=true&JigyosyoCd=3390200990-00&ServiceCd=540&Type=search", "url2": "http://www.jpk.or.jp" }, "geometry": { "type": "Point", "coordinates": [ 133.775097040475458, 34.539000786675523 ] } },
{ "type": "Feature", "properties": { "内容": "地域密着型特別養護老人ホーム　ピースガーデン【地域密着型介護老人福祉施設入所者生活介護】岡山県倉敷市白楽町４０ピースガーデン倉敷　２F", "url": "https://www.kaigokensaku.mhlw.go.jp/33/index.php?action_kouhyou_detail_004_kani=true&JigyosyoCd=3390200867-00&ServiceCd=540&Type=search", "url2": "http://sw-zenjinkai.jp/peacegarden/peacegarden.html" }, "geometry": { "type": "Point", "coordinates": [ 133.763517249459824, 34.591842579223346 ] } },
{ "type": "Feature", "properties": { "内容": "あすなろテラス【地域密着型介護老人福祉施設入所者生活介護】玉島勇崎１０４４－３", "url": "https://www.kaigokensaku.mhlw.go.jp/33/index.php?action_kouhyou_detail_004_kani=true&JigyosyoCd=3390201451-00&ServiceCd=540&Type=search", "url2": "https://www.asunaro.or.jp/index.html" }, "geometry": { "type": "Point", "coordinates": [ 133.650458987244832, 34.519001815877701 ] } },
{ "type": "Feature", "properties": { "内容": "特別養護老人ホームうらたの里【地域密着型介護老人福祉施設入所者生活介護】岡山県倉敷市浦田1533番地2", "url": "https://www.kaigokensaku.mhlw.go.jp/33/index.php?action_kouhyou_detail_004_kani=true&JigyosyoCd=3390200834-00&ServiceCd=540&Type=search", "url2": "http://nijinosato-kurashiki.com/" }, "geometry": { "type": "Point", "coordinates": [ 133.765399, 34.565598700000024 ] } },
{ "type": "Feature", "properties": { "内容": "地域密着型特別養護老人ホームくらしき里桜【地域密着型介護老人福祉施設入所者生活介護】岡山県倉敷市中帯江400地域密着型特別養護老人ホームくらしき里桜", "url": "https://www.kaigokensaku.mhlw.go.jp/33/index.php?action_kouhyou_detail_004_kani=true&JigyosyoCd=3390201675-00&ServiceCd=540&Type=search", "url2": "https://kiryukai.com/" }, "geometry": { "type": "Point", "coordinates": [ 133.801607100000012, 34.5999236 ] } },
{ "type": "Feature", "properties": { "内容": "特別養護老人ホーム　みどりの杜【地域密着型介護老人福祉施設入所者生活介護】東塚1丁目12-3", "url": "https://www.kaigokensaku.mhlw.go.jp/33/index.php?action_kouhyou_detail_004_kani=true&JigyosyoCd=3390201576-00&ServiceCd=540&Type=search", "url2": "http://kunpoo.jp/" }, "geometry": { "type": "Point", "coordinates": [ 133.760789299999942, 34.5243953 ] } },
{ "type": "Feature", "properties": { "内容": "地域密着型特別養護老人ホームひかりの里【地域密着型介護老人福祉施設入所者生活介護】岡山県倉敷市玉島八島70番地1", "url": "https://www.kaigokensaku.mhlw.go.jp/33/index.php?action_kouhyou_detail_004_kani=true&JigyosyoCd=3390201352-00&ServiceCd=540&Type=search", "url2": "http://www.onkochishinkai.or.jp/" }, "geometry": { "type": "Point", "coordinates": [ 133.663806199999954, 34.557299199999989 ] } },
{ "type": "Feature", "properties": { "内容": "クレールエステート悠楽【地域密着型介護老人福祉施設入所者生活介護】岡山県倉敷市真備町有井1472", "url": "https://www.kaigokensaku.mhlw.go.jp/33/index.php?action_kouhyou_detail_004_kani=true&JigyosyoCd=3390201030-00&ServiceCd=540&Type=search", "url2": "http://www.kouraku.or.jp/" }, "geometry": { "type": "Point", "coordinates": [ 133.702662881306452, 34.636175067552919 ] } },
{ "type": "Feature", "properties": { "内容": "地域密着型特別養護老人ホームP.P.P.ブラヴィッシモ！通生【地域密着型介護老人福祉施設入所者生活介護】岡山県倉敷市児島通生818", "url": "https://www.kaigokensaku.mhlw.go.jp/33/index.php?action_kouhyou_detail_004_kani=true&JigyosyoCd=3390201360-00&ServiceCd=540&Type=search", "url2": "http://www.3flower.jp/" }, "geometry": { "type": "Point", "coordinates": [ 133.777605799999947, 34.4643385 ] } },
{ "type": "Feature", "properties": { "内容": "地域密着型特別養護老人ホーム　グリーンビレッジ瀬戸内【地域密着型介護老人福祉施設入所者生活介護】倉敷市船穂町柳井原2300-1", "url": "https://www.kaigokensaku.mhlw.go.jp/33/index.php?action_kouhyou_detail_004_kani=true&JigyosyoCd=3390200818-00&ServiceCd=540&Type=search", "url2": "http://www.setouchifukushi.jp" }, "geometry": { "type": "Point", "coordinates": [ 133.71580945833594, 34.610593401242276 ] } },
{ "type": "Feature", "properties": { "内容": "地域密着型特別養護老人ホームももちどり【地域密着型介護老人福祉施設入所者生活介護】水島東千鳥町２－６", "url": "https://www.kaigokensaku.mhlw.go.jp/33/index.php?action_kouhyou_detail_004_kani=true&JigyosyoCd=3390200537-00&ServiceCd=540&Type=search", "url2": "https://kyodofukushikai.com" }, "geometry": { "type": "Point", "coordinates": [ 133.740945675463081, 34.529685238811759 ] } },
{ "type": "Feature", "properties": { "内容": "地域密着型特別養護老人ホーム　くらしき日和　平田【地域密着型介護老人福祉施設入所者生活介護】岡山県倉敷市平田855", "url": "https://www.kaigokensaku.mhlw.go.jp/33/index.php?action_kouhyou_detail_004_kani=true&JigyosyoCd=3390201543-00&ServiceCd=540&Type=search", "url2": "https://soushin-fukushikai:.org/" }, "geometry": { "type": "Point", "coordinates": [ 133.784479499999946, 34.618597 ] } },
{ "type": "Feature", "properties": { "内容": "特別養護老人ホームハモニカドゥーエ【地域密着型介護老人福祉施設入所者生活介護】岡山県玉野市長尾2116", "url": "https://www.kaigokensaku.mhlw.go.jp/33/index.php?action_kouhyou_detail_004_kani=true&JigyosyoCd=3390400012-00&ServiceCd=540&Type=search", "url2": "http://www.hamonika.com" }, "geometry": { "type": "Point", "coordinates": [ 133.888355400000023, 34.4922815 ] } },
{ "type": "Feature", "properties": { "内容": "特別養護老人ホーム　いろりの里【地域密着型介護老人福祉施設入所者生活介護】玉野市八浜町波知555番地", "url": "https://www.kaigokensaku.mhlw.go.jp/33/index.php?action_kouhyou_detail_004_kani=true&JigyosyoCd=3390400087-00&ServiceCd=540&Type=search", "url2": "http://www.itsuhakai.jp" }, "geometry": { "type": "Point", "coordinates": [ 133.955273900000066, 34.5523234 ] } },
{ "type": "Feature", "properties": { "内容": "特別養護老人ホーム　夢【地域密着型介護老人福祉施設入所者生活介護】岡山県玉野市山田468-1", "url": "https://www.kaigokensaku.mhlw.go.jp/33/index.php?action_kouhyou_detail_004_kani=true&JigyosyoCd=3390400095-00&ServiceCd=540&Type=search", "url2": "https://yume-shinseikai.or.jp" }, "geometry": { "type": "Point", "coordinates": [ 133.988862700000027, 34.5472384 ] } },
{ "type": "Feature", "properties": { "内容": "特別養護老人ホーム海【地域密着型介護老人福祉施設入所者生活介護】岡山県笠岡市横島1944-1", "url": "https://www.kaigokensaku.mhlw.go.jp/33/index.php?action_kouhyou_detail_004_kani=true&JigyosyoCd=3390500126-00&ServiceCd=540&Type=search", "url2": "http://www.kabutokai.jp" }, "geometry": { "type": "Point", "coordinates": [ 133.519799400000011, 34.4786414 ] } },
{ "type": "Feature", "properties": { "内容": "小規模特別養護老人ホーム　みどりの丘【地域密着型介護老人福祉施設入所者生活介護】笠岡市笠岡5128－1", "url": "https://www.kaigokensaku.mhlw.go.jp/33/index.php?action_kouhyou_detail_004_kani=true&JigyosyoCd=3390500118-00&ServiceCd=540&Type=search", "url2": "https://suiseikai-group.jp/ryokufukai/" }, "geometry": { "type": "Point", "coordinates": [ 133.50693144658814, 34.512073857560914 ] } },
{ "type": "Feature", "properties": { "内容": "井原市特別養護老人ホーム星の郷【地域密着型介護老人福祉施設入所者生活介護】岡山県井原市美星町大倉２４６６番地", "url": "https://www.kaigokensaku.mhlw.go.jp/33/index.php?action_kouhyou_detail_004_kani=true&JigyosyoCd=3390700023-00&ServiceCd=540&Type=search", "url2": null }, "geometry": { "type": "Point", "coordinates": [ 133.532623343655388, 34.67443831561603 ] } },
{ "type": "Feature", "properties": { "内容": "特別養護老人ホームみずき【地域密着型介護老人福祉施設入所者生活介護】岡山県井原市東江原町1661-1", "url": "https://www.kaigokensaku.mhlw.go.jp/33/index.php?action_kouhyou_detail_004_kani=true&JigyosyoCd=3390700114-00&ServiceCd=540&Type=search", "url2": "https://mizuki-okayama.jp/" }, "geometry": { "type": "Point", "coordinates": [ 133.5135047, 34.5999243 ] } },
{ "type": "Feature", "properties": { "内容": "結いのさと愛家里【地域密着型介護老人福祉施設入所者生活介護】岡山県総社市秦330-1", "url": "https://www.kaigokensaku.mhlw.go.jp/33/index.php?action_kouhyou_detail_004_kani=true&JigyosyoCd=3390800161-00&ServiceCd=540&Type=search", "url2": "http://www.sesshu-fukushikai.or.jp/sereno/" }, "geometry": { "type": "Point", "coordinates": [ 133.70194339829888, 34.676430502805069 ] } },
{ "type": "Feature", "properties": { "内容": "地域密着型特別養護老人ホーム　まごころの里　高梁【地域密着型介護老人福祉施設入所者生活介護】岡山県高梁市福地380-1", "url": "https://www.kaigokensaku.mhlw.go.jp/33/index.php?action_kouhyou_detail_004_kani=true&JigyosyoCd=3390900128-00&ServiceCd=540&Type=search", "url2": "magokoro-ok.com" }, "geometry": { "type": "Point", "coordinates": [ 133.555344840475527, 34.782495429616752 ] } },
{ "type": "Feature", "properties": { "内容": "特別養護老人ホームちかのり【地域密着型介護老人福祉施設入所者生活介護】岡山県高梁市落合町近似1326-1", "url": "https://www.kaigokensaku.mhlw.go.jp/33/index.php?action_kouhyou_detail_004_kani=true&JigyosyoCd=3390900144-00&ServiceCd=540&Type=search", "url2": "http://fukumikai.or.jp/" }, "geometry": { "type": "Point", "coordinates": [ 133.609053087280245, 34.797032169279312 ] } },
{ "type": "Feature", "properties": { "内容": "地域密着型特別養護老人ホーム　高倉荘【地域密着型介護老人福祉施設入所者生活介護】高梁市高倉町飯部3344-1なし", "url": "https://www.kaigokensaku.mhlw.go.jp/33/index.php?action_kouhyou_detail_004_kani=true&JigyosyoCd=3390900102-00&ServiceCd=540&Type=search", "url2": "http://koushinkai-okayama.jp/" }, "geometry": { "type": "Point", "coordinates": [ 133.568730800000026, 34.8547083 ] } },
{ "type": "Feature", "properties": { "内容": "特別養護老人ホーム　深谷荘【地域密着型介護老人福祉施設入所者生活介護】岡山県備前市三石2791-1", "url": "https://www.kaigokensaku.mhlw.go.jp/33/index.php?action_kouhyou_detail_004_kani=true&JigyosyoCd=3391100074-00&ServiceCd=540&Type=search", "url2": "http://mitanisou.com/" }, "geometry": { "type": "Point", "coordinates": [ 134.279951399999959, 34.8157532 ] } },
{ "type": "Feature", "properties": { "内容": "特別養護老人ホーム悠の里【地域密着型介護老人福祉施設入所者生活介護】岡山県備前市木谷２１４", "url": "https://www.kaigokensaku.mhlw.go.jp/33/index.php?action_kouhyou_detail_004_kani=true&JigyosyoCd=3391100090-00&ServiceCd=540&Type=search", "url2": "http://yuyukai.or.jp/" }, "geometry": { "type": "Point", "coordinates": [ 134.22261883386841, 34.762512747661646 ] } },
{ "type": "Feature", "properties": { "内容": "特別養護老人ホーム　いやしの杜備前【地域密着型介護老人福祉施設入所者生活介護】岡山県備前市浦伊部721番地", "url": "https://www.kaigokensaku.mhlw.go.jp/33/index.php?action_kouhyou_detail_004_kani=true&JigyosyoCd=3391100082-00&ServiceCd=540&Type=search", "url2": "https://kojinkai.care" }, "geometry": { "type": "Point", "coordinates": [ 134.174279754630987, 34.732616122050672 ] } },
{ "type": "Feature", "properties": { "内容": "特別養護老人ホーム　あおさぎ【地域密着型介護老人福祉施設入所者生活介護】岡山県備前市日生町日生801", "url": "https://www.kaigokensaku.mhlw.go.jp/33/index.php?action_kouhyou_detail_004_kani=true&JigyosyoCd=3372300446-00&ServiceCd=540&Type=search", "url2": "http://www.keiyuu-kai.or.jp/top.html" }, "geometry": { "type": "Point", "coordinates": [ 134.271405299999969, 34.7289039 ] } },
{ "type": "Feature", "properties": { "内容": "特別養護老人ホーム紅葉川荘【地域密着型介護老人福祉施設入所者生活介護】岡山県備前市吉永町神根本61番地６", "url": "https://www.kaigokensaku.mhlw.go.jp/33/index.php?action_kouhyou_detail_004_kani=true&JigyosyoCd=3391100041-00&ServiceCd=540&Type=search", "url2": "sou@momiji-toubi.or.jp" }, "geometry": { "type": "Point", "coordinates": [ 134.23959590000004, 34.8431239 ] } },
{ "type": "Feature", "properties": { "内容": "特別養護老人ホーム　まごころの里　赤磐【地域密着型介護老人福祉施設入所者生活介護】岡山県赤磐市西軽部1244-1", "url": "https://www.kaigokensaku.mhlw.go.jp/33/index.php?action_kouhyou_detail_004_kani=true&JigyosyoCd=3392200063-00&ServiceCd=540&Type=search", "url2": "https://magokoro-ok.com/about" }, "geometry": { "type": "Point", "coordinates": [ 134.014841400000023, 34.8065907 ] } },
{ "type": "Feature", "properties": { "内容": "特別養護老人ホーム神庭荘Ⅱ【地域密着型介護老人福祉施設入所者生活介護】岡山県真庭市組370番地1", "url": "https://www.kaigokensaku.mhlw.go.jp/33/index.php?action_kouhyou_detail_004_kani=true&JigyosyoCd=3393400191-00&ServiceCd=540&Type=search", "url2": "http://f-keishinkai.jp" }, "geometry": { "type": "Point", "coordinates": [ 133.68966964362059, 35.095511159099551 ] } },
{ "type": "Feature", "properties": { "内容": "特別養護老人ホーム第二緑風荘【地域密着型介護老人福祉施設入所者生活介護】岡山県真庭市美甘３２６番地", "url": "https://www.kaigokensaku.mhlw.go.jp/33/index.php?action_kouhyou_detail_004_kani=true&JigyosyoCd=3393400027-00&ServiceCd=540&Type=search", "url2": "http://www.suimeikai.or.jp" }, "geometry": { "type": "Point", "coordinates": [ 133.626006252778637, 35.155163116949765 ] } },
{ "type": "Feature", "properties": { "内容": "特別養護老人ホームやすらぎ【地域密着型介護老人福祉施設入所者生活介護】岡山県真庭市下湯原４７番地", "url": "https://www.kaigokensaku.mhlw.go.jp/33/index.php?action_kouhyou_detail_004_kani=true&JigyosyoCd=3373401003-00&ServiceCd=540&Type=search", "url2": null }, "geometry": { "type": "Point", "coordinates": [ 133.735036900000068, 35.1876319 ] } },
{ "type": "Feature", "properties": { "内容": "特別養護老人ホーム高瀬【地域密着型介護老人福祉施設入所者生活介護】岡山県真庭市中島393番地1高瀬ヒルサイドテラス", "url": "https://www.kaigokensaku.mhlw.go.jp/33/index.php?action_kouhyou_detail_004_kani=true&JigyosyoCd=3393400126-00&ServiceCd=540&Type=search", "url2": "http://f-keishinkai.jp/" }, "geometry": { "type": "Point", "coordinates": [ 133.749366499999951, 35.0723966 ] } },
{ "type": "Feature", "properties": { "内容": "特別養護老人ホーム　千寿荘【地域密着型介護老人福祉施設入所者生活介護】岡山県真庭市蒜山上長田２８－１", "url": "https://www.kaigokensaku.mhlw.go.jp/33/index.php?action_kouhyou_detail_004_kani=true&JigyosyoCd=3393400183-00&ServiceCd=540&Type=search", "url2": "https://senju-sou.com/" }, "geometry": { "type": "Point", "coordinates": [ 133.687347199999977, 35.2863203 ] } },
{ "type": "Feature", "properties": { "内容": "特別養護老人ホーム　檜山荘【地域密着型介護老人福祉施設入所者生活介護】上市瀬1050-39", "url": "https://www.kaigokensaku.mhlw.go.jp/33/index.php?action_kouhyou_detail_004_kani=true&JigyosyoCd=3393400209-00&ServiceCd=540&Type=search", "url2": "http://Kaizansou.nobushi.jp" }, "geometry": { "type": "Point", "coordinates": [ 133.741926189410378, 35.029710287070998 ] } },
{ "type": "Feature", "properties": { "内容": "総合ケアサービスセンターかつた【地域密着型介護老人福祉施設入所者生活介護】岡山県美作市大町１７２７番地", "url": "https://www.kaigokensaku.mhlw.go.jp/33/index.php?action_kouhyou_detail_004_kani=true&JigyosyoCd=3373600349-00&ServiceCd=540&Type=search", "url2": "http://ns.nihonbara.or.jp/page013.html" }, "geometry": { "type": "Point", "coordinates": [ 134.198626800000056, 35.0712163 ] } },
{ "type": "Feature", "properties": { "内容": "美作特別養護老人ホームやすらぎ荘【地域密着型介護老人福祉施設入所者生活介護】岡山県美作市古町1707-3", "url": "https://www.kaigokensaku.mhlw.go.jp/33/index.php?action_kouhyou_detail_004_kani=true&JigyosyoCd=3393700079-00&ServiceCd=540&Type=search", "url2": "http://wwwkeizankai1993.jp/yasuragisou/" }, "geometry": { "type": "Point", "coordinates": [ 134.326719599999933, 35.1217997 ] } },
{ "type": "Feature", "properties": { "内容": "特別養護老人ホーム矢掛荘　ユニット型地域密着型【地域密着型介護老人福祉施設入所者生活介護】岡山県小田郡矢掛町南山田3044-12", "url": "https://www.kaigokensaku.mhlw.go.jp/33/index.php?action_kouhyou_detail_004_kani=true&JigyosyoCd=3392800037-00&ServiceCd=540&Type=search", "url2": "http://yakage-so.jp" }, "geometry": { "type": "Point", "coordinates": [ 133.613008900000068, 34.5853672 ] } },
{ "type": "Feature", "properties": { "内容": "地域密着型特別養護老人ホーム新宅【地域密着型介護老人福祉施設入所者生活介護】苫田郡鏡野町公保田155-1", "url": "https://www.kaigokensaku.mhlw.go.jp/33/index.php?action_kouhyou_detail_004_kani=true&JigyosyoCd=3393500073-00&ServiceCd=540&Type=search", "url2": "http://www.mto.ne.jp/tyoujyu/" }, "geometry": { "type": "Point", "coordinates": [ 133.953860100000043, 35.108004 ] } },
{ "type": "Feature", "properties": { "内容": "特別養護老人ホームなぎみ苑（ユニット型）【地域密着型介護老人福祉施設入所者生活介護】岡山県勝田郡奈義町広岡30", "url": "https://www.kaigokensaku.mhlw.go.jp/33/index.php?action_kouhyou_detail_004_kani=true&JigyosyoCd=3393600048-00&ServiceCd=540&Type=search", "url2": "http://www.jifu-kai.or.jp" }, "geometry": { "type": "Point", "coordinates": [ 134.166784199999938, 35.1158719 ] } },
{ "type": "Feature", "properties": { "内容": "地域密着型特別養護老人ホーム　わかば【地域密着型介護老人福祉施設入所者生活介護】岡山県久米郡美咲町打穴下412-5", "url": "https://www.kaigokensaku.mhlw.go.jp/33/index.php?action_kouhyou_detail_004_kani=true&JigyosyoCd=3393800028-00&ServiceCd=540&Type=search", "url2": "http://www.hakujuso.or.jp" }, "geometry": { "type": "Point", "coordinates": [ 133.938782800000013, 35.0277324 ] } },
{ "type": "Feature", "properties": { "内容": "地域密着型特別養護老人ホーム　あさひが丘【地域密着型介護老人福祉施設入所者生活介護】岡山県久米郡美咲町東垪和190", "url": "https://www.kaigokensaku.mhlw.go.jp/33/index.php?action_kouhyou_detail_004_kani=true&JigyosyoCd=3393800044-00&ServiceCd=540&Type=search", "url2": "www.fukushiokayama.or.jp/misaki/Misaki.html" }, "geometry": { "type": "Point", "coordinates": [ 133.846339400000033, 34.9677464 ] } },
{ "type": "Feature", "properties": { "内容": "特別養護老人ホーム　吉井川荘【地域密着型介護老人福祉施設入所者生活介護】岡山県久米郡美咲町吉ヶ原８３８", "url": "https://www.kaigokensaku.mhlw.go.jp/33/index.php?action_kouhyou_detail_004_kani=true&JigyosyoCd=3393800051-00&ServiceCd=540&Type=search", "url2": "https://yoshiigawa.jp" }, "geometry": { "type": "Point", "coordinates": [ 134.076601100000062, 34.9432725 ] } }
]
}
