{
"type": "FeatureCollection",
"name": "geo_33_中学校",
"crs": { "type": "name", "properties": { "name": "urn:ogc:def:crs:EPSG::6668" } },
"features": [
{ "type": "Feature", "properties": { "P29_001": "33102", "P29_002": "C133110000010", "P29_003": "16002", "P29_004": "岡山大学教育学部附属中学校", "P29_005": "岡山県岡山市中区東山2-13-80", "P29_006": "1", "P29_007": "1", "P29_008": "00", "P29_009": null }, "geometry": { "type": "Point", "coordinates": [ 133.943102837089725, 34.652825696554167 ] } },
{ "type": "Feature", "properties": { "P29_001": "33101", "P29_002": "C133210000018", "P29_003": "16002", "P29_004": "岡山市立岡北中学校", "P29_005": "岡山県岡山市北区津島東1-1-1", "P29_006": "3", "P29_007": "1", "P29_008": "00", "P29_009": null }, "geometry": { "type": "Point", "coordinates": [ 133.927013884007522, 34.686931730491736 ] } },
{ "type": "Feature", "properties": { "P29_001": "33101", "P29_002": "C133210000027", "P29_003": "16002", "P29_004": "岡山市立石井中学校", "P29_005": "岡山県岡山市北区下伊福上町10-9", "P29_006": "3", "P29_007": "1", "P29_008": "00", "P29_009": null }, "geometry": { "type": "Point", "coordinates": [ 133.90160104829036, 34.667594903778479 ] } },
{ "type": "Feature", "properties": { "P29_001": "33101", "P29_002": "C133210000036", "P29_003": "16002", "P29_004": "岡山市立桑田中学校", "P29_005": "岡山県岡山市北区東島田町2-3-35", "P29_006": "3", "P29_007": "1", "P29_008": "00", "P29_009": null }, "geometry": { "type": "Point", "coordinates": [ 133.91379560039303, 34.657524149162533 ] } },
{ "type": "Feature", "properties": { "P29_001": "33101", "P29_002": "C133210000045", "P29_003": "16002", "P29_004": "岡山市立岡輝中学校", "P29_005": "岡山県岡山市北区岡町12-17", "P29_006": "3", "P29_007": "1", "P29_008": "00", "P29_009": null }, "geometry": { "type": "Point", "coordinates": [ 133.922822602935213, 34.648259914865292 ] } },
{ "type": "Feature", "properties": { "P29_001": "33104", "P29_002": "C133210000054", "P29_003": "16002", "P29_004": "岡山市立福浜中学校", "P29_005": "岡山県岡山市南区三浜町2-3-26", "P29_006": "3", "P29_007": "1", "P29_008": "00", "P29_009": null }, "geometry": { "type": "Point", "coordinates": [ 133.944308531731281, 34.616534518504338 ] } },
{ "type": "Feature", "properties": { "P29_001": "33102", "P29_002": "C133210000063", "P29_003": "16002", "P29_004": "岡山市立東山中学校", "P29_005": "岡山県岡山市中区御幸町13-3", "P29_006": "3", "P29_007": "1", "P29_008": "00", "P29_009": null }, "geometry": { "type": "Point", "coordinates": [ 133.933990209488741, 34.652434303453603 ] } },
{ "type": "Feature", "properties": { "P29_001": "33102", "P29_002": "C133210000072", "P29_003": "16002", "P29_004": "岡山市立操山中学校", "P29_005": "岡山県岡山市中区国富3-11-1", "P29_006": "3", "P29_007": "1", "P29_008": "00", "P29_009": null }, "geometry": { "type": "Point", "coordinates": [ 133.950245229232564, 34.666981383910411 ] } },
{ "type": "Feature", "properties": { "P29_001": "33102", "P29_002": "C133210000081", "P29_003": "16002", "P29_004": "岡山市立操南中学校", "P29_005": "岡山県岡山市中区藤崎130-2", "P29_006": "3", "P29_007": "1", "P29_008": "00", "P29_009": null }, "geometry": { "type": "Point", "coordinates": [ 133.968277701193699, 34.631483494097495 ] } },
{ "type": "Feature", "properties": { "P29_001": "33101", "P29_002": "C133210000090", "P29_003": "16002", "P29_004": "岡山市立御南中学校", "P29_005": "岡山県岡山市北区田中581", "P29_006": "3", "P29_007": "1", "P29_008": "00", "P29_009": null }, "geometry": { "type": "Point", "coordinates": [ 133.880501859795999, 34.638398985200254 ] } },
{ "type": "Feature", "properties": { "P29_001": "33104", "P29_002": "C133210000107", "P29_003": "16002", "P29_004": "岡山市立光南台中学校", "P29_005": "岡山県岡山市南区飽浦390", "P29_006": "3", "P29_007": "1", "P29_008": "00", "P29_009": null }, "geometry": { "type": "Point", "coordinates": [ 133.973375677173919, 34.591266843735063 ] } },
{ "type": "Feature", "properties": { "P29_001": "33102", "P29_002": "C133210000116", "P29_003": "16002", "P29_004": "岡山市立竜操中学校", "P29_005": "岡山県岡山市中区赤田188-1", "P29_006": "3", "P29_007": "1", "P29_008": "00", "P29_009": null }, "geometry": { "type": "Point", "coordinates": [ 133.966710911896541, 34.681493731960863 ] } },
{ "type": "Feature", "properties": { "P29_001": "33101", "P29_002": "C133210000125", "P29_003": "16002", "P29_004": "岡山市立京山中学校", "P29_005": "岡山県岡山市北区津島京町1-7-1", "P29_006": "3", "P29_007": "1", "P29_008": "00", "P29_009": null }, "geometry": { "type": "Point", "coordinates": [ 133.901188388073166, 34.681144664345418 ] } },
{ "type": "Feature", "properties": { "P29_001": "33104", "P29_002": "C133210000134", "P29_003": "16002", "P29_004": "岡山市立福南中学校", "P29_005": "岡山県岡山市南区築港ひかり町10-35", "P29_006": "3", "P29_007": "1", "P29_008": "00", "P29_009": null }, "geometry": { "type": "Point", "coordinates": [ 133.938168660123154, 34.601821705798827 ] } },
{ "type": "Feature", "properties": { "P29_001": "33104", "P29_002": "C133210000143", "P29_003": "16002", "P29_004": "岡山市立芳泉中学校", "P29_005": "岡山県岡山市南区芳泉3-2-1", "P29_006": "3", "P29_007": "1", "P29_008": "00", "P29_009": null }, "geometry": { "type": "Point", "coordinates": [ 133.916899001144998, 34.622562810495154 ] } },
{ "type": "Feature", "properties": { "P29_001": "33102", "P29_002": "C133210000152", "P29_003": "16002", "P29_004": "岡山市立高島中学校", "P29_005": "岡山県岡山市中区賞田190-1", "P29_006": "3", "P29_007": "1", "P29_008": "00", "P29_009": null }, "geometry": { "type": "Point", "coordinates": [ 133.959592824490755, 34.693254109462771 ] } },
{ "type": "Feature", "properties": { "P29_001": "33104", "P29_002": "C133210000161", "P29_003": "16002", "P29_004": "岡山市立芳田中学校", "P29_005": "岡山県岡山市南区当新田468-1", "P29_006": "3", "P29_007": "1", "P29_008": "00", "P29_009": null }, "geometry": { "type": "Point", "coordinates": [ 133.900309654963877, 34.622518081694395 ] } },
{ "type": "Feature", "properties": { "P29_001": "33102", "P29_002": "C133210000170", "P29_003": "16002", "P29_004": "岡山市立富山中学校", "P29_005": "岡山県岡山市中区海吉1462-5", "P29_006": "3", "P29_007": "1", "P29_008": "00", "P29_009": null }, "geometry": { "type": "Point", "coordinates": [ 133.989544984841473, 34.66368234913282 ] } },
{ "type": "Feature", "properties": { "P29_001": "33101", "P29_002": "C133210000189", "P29_003": "16002", "P29_004": "岡山市立岡山後楽館中学校", "P29_005": "岡山県岡山市北区南方1-3-15", "P29_006": "3", "P29_007": "1", "P29_008": "00", "P29_009": null }, "geometry": { "type": "Point", "coordinates": [ 133.923034757053273, 34.672403735309913 ] } },
{ "type": "Feature", "properties": { "P29_001": "33101", "P29_002": "C133210000198", "P29_003": "16002", "P29_004": "岡山市立岡山中央中学校", "P29_005": "岡山県岡山市北区蕃山町6-10", "P29_006": "3", "P29_007": "1", "P29_008": "00", "P29_009": null }, "geometry": { "type": "Point", "coordinates": [ 133.927742049131723, 34.668420795033811 ] } },
{ "type": "Feature", "properties": { "P29_001": "33202", "P29_002": "C133210000205", "P29_003": "16002", "P29_004": "倉敷市立東中学校", "P29_005": "岡山県倉敷市平田155-100", "P29_006": "3", "P29_007": "1", "P29_008": "00", "P29_009": null }, "geometry": { "type": "Point", "coordinates": [ 133.776109842257853, 34.612415281456954 ] } },
{ "type": "Feature", "properties": { "P29_001": "33202", "P29_002": "C133210000214", "P29_003": "16002", "P29_004": "倉敷市立西中学校", "P29_005": "岡山県倉敷市日吉町205", "P29_006": "3", "P29_007": "1", "P29_008": "00", "P29_009": null }, "geometry": { "type": "Point", "coordinates": [ 133.754864044215992, 34.598912228900957 ] } },
{ "type": "Feature", "properties": { "P29_001": "33202", "P29_002": "C133210000223", "P29_003": "16002", "P29_004": "倉敷市立南中学校", "P29_005": "岡山県倉敷市西富井1387", "P29_006": "3", "P29_007": "1", "P29_008": "00", "P29_009": null }, "geometry": { "type": "Point", "coordinates": [ 133.744534294916207, 34.573230902269074 ] } },
{ "type": "Feature", "properties": { "P29_001": "33202", "P29_002": "C133210000232", "P29_003": "16002", "P29_004": "倉敷市立北中学校", "P29_005": "岡山県倉敷市中庄505", "P29_006": "3", "P29_007": "1", "P29_008": "00", "P29_009": null }, "geometry": { "type": "Point", "coordinates": [ 133.788888598080547, 34.620363697796947 ] } },
{ "type": "Feature", "properties": { "P29_001": "33202", "P29_002": "C133210000241", "P29_003": "16002", "P29_004": "倉敷市立多津美中学校", "P29_005": "岡山県倉敷市有城986", "P29_006": "3", "P29_007": "1", "P29_008": "00", "P29_009": null }, "geometry": { "type": "Point", "coordinates": [ 133.799582014077771, 34.575137841029964 ] } },
{ "type": "Feature", "properties": { "P29_001": "33202", "P29_002": "C133210000250", "P29_003": "16002", "P29_004": "倉敷市立倉敷第一中学校", "P29_005": "岡山県倉敷市西阿知町1070", "P29_006": "3", "P29_007": "1", "P29_008": "00", "P29_009": null }, "geometry": { "type": "Point", "coordinates": [ 133.728603852587355, 34.584180667333904 ] } },
{ "type": "Feature", "properties": { "P29_001": "33202", "P29_002": "C133210000269", "P29_003": "16002", "P29_004": "倉敷市立福田中学校", "P29_005": "岡山県倉敷市福田町古新田533-1", "P29_006": "3", "P29_007": "1", "P29_008": "00", "P29_009": null }, "geometry": { "type": "Point", "coordinates": [ 133.760976046918699, 34.536860910971754 ] } },
{ "type": "Feature", "properties": { "P29_001": "33202", "P29_002": "C133210000278", "P29_003": "16002", "P29_004": "倉敷市立水島中学校", "P29_005": "岡山県倉敷市水島北幸町3-1", "P29_006": "3", "P29_007": "1", "P29_008": "00", "P29_009": null }, "geometry": { "type": "Point", "coordinates": [ 133.740521798627213, 34.540646360735067 ] } },
{ "type": "Feature", "properties": { "P29_001": "33202", "P29_002": "C133210000287", "P29_003": "16002", "P29_004": "倉敷市立連島中学校", "P29_005": "岡山県倉敷市連島中央5-6-1", "P29_006": "3", "P29_007": "1", "P29_008": "00", "P29_009": null }, "geometry": { "type": "Point", "coordinates": [ 133.726430504247588, 34.545706621352622 ] } },
{ "type": "Feature", "properties": { "P29_001": "33202", "P29_002": "C133210000296", "P29_003": "16002", "P29_004": "倉敷市立味野中学校", "P29_005": "岡山県倉敷市児島味野4-2-56", "P29_006": "3", "P29_007": "1", "P29_008": "00", "P29_009": null }, "geometry": { "type": "Point", "coordinates": [ 133.801568178872373, 34.463916692822799 ] } },
{ "type": "Feature", "properties": { "P29_001": "33202", "P29_002": "C133210000303", "P29_003": "16002", "P29_004": "倉敷市立下津井中学校", "P29_005": "岡山県倉敷市下津井吹上140", "P29_006": "3", "P29_007": "1", "P29_008": "00", "P29_009": null }, "geometry": { "type": "Point", "coordinates": [ 133.802411147897971, 34.442884292346612 ] } },
{ "type": "Feature", "properties": { "P29_001": "33202", "P29_002": "C133210000312", "P29_003": "16002", "P29_004": "倉敷市立児島中学校", "P29_005": "岡山県倉敷市児島小川4-7-34", "P29_006": "3", "P29_007": "1", "P29_008": "00", "P29_009": null }, "geometry": { "type": "Point", "coordinates": [ 133.805150029388045, 34.475790670368745 ] } },
{ "type": "Feature", "properties": { "P29_001": "33202", "P29_002": "C133210000321", "P29_003": "16002", "P29_004": "倉敷市立琴浦中学校", "P29_005": "岡山県倉敷市児島下の町8-6-6", "P29_006": "3", "P29_007": "1", "P29_008": "00", "P29_009": null }, "geometry": { "type": "Point", "coordinates": [ 133.831457110706395, 34.479499362731545 ] } },
{ "type": "Feature", "properties": { "P29_001": "33202", "P29_002": "C133210000330", "P29_003": "16002", "P29_004": "倉敷市立郷内中学校", "P29_005": "岡山県倉敷市林620", "P29_006": "3", "P29_007": "1", "P29_008": "00", "P29_009": null }, "geometry": { "type": "Point", "coordinates": [ 133.815253868511576, 34.53849858680821 ] } },
{ "type": "Feature", "properties": { "P29_001": "33202", "P29_002": "C133210000349", "P29_003": "16002", "P29_004": "倉敷市立玉島東中学校", "P29_005": "岡山県倉敷市玉島2-21-1", "P29_006": "3", "P29_007": "1", "P29_008": "00", "P29_009": null }, "geometry": { "type": "Point", "coordinates": [ 133.679093488648675, 34.540842069173621 ] } },
{ "type": "Feature", "properties": { "P29_001": "33202", "P29_002": "C133210000358", "P29_003": "16002", "P29_004": "倉敷市立玉島西中学校", "P29_005": "岡山県倉敷市玉島柏島1548", "P29_006": "3", "P29_007": "1", "P29_008": "00", "P29_009": null }, "geometry": { "type": "Point", "coordinates": [ 133.66074104648564, 34.531766939490886 ] } },
{ "type": "Feature", "properties": { "P29_001": "33202", "P29_002": "C133210000367", "P29_003": "16002", "P29_004": "倉敷市立玉島北中学校", "P29_005": "岡山県倉敷市玉島八島1529-1", "P29_006": "3", "P29_007": "1", "P29_008": "00", "P29_009": null }, "geometry": { "type": "Point", "coordinates": [ 133.670691874616665, 34.563107541583051 ] } },
{ "type": "Feature", "properties": { "P29_001": "33202", "P29_002": "C133210000376", "P29_003": "16002", "P29_004": "倉敷市立黒崎中学校", "P29_005": "岡山県倉敷市玉島黒崎6057", "P29_006": "3", "P29_007": "1", "P29_008": "00", "P29_009": null }, "geometry": { "type": "Point", "coordinates": [ 133.633531678347737, 34.504519686627788 ] } },
{ "type": "Feature", "properties": { "P29_001": "33202", "P29_002": "C133210000385", "P29_003": "16002", "P29_004": "倉敷市立東陽中学校", "P29_005": "岡山県倉敷市高須賀315", "P29_006": "3", "P29_007": "1", "P29_008": "00", "P29_009": null }, "geometry": { "type": "Point", "coordinates": [ 133.822115463699049, 34.582805291105075 ] } },
{ "type": "Feature", "properties": { "P29_001": "33202", "P29_002": "C133210000394", "P29_003": "16002", "P29_004": "倉敷市立福田南中学校", "P29_005": "岡山県倉敷市福田町古新田711-4", "P29_006": "3", "P29_007": "1", "P29_008": "00", "P29_009": null }, "geometry": { "type": "Point", "coordinates": [ 133.762776455801912, 34.534911025219017 ] } },
{ "type": "Feature", "properties": { "P29_001": "33202", "P29_002": "C133210000401", "P29_003": "16002", "P29_004": "倉敷市立新田中学校", "P29_005": "岡山県倉敷市新田2674-3", "P29_006": "3", "P29_007": "1", "P29_008": "00", "P29_009": null }, "geometry": { "type": "Point", "coordinates": [ 133.774298000905958, 34.571736997671657 ] } },
{ "type": "Feature", "properties": { "P29_001": "33202", "P29_002": "C133210000410", "P29_003": "16002", "P29_004": "倉敷市立連島南中学校", "P29_005": "岡山県倉敷市連島町鶴新田1310", "P29_006": "3", "P29_007": "1", "P29_008": "00", "P29_009": null }, "geometry": { "type": "Point", "coordinates": [ 133.717735742215808, 34.541956754431482 ] } },
{ "type": "Feature", "properties": { "P29_001": "33202", "P29_002": "C133210000429", "P29_003": "16002", "P29_004": "岡山県立倉敷天城中学校", "P29_005": "岡山県倉敷市藤戸町天城269", "P29_006": "2", "P29_007": "1", "P29_008": "00", "P29_009": null }, "geometry": { "type": "Point", "coordinates": [ 133.810963879583085, 34.564065151889231 ] } },
{ "type": "Feature", "properties": { "P29_001": "33203", "P29_002": "C133210000438", "P29_003": "16002", "P29_004": "津山市立北陵中学校", "P29_005": "岡山県津山市大田160", "P29_006": "3", "P29_007": "1", "P29_008": "00", "P29_009": null }, "geometry": { "type": "Point", "coordinates": [ 134.009613754473804, 35.08686481584143 ] } },
{ "type": "Feature", "properties": { "P29_001": "33203", "P29_002": "C133210000447", "P29_003": "16002", "P29_004": "津山市立鶴山中学校", "P29_005": "岡山県津山市山北290", "P29_006": "3", "P29_007": "1", "P29_008": "00", "P29_009": null }, "geometry": { "type": "Point", "coordinates": [ 133.999600465254758, 35.071668764234666 ] } },
{ "type": "Feature", "properties": { "P29_001": "33203", "P29_002": "C133210000456", "P29_003": "16002", "P29_004": "津山市立津山東中学校", "P29_005": "岡山県津山市押入1110", "P29_006": "3", "P29_007": "1", "P29_008": "00", "P29_009": null }, "geometry": { "type": "Point", "coordinates": [ 134.037401770911117, 35.066457911949428 ] } },
{ "type": "Feature", "properties": { "P29_001": "33203", "P29_002": "C133210000465", "P29_003": "16002", "P29_004": "津山市立津山西中学校", "P29_005": "岡山県津山市二宮1256-1", "P29_006": "3", "P29_007": "1", "P29_008": "00", "P29_009": null }, "geometry": { "type": "Point", "coordinates": [ 133.972345663903269, 35.062695265260167 ] } },
{ "type": "Feature", "properties": { "P29_001": "33203", "P29_002": "C133210000474", "P29_003": "16002", "P29_004": "津山市立中道中学校", "P29_005": "岡山県津山市勝部355", "P29_006": "3", "P29_007": "1", "P29_008": "00", "P29_009": null }, "geometry": { "type": "Point", "coordinates": [ 134.021173878262715, 35.086047138944856 ] } },
{ "type": "Feature", "properties": { "P29_001": "33203", "P29_002": "C133210000483", "P29_003": "16002", "P29_004": "岡山県立津山中学校", "P29_005": "岡山県津山市椿高下62", "P29_006": "2", "P29_007": "1", "P29_008": "00", "P29_009": null }, "geometry": { "type": "Point", "coordinates": [ 134.000930496345518, 35.067641567201889 ] } },
{ "type": "Feature", "properties": { "P29_001": "33204", "P29_002": "C133210000492", "P29_003": "16002", "P29_004": "玉野市立宇野中学校", "P29_005": "岡山県玉野市築港2-27-1", "P29_006": "3", "P29_007": "1", "P29_008": "00", "P29_009": null }, "geometry": { "type": "Point", "coordinates": [ 133.949783424806412, 34.498437773490011 ] } },
{ "type": "Feature", "properties": { "P29_001": "33204", "P29_002": "C133210000508", "P29_003": "16002", "P29_004": "玉野市立玉中学校", "P29_005": "岡山県玉野市奥玉1-27-1", "P29_006": "3", "P29_007": "1", "P29_008": "00", "P29_009": null }, "geometry": { "type": "Point", "coordinates": [ 133.921442468454444, 34.489097914431312 ] } },
{ "type": "Feature", "properties": { "P29_001": "33204", "P29_002": "C133210000517", "P29_003": "16002", "P29_004": "玉野市立日比中学校", "P29_005": "岡山県玉野市和田6-13-1", "P29_006": "3", "P29_007": "1", "P29_008": "00", "P29_009": null }, "geometry": { "type": "Point", "coordinates": [ 133.916918888798961, 34.471026688021183 ] } },
{ "type": "Feature", "properties": { "P29_001": "33204", "P29_002": "C133210000526", "P29_003": "16002", "P29_004": "玉野市立山田中学校", "P29_005": "岡山県玉野市後閑1995", "P29_006": "3", "P29_007": "1", "P29_008": "00", "P29_009": null }, "geometry": { "type": "Point", "coordinates": [ 133.989308337921614, 34.529013072096959 ] } },
{ "type": "Feature", "properties": { "P29_001": "33204", "P29_002": "C133210000535", "P29_003": "16002", "P29_004": "玉野市立荘内中学校", "P29_005": "岡山県玉野市木目1373", "P29_006": "3", "P29_007": "1", "P29_008": "00", "P29_009": null }, "geometry": { "type": "Point", "coordinates": [ 133.889746004862531, 34.506714534188596 ] } },
{ "type": "Feature", "properties": { "P29_001": "33204", "P29_002": "C133210000544", "P29_003": "16002", "P29_004": "玉野市立八浜中学校", "P29_005": "岡山県玉野市八浜町八浜1438", "P29_006": "3", "P29_007": "1", "P29_008": "00", "P29_009": null }, "geometry": { "type": "Point", "coordinates": [ 133.943511293347882, 34.555484113171069 ] } },
{ "type": "Feature", "properties": { "P29_001": "33205", "P29_002": "C133210000553", "P29_003": "16002", "P29_004": "笠岡市立笠岡東中学校", "P29_005": "岡山県笠岡市西大島新田15-3", "P29_006": "3", "P29_007": "1", "P29_008": "00", "P29_009": null }, "geometry": { "type": "Point", "coordinates": [ 133.530666478512586, 34.495463520044908 ] } },
{ "type": "Feature", "properties": { "P29_001": "33205", "P29_002": "C133210000562", "P29_003": "16002", "P29_004": "笠岡市立笠岡西中学校", "P29_005": "岡山県笠岡市笠岡3797", "P29_006": "3", "P29_007": "1", "P29_008": "00", "P29_009": null }, "geometry": { "type": "Point", "coordinates": [ 133.515093779084395, 34.519445987431844 ] } },
{ "type": "Feature", "properties": { "P29_001": "33205", "P29_002": "C133210000571", "P29_003": "16002", "P29_004": "笠岡市立金浦中学校", "P29_005": "岡山県笠岡市吉浜1830-2", "P29_006": "3", "P29_007": "1", "P29_008": "00", "P29_009": null }, "geometry": { "type": "Point", "coordinates": [ 133.481527537895772, 34.520264738170418 ] } },
{ "type": "Feature", "properties": { "P29_001": "33205", "P29_002": "C133210000580", "P29_003": "16002", "P29_004": "笠岡市立新吉中学校", "P29_005": "岡山県笠岡市山口3341", "P29_006": "3", "P29_007": "1", "P29_008": "00", "P29_009": null }, "geometry": { "type": "Point", "coordinates": [ 133.529210901858448, 34.566842549693632 ] } },
{ "type": "Feature", "properties": { "P29_001": "33205", "P29_002": "C133210000599", "P29_003": "16002", "P29_004": "笠岡市立大島中学校", "P29_005": "岡山県笠岡市大島中7291-1", "P29_006": "3", "P29_007": "1", "P29_008": "00", "P29_009": null }, "geometry": { "type": "Point", "coordinates": [ 133.555490820728039, 34.481933118342525 ] } },
{ "type": "Feature", "properties": { "P29_001": "33205", "P29_002": "C133210000606", "P29_003": "16002", "P29_004": "笠岡市立神島外中学校", "P29_005": "岡山県笠岡市神島外浦1555", "P29_006": "3", "P29_007": "1", "P29_008": "00", "P29_009": null }, "geometry": { "type": "Point", "coordinates": [ 133.514802924490397, 34.451175086940871 ] } },
{ "type": "Feature", "properties": { "P29_001": "33205", "P29_002": "C133210000615", "P29_003": "16002", "P29_004": "笠岡市立白石中学校", "P29_005": "岡山県笠岡市白石島2482-1", "P29_006": "3", "P29_007": "9", "P29_008": "00", "P29_009": null }, "geometry": { "type": "Point", "coordinates": [ 133.519209434750934, 34.405121025281218 ] } },
{ "type": "Feature", "properties": { "P29_001": "33205", "P29_002": "C133210000624", "P29_003": "16002", "P29_004": "笠岡市立北木中学校", "P29_005": "岡山県笠岡市北木島町13198-1", "P29_006": "3", "P29_007": "9", "P29_008": "00", "P29_009": null }, "geometry": { "type": "Point", "coordinates": [ 133.545105604793491, 34.382714550198997 ] } },
{ "type": "Feature", "properties": { "P29_001": "33205", "P29_002": "C133210000633", "P29_003": "16002", "P29_004": "笠岡市立真鍋中学校", "P29_005": "岡山県笠岡市真鍋島4240", "P29_006": "3", "P29_007": "1", "P29_008": "00", "P29_009": null }, "geometry": { "type": "Point", "coordinates": [ 133.577917697786148, 34.352967688511207 ] } },
{ "type": "Feature", "properties": { "P29_001": "33205", "P29_002": "C133210000642", "P29_003": "16002", "P29_004": "笠岡市・矢掛町中学校組合立小北中学校", "P29_005": "岡山県笠岡市甲弩1810-3", "P29_006": "3", "P29_007": "1", "P29_008": "00", "P29_009": null }, "geometry": { "type": "Point", "coordinates": [ 133.539989213492788, 34.592748736093831 ] } },
{ "type": "Feature", "properties": { "P29_001": "33103", "P29_002": "C133210000651", "P29_003": "16002", "P29_004": "岡山市立西大寺中学校", "P29_005": "岡山県岡山市東区西大寺上1-20-60", "P29_006": "3", "P29_007": "1", "P29_008": "00", "P29_009": null }, "geometry": { "type": "Point", "coordinates": [ 134.032965877907287, 34.658138850877158 ] } },
{ "type": "Feature", "properties": { "P29_001": "33103", "P29_002": "C133210000660", "P29_003": "16002", "P29_004": "岡山市立上南中学校", "P29_005": "岡山県岡山市東区金田722", "P29_006": "3", "P29_007": "1", "P29_008": "00", "P29_009": null }, "geometry": { "type": "Point", "coordinates": [ 134.013625586858836, 34.636281829316644 ] } },
{ "type": "Feature", "properties": { "P29_001": "33103", "P29_002": "C133210000688", "P29_003": "16002", "P29_004": "岡山市立旭東中学校", "P29_005": "岡山県岡山市東区大多羅町276", "P29_006": "3", "P29_007": "1", "P29_008": "00", "P29_009": null }, "geometry": { "type": "Point", "coordinates": [ 134.003201324780036, 34.666076687806068 ] } },
{ "type": "Feature", "properties": { "P29_001": "33102", "P29_002": "C133210000697", "P29_003": "16002", "P29_004": "岡山県立岡山操山中学校", "P29_005": "岡山県岡山市中区浜412", "P29_006": "2", "P29_007": "1", "P29_008": "00", "P29_009": null }, "geometry": { "type": "Point", "coordinates": [ 133.939689000115237, 34.673715624701678 ] } },
{ "type": "Feature", "properties": { "P29_001": "33102", "P29_002": "C133210000704", "P29_003": "16002", "P29_004": "岡山市立緑ヶ丘中学校", "P29_005": "岡山県岡山市中区平井2-2572", "P29_006": "3", "P29_007": "1", "P29_008": "00", "P29_009": null }, "geometry": { "type": "Point", "coordinates": [ 133.948941461015664, 34.644684942668562 ] } },
{ "type": "Feature", "properties": { "P29_001": "33207", "P29_002": "C133210000713", "P29_003": "16002", "P29_004": "井原市立高屋中学校", "P29_005": "岡山県井原市高屋町2-9-1", "P29_006": "3", "P29_007": "1", "P29_008": "00", "P29_009": null }, "geometry": { "type": "Point", "coordinates": [ 133.430037694723552, 34.579429498873104 ] } },
{ "type": "Feature", "properties": { "P29_001": "33207", "P29_002": "C133210000722", "P29_003": "16002", "P29_004": "井原市立木之子中学校", "P29_005": "岡山県井原市木之子町2957-1", "P29_006": "3", "P29_007": "1", "P29_008": "00", "P29_009": null }, "geometry": { "type": "Point", "coordinates": [ 133.500871002861544, 34.590160996757113 ] } },
{ "type": "Feature", "properties": { "P29_001": "33207", "P29_002": "C133210000731", "P29_003": "16002", "P29_004": "井原市立井原中学校", "P29_005": "岡山県井原市西江原町2000", "P29_006": "3", "P29_007": "1", "P29_008": "00", "P29_009": null }, "geometry": { "type": "Point", "coordinates": [ 133.470972737932755, 34.603784544871338 ] } },
{ "type": "Feature", "properties": { "P29_001": "33208", "P29_002": "C133210000740", "P29_003": "16002", "P29_004": "総社市立総社中学校", "P29_005": "岡山県総社市秦540", "P29_006": "3", "P29_007": "1", "P29_008": "00", "P29_009": null }, "geometry": { "type": "Point", "coordinates": [ 133.703771670645892, 34.677754305698059 ] } },
{ "type": "Feature", "properties": { "P29_001": "33208", "P29_002": "C133210000759", "P29_003": "16002", "P29_004": "総社市立総社東中学校", "P29_005": "岡山県総社市井手565", "P29_006": "3", "P29_007": "1", "P29_008": "00", "P29_009": null }, "geometry": { "type": "Point", "coordinates": [ 133.757504362798358, 34.673189889094054 ] } },
{ "type": "Feature", "properties": { "P29_001": "33208", "P29_002": "C133210000768", "P29_003": "16002", "P29_004": "総社市立総社西中学校", "P29_005": "岡山県総社市駅前1-10-1", "P29_006": "3", "P29_007": "1", "P29_008": "00", "P29_009": null }, "geometry": { "type": "Point", "coordinates": [ 133.741281155131531, 34.675187313045718 ] } },
{ "type": "Feature", "properties": { "P29_001": "33209", "P29_002": "C133210000777", "P29_003": "16002", "P29_004": "高梁市立高梁中学校", "P29_005": "岡山県高梁市落合町近似1260-1", "P29_006": "3", "P29_007": "1", "P29_008": "00", "P29_009": null }, "geometry": { "type": "Point", "coordinates": [ 133.610187470657962, 34.794526088941964 ] } },
{ "type": "Feature", "properties": { "P29_001": "33209", "P29_002": "C133210000786", "P29_003": "16002", "P29_004": "高梁市立高梁北中学校", "P29_005": "岡山県高梁市川面町2302-1", "P29_006": "3", "P29_007": "1", "P29_008": "00", "P29_009": null }, "geometry": { "type": "Point", "coordinates": [ 133.589739680992125, 34.849153561221101 ] } },
{ "type": "Feature", "properties": { "P29_001": "33209", "P29_002": "C133210000795", "P29_003": "16002", "P29_004": "高梁市立高梁東中学校", "P29_005": "岡山県高梁市津川町今津1908", "P29_006": "3", "P29_007": "1", "P29_008": "00", "P29_009": null }, "geometry": { "type": "Point", "coordinates": [ 133.625167573633945, 34.830151840065021 ] } },
{ "type": "Feature", "properties": { "P29_001": "33210", "P29_002": "C133210000802", "P29_003": "16002", "P29_004": "新見市立新見第一中学校", "P29_005": "岡山県新見市高尾2364", "P29_006": "3", "P29_007": "1", "P29_008": "00", "P29_009": null }, "geometry": { "type": "Point", "coordinates": [ 133.452810526660926, 34.991875198919651 ] } },
{ "type": "Feature", "properties": { "P29_001": "33210", "P29_002": "C133210000811", "P29_003": "16002", "P29_004": "新見市立新見南中学校", "P29_005": "岡山県新見市石蟹135", "P29_006": "3", "P29_007": "1", "P29_008": "00", "P29_009": null }, "geometry": { "type": "Point", "coordinates": [ 133.479604843023679, 34.956454465959744 ] } },
{ "type": "Feature", "properties": { "P29_001": "33101", "P29_002": "C133210000820", "P29_003": "16002", "P29_004": "岡山市立御津中学校", "P29_005": "岡山県岡山市北区御津宇垣1227", "P29_006": "3", "P29_007": "1", "P29_008": "00", "P29_009": null }, "geometry": { "type": "Point", "coordinates": [ 133.92999006905427, 34.79155667298982 ] } },
{ "type": "Feature", "properties": { "P29_001": "33101", "P29_002": "C133210000839", "P29_003": "16002", "P29_004": "岡山市立中山中学校", "P29_005": "岡山県岡山市北区辛川市場159", "P29_006": "3", "P29_007": "1", "P29_008": "00", "P29_009": null }, "geometry": { "type": "Point", "coordinates": [ 133.865916907539543, 34.680990811234771 ] } },
{ "type": "Feature", "properties": { "P29_001": "33101", "P29_002": "C133210000848", "P29_003": "16002", "P29_004": "岡山市立建部中学校", "P29_005": "岡山県岡山市北区建部町建部上734", "P29_006": "3", "P29_007": "1", "P29_008": "00", "P29_009": null }, "geometry": { "type": "Point", "coordinates": [ 133.905713841371124, 34.85714409379429 ] } },
{ "type": "Feature", "properties": { "P29_001": "33101", "P29_002": "C133210000857", "P29_003": "16002", "P29_004": "岡山市立香和中学校", "P29_005": "岡山県岡山市北区吉宗590", "P29_006": "3", "P29_007": "1", "P29_008": "00", "P29_009": null }, "geometry": { "type": "Point", "coordinates": [ 133.904670009827925, 34.731364893316986 ] } },
{ "type": "Feature", "properties": { "P29_001": "33681", "P29_002": "C133210000866", "P29_003": "16002", "P29_004": "吉備中央町立加賀中学校", "P29_005": "岡山県加賀郡吉備中央町湯山1028", "P29_006": "3", "P29_007": "1", "P29_008": "00", "P29_009": null }, "geometry": { "type": "Point", "coordinates": [ 133.740495954253021, 34.857281773412254 ] } },
{ "type": "Feature", "properties": { "P29_001": "33103", "P29_002": "C133210000875", "P29_003": "16002", "P29_004": "岡山市立瀬戸中学校", "P29_005": "岡山県岡山市東区瀬戸町瀬戸444", "P29_006": "3", "P29_007": "1", "P29_008": "00", "P29_009": null }, "geometry": { "type": "Point", "coordinates": [ 134.040019190740594, 34.738317487336481 ] } },
{ "type": "Feature", "properties": { "P29_001": "33213", "P29_002": "C133210000884", "P29_003": "16002", "P29_004": "赤磐市立高陽中学校", "P29_005": "岡山県赤磐市上市51", "P29_006": "3", "P29_007": "1", "P29_008": "00", "P29_009": null }, "geometry": { "type": "Point", "coordinates": [ 134.019945853717871, 34.757369080712778 ] } },
{ "type": "Feature", "properties": { "P29_001": "33213", "P29_002": "C133210000893", "P29_003": "16002", "P29_004": "赤磐市立桜が丘中学校", "P29_005": "岡山県赤磐市桜が丘西5-12", "P29_006": "3", "P29_007": "1", "P29_008": "00", "P29_009": null }, "geometry": { "type": "Point", "coordinates": [ 134.041338848736501, 34.780414203297447 ] } },
{ "type": "Feature", "properties": { "P29_001": "33213", "P29_002": "C133210000900", "P29_003": "16002", "P29_004": "赤磐市立赤坂中学校", "P29_005": "岡山県赤磐市町苅田425-1", "P29_006": "3", "P29_007": "1", "P29_008": "00", "P29_009": null }, "geometry": { "type": "Point", "coordinates": [ 134.009405010719234, 34.800235036499842 ] } },
{ "type": "Feature", "properties": { "P29_001": "33213", "P29_002": "C133210000919", "P29_003": "16002", "P29_004": "赤磐市立磐梨中学校", "P29_005": "岡山県赤磐市沢原149", "P29_006": "3", "P29_007": "1", "P29_008": "00", "P29_009": null }, "geometry": { "type": "Point", "coordinates": [ 134.078974676435593, 34.800531784749921 ] } },
{ "type": "Feature", "properties": { "P29_001": "33213", "P29_002": "C133210000928", "P29_003": "16002", "P29_004": "赤磐市立吉井中学校", "P29_005": "岡山県赤磐市周匝161", "P29_006": "3", "P29_007": "1", "P29_008": "00", "P29_009": null }, "geometry": { "type": "Point", "coordinates": [ 134.090838643791301, 34.91751116064809 ] } },
{ "type": "Feature", "properties": { "P29_001": "33211", "P29_002": "C133210000937", "P29_003": "16002", "P29_004": "備前市立備前中学校", "P29_005": "岡山県備前市伊部1857", "P29_006": "3", "P29_007": "1", "P29_008": "00", "P29_009": null }, "geometry": { "type": "Point", "coordinates": [ 134.165827619853729, 34.737536776304353 ] } },
{ "type": "Feature", "properties": { "P29_001": "33211", "P29_002": "C133210000946", "P29_003": "16002", "P29_004": "備前市立伊里中学校", "P29_005": "岡山県備前市麻宇那1160", "P29_006": "3", "P29_007": "1", "P29_008": "00", "P29_009": null }, "geometry": { "type": "Point", "coordinates": [ 134.227700685524979, 34.746476558093363 ] } },
{ "type": "Feature", "properties": { "P29_001": "33211", "P29_002": "C133210000955", "P29_003": "16002", "P29_004": "備前市立日生中学校", "P29_005": "岡山県備前市日生町日生241-14", "P29_006": "3", "P29_007": "1", "P29_008": "00", "P29_009": null }, "geometry": { "type": "Point", "coordinates": [ 134.272783228216127, 34.735070931106911 ] } },
{ "type": "Feature", "properties": { "P29_001": "33211", "P29_002": "C133210000964", "P29_003": "16002", "P29_004": "備前市立三石中学校", "P29_005": "岡山県備前市三石3215", "P29_006": "3", "P29_007": "1", "P29_008": "00", "P29_009": null }, "geometry": { "type": "Point", "coordinates": [ 134.274738777684206, 34.80045688389815 ] } },
{ "type": "Feature", "properties": { "P29_001": "33211", "P29_002": "C133210000973", "P29_003": "16002", "P29_004": "備前市立吉永中学校", "P29_005": "岡山県備前市吉永町岩崎363", "P29_006": "3", "P29_007": "1", "P29_008": "00", "P29_009": null }, "geometry": { "type": "Point", "coordinates": [ 134.207445849724394, 34.820497005830546 ] } },
{ "type": "Feature", "properties": { "P29_001": "33346", "P29_002": "C133210000982", "P29_003": "16002", "P29_004": "和気町立和気中学校", "P29_005": "岡山県和気郡和気町泉375-1", "P29_006": "3", "P29_007": "1", "P29_008": "00", "P29_009": null }, "geometry": { "type": "Point", "coordinates": [ 134.165177634930444, 34.811391242460374 ] } },
{ "type": "Feature", "properties": { "P29_001": "33346", "P29_002": "C133210000991", "P29_003": "16002", "P29_004": "和気町立佐伯中学校", "P29_005": "岡山県和気郡和気町矢田223", "P29_006": "3", "P29_007": "1", "P29_008": "00", "P29_009": null }, "geometry": { "type": "Point", "coordinates": [ 134.097689448032895, 34.848441260060262 ] } },
{ "type": "Feature", "properties": { "P29_001": "33212", "P29_002": "C133210001008", "P29_003": "16002", "P29_004": "瀬戸内市立牛窓中学校", "P29_005": "岡山県瀬戸内市牛窓町牛窓6446", "P29_006": "3", "P29_007": "1", "P29_008": "00", "P29_009": null }, "geometry": { "type": "Point", "coordinates": [ 134.149939755494358, 34.619292007783059 ] } },
{ "type": "Feature", "properties": { "P29_001": "33212", "P29_002": "C133210001017", "P29_003": "16002", "P29_004": "瀬戸内市立邑久中学校", "P29_005": "岡山県瀬戸内市邑久町山手2", "P29_006": "3", "P29_007": "1", "P29_008": "00", "P29_009": null }, "geometry": { "type": "Point", "coordinates": [ 134.102817616572679, 34.665713612267119 ] } },
{ "type": "Feature", "properties": { "P29_001": "33212", "P29_002": "C133210001026", "P29_003": "16002", "P29_004": "瀬戸内市立長船中学校", "P29_005": "岡山県瀬戸内市長船町牛文1010", "P29_006": "3", "P29_007": "1", "P29_008": "00", "P29_009": null }, "geometry": { "type": "Point", "coordinates": [ 134.126580831756968, 34.693340373326102 ] } },
{ "type": "Feature", "properties": { "P29_001": "33103", "P29_002": "C133210001035", "P29_003": "16002", "P29_004": "岡山市立上道中学校", "P29_005": "岡山県岡山市東区南古都714", "P29_006": "3", "P29_007": "1", "P29_008": "00", "P29_009": null }, "geometry": { "type": "Point", "coordinates": [ 134.052074801332225, 34.698312763089021 ] } },
{ "type": "Feature", "properties": { "P29_001": "33104", "P29_002": "C133210001044", "P29_003": "16002", "P29_004": "岡山市立灘崎中学校", "P29_005": "岡山県岡山市南区片岡770", "P29_006": "3", "P29_007": "1", "P29_008": "00", "P29_009": null }, "geometry": { "type": "Point", "coordinates": [ 133.866996003774346, 34.540029192074584 ] } },
{ "type": "Feature", "properties": { "P29_001": "33204", "P29_002": "C133210001053", "P29_003": "16002", "P29_004": "玉野市立東児中学校", "P29_005": "岡山県玉野市北方444", "P29_006": "3", "P29_007": "1", "P29_008": "00", "P29_009": null }, "geometry": { "type": "Point", "coordinates": [ 134.009097916739648, 34.566423347556743 ] } },
{ "type": "Feature", "properties": { "P29_001": "33104", "P29_002": "C133210001062", "P29_003": "16002", "P29_004": "岡山市立興除中学校", "P29_005": "岡山県岡山市南区中畦589-4", "P29_006": "3", "P29_007": "1", "P29_008": "00", "P29_009": null }, "geometry": { "type": "Point", "coordinates": [ 133.853040437583132, 34.588678228365424 ] } },
{ "type": "Feature", "properties": { "P29_001": "33104", "P29_002": "C133210001071", "P29_003": "16002", "P29_004": "岡山市立藤田中学校", "P29_005": "岡山県岡山市南区藤田400", "P29_006": "3", "P29_007": "1", "P29_008": "00", "P29_009": null }, "geometry": { "type": "Point", "coordinates": [ 133.876059627259991, 34.586510229608052 ] } },
{ "type": "Feature", "properties": { "P29_001": "33101", "P29_002": "C133210001080", "P29_003": "16002", "P29_004": "岡山市立吉備中学校", "P29_005": "岡山県岡山市北区庭瀬103", "P29_006": "3", "P29_007": "1", "P29_008": "00", "P29_009": null }, "geometry": { "type": "Point", "coordinates": [ 133.850831238606048, 34.650216093033819 ] } },
{ "type": "Feature", "properties": { "P29_001": "33423", "P29_002": "C133210001099", "P29_003": "16002", "P29_004": "早島町立早島中学校", "P29_005": "岡山県都窪郡早島町早島2180", "P29_006": "3", "P29_007": "1", "P29_008": "00", "P29_009": null }, "geometry": { "type": "Point", "coordinates": [ 133.817604049109889, 34.600631312558512 ] } },
{ "type": "Feature", "properties": { "P29_001": "33104", "P29_002": "C133210001106", "P29_003": "16002", "P29_004": "岡山市立妹尾中学校", "P29_005": "岡山県岡山市南区妹尾1212", "P29_006": "3", "P29_007": "1", "P29_008": "00", "P29_009": null }, "geometry": { "type": "Point", "coordinates": [ 133.864742376342292, 34.615280070361656 ] } },
{ "type": "Feature", "properties": { "P29_001": "33202", "P29_002": "C133210001115", "P29_003": "16002", "P29_004": "倉敷市立庄中学校", "P29_005": "岡山県倉敷市上東812", "P29_006": "3", "P29_007": "1", "P29_008": "00", "P29_009": null }, "geometry": { "type": "Point", "coordinates": [ 133.82528855392701, 34.643532551143608 ] } },
{ "type": "Feature", "properties": { "P29_001": "33104", "P29_002": "C133210001124", "P29_003": "16002", "P29_004": "岡山市立福田中学校", "P29_005": "岡山県岡山市南区山田544-3", "P29_006": "3", "P29_007": "1", "P29_008": "00", "P29_009": null }, "geometry": { "type": "Point", "coordinates": [ 133.859157832931828, 34.625333533123005 ] } },
{ "type": "Feature", "properties": { "P29_001": "33202", "P29_002": "C133210001133", "P29_003": "16002", "P29_004": "倉敷市立船穂中学校", "P29_005": "岡山県倉敷市船穂町船穂2817-1", "P29_006": "3", "P29_007": "1", "P29_008": "00", "P29_009": null }, "geometry": { "type": "Point", "coordinates": [ 133.708184856676041, 34.587775125447287 ] } },
{ "type": "Feature", "properties": { "P29_001": "33216", "P29_002": "C133210001142", "P29_003": "16002", "P29_004": "浅口市立金光中学校", "P29_005": "岡山県浅口市金光町占見61-1", "P29_006": "3", "P29_007": "1", "P29_008": "00", "P29_009": null }, "geometry": { "type": "Point", "coordinates": [ 133.617584050225418, 34.543731944805508 ] } },
{ "type": "Feature", "properties": { "P29_001": "33216", "P29_002": "C133210001151", "P29_003": "16002", "P29_004": "浅口市立鴨方中学校", "P29_005": "岡山県浅口市鴨方町鴨方780", "P29_006": "3", "P29_007": "1", "P29_008": "00", "P29_009": null }, "geometry": { "type": "Point", "coordinates": [ 133.583044283888256, 34.538748485961285 ] } },
{ "type": "Feature", "properties": { "P29_001": "33216", "P29_002": "C133210001160", "P29_003": "16002", "P29_004": "浅口市立寄島中学校", "P29_005": "岡山県浅口市寄島町7551", "P29_006": "3", "P29_007": "1", "P29_008": "00", "P29_009": null }, "geometry": { "type": "Point", "coordinates": [ 133.584740647561432, 34.480163487219635 ] } },
{ "type": "Feature", "properties": { "P29_001": "33445", "P29_002": "C133210001179", "P29_003": "16002", "P29_004": "里庄町立里庄中学校", "P29_005": "岡山県浅口郡里庄町里見2535", "P29_006": "3", "P29_007": "1", "P29_008": "00", "P29_009": null }, "geometry": { "type": "Point", "coordinates": [ 133.558127361912284, 34.514463555515 ] } },
{ "type": "Feature", "properties": { "P29_001": "33461", "P29_002": "C133210001188", "P29_003": "16002", "P29_004": "矢掛町立矢掛中学校", "P29_005": "岡山県小田郡矢掛町矢掛2957", "P29_006": "3", "P29_007": "1", "P29_008": "00", "P29_009": null }, "geometry": { "type": "Point", "coordinates": [ 133.585411321792094, 34.629728873371839 ] } },
{ "type": "Feature", "properties": { "P29_001": "33207", "P29_002": "C133210001197", "P29_003": "16002", "P29_004": "井原市立美星中学校", "P29_005": "岡山県井原市美星町星田1", "P29_006": "3", "P29_007": "1", "P29_008": "00", "P29_009": null }, "geometry": { "type": "Point", "coordinates": [ 133.529471998221425, 34.677018268762573 ] } },
{ "type": "Feature", "properties": { "P29_001": "33207", "P29_002": "C133210001204", "P29_003": "16002", "P29_004": "井原市立芳井中学校", "P29_005": "岡山県井原市芳井町吉井4052", "P29_006": "3", "P29_007": "1", "P29_008": "00", "P29_009": null }, "geometry": { "type": "Point", "coordinates": [ 133.432690824629901, 34.627247095707844 ] } },
{ "type": "Feature", "properties": { "P29_001": "33101", "P29_002": "C133210001213", "P29_003": "16002", "P29_004": "岡山市立高松中学校", "P29_005": "岡山県岡山市北区高松原古才30", "P29_006": "3", "P29_007": "1", "P29_008": "00", "P29_009": null }, "geometry": { "type": "Point", "coordinates": [ 133.818233313577508, 34.687783478350866 ] } },
{ "type": "Feature", "properties": { "P29_001": "33101", "P29_002": "C133210001222", "P29_003": "16002", "P29_004": "岡山市立足守中学校", "P29_005": "岡山県岡山市北区大井360", "P29_006": "3", "P29_007": "1", "P29_008": "00", "P29_009": null }, "geometry": { "type": "Point", "coordinates": [ 133.798546254183094, 34.743169282765187 ] } },
{ "type": "Feature", "properties": { "P29_001": "33202", "P29_002": "C133210001231", "P29_003": "16002", "P29_004": "倉敷市立真備中学校", "P29_005": "岡山県倉敷市真備町箭田1058", "P29_006": "3", "P29_007": "1", "P29_008": "00", "P29_009": null }, "geometry": { "type": "Point", "coordinates": [ 133.695545643341973, 34.627688557987689 ] } },
{ "type": "Feature", "properties": { "P29_001": "33202", "P29_002": "C133210001240", "P29_003": "16002", "P29_004": "倉敷市立真備東中学校", "P29_005": "岡山県倉敷市真備町辻田60-1", "P29_006": "3", "P29_007": "1", "P29_008": "00", "P29_009": null }, "geometry": { "type": "Point", "coordinates": [ 133.712377483645241, 34.643163587407876 ] } },
{ "type": "Feature", "properties": { "P29_001": "33208", "P29_002": "C133210001259", "P29_003": "16002", "P29_004": "総社市立昭和中学校", "P29_005": "岡山県総社市美袋1636", "P29_006": "3", "P29_007": "1", "P29_008": "00", "P29_009": null }, "geometry": { "type": "Point", "coordinates": [ 133.646690047513033, 34.721431774934096 ] } },
{ "type": "Feature", "properties": { "P29_001": "33209", "P29_002": "C133210001268", "P29_003": "16002", "P29_004": "高梁市立有漢中学校", "P29_005": "岡山県高梁市有漢町有漢3406", "P29_006": "3", "P29_007": "1", "P29_008": "00", "P29_009": null }, "geometry": { "type": "Point", "coordinates": [ 133.66395942216829, 34.904835612734978 ] } },
{ "type": "Feature", "properties": { "P29_001": "33214", "P29_002": "C133210001277", "P29_003": "16002", "P29_004": "真庭市立北房中学校", "P29_005": "岡山県真庭市上水田2758", "P29_006": "3", "P29_007": "1", "P29_008": "00", "P29_009": null }, "geometry": { "type": "Point", "coordinates": [ 133.642014141067932, 34.963959248687104 ] } },
{ "type": "Feature", "properties": { "P29_001": "33209", "P29_002": "C133210001286", "P29_003": "16002", "P29_004": "高梁市立成羽中学校", "P29_005": "岡山県高梁市成羽町成羽601", "P29_006": "3", "P29_007": "1", "P29_008": "00", "P29_009": null }, "geometry": { "type": "Point", "coordinates": [ 133.538379786424542, 34.785613451257902 ] } },
{ "type": "Feature", "properties": { "P29_001": "33209", "P29_002": "C133210001295", "P29_003": "16002", "P29_004": "高梁市立川上中学校", "P29_005": "岡山県高梁市川上町領家1989-1", "P29_006": "3", "P29_007": "1", "P29_008": "00", "P29_009": null }, "geometry": { "type": "Point", "coordinates": [ 133.490969431016794, 34.748969894675731 ] } },
{ "type": "Feature", "properties": { "P29_001": "33210", "P29_002": "C133210001302", "P29_003": "16002", "P29_004": "新見市立大佐中学校", "P29_005": "岡山県新見市大佐永富1745", "P29_006": "3", "P29_007": "1", "P29_008": "00", "P29_009": null }, "geometry": { "type": "Point", "coordinates": [ 133.56881029072224, 35.079110839653744 ] } },
{ "type": "Feature", "properties": { "P29_001": "33210", "P29_002": "C133210001311", "P29_003": "16002", "P29_004": "新見市立哲多中学校", "P29_005": "岡山県新見市哲多町成松121", "P29_006": "3", "P29_007": "1", "P29_008": "00", "P29_009": null }, "geometry": { "type": "Point", "coordinates": [ 133.454344468439871, 34.917885988439778 ] } },
{ "type": "Feature", "properties": { "P29_001": "33210", "P29_002": "C133210001320", "P29_003": "16002", "P29_004": "新見市立哲西中学校", "P29_005": "岡山県新見市哲西町矢田3193", "P29_006": "3", "P29_007": "1", "P29_008": "00", "P29_009": null }, "geometry": { "type": "Point", "coordinates": [ 133.327134160491738, 34.925832345685031 ] } },
{ "type": "Feature", "properties": { "P29_001": "33214", "P29_002": "C133210001339", "P29_003": "16002", "P29_004": "真庭市立勝山中学校", "P29_005": "岡山県真庭市三田190", "P29_006": "3", "P29_007": "1", "P29_008": "00", "P29_009": null }, "geometry": { "type": "Point", "coordinates": [ 133.686437883209379, 35.082362209875541 ] } },
{ "type": "Feature", "properties": { "P29_001": "33214", "P29_002": "C133210001348", "P29_003": "16002", "P29_004": "真庭市立落合中学校", "P29_005": "岡山県真庭市下方625", "P29_006": "3", "P29_007": "1", "P29_008": "00", "P29_009": null }, "geometry": { "type": "Point", "coordinates": [ 133.73282726762389, 35.010360453191197 ] } },
{ "type": "Feature", "properties": { "P29_001": "33214", "P29_002": "C133210001357", "P29_003": "16002", "P29_004": "真庭市立湯原中学校", "P29_005": "岡山県真庭市久見105", "P29_006": "3", "P29_007": "1", "P29_008": "00", "P29_009": null }, "geometry": { "type": "Point", "coordinates": [ 133.730034303712245, 35.175309976994349 ] } },
{ "type": "Feature", "properties": { "P29_001": "33214", "P29_002": "C133210001366", "P29_003": "16002", "P29_004": "真庭市立久世中学校", "P29_005": "岡山県真庭市台金屋202", "P29_006": "3", "P29_007": "1", "P29_008": "00", "P29_009": null }, "geometry": { "type": "Point", "coordinates": [ 133.763617079137362, 35.073859304782914 ] } },
{ "type": "Feature", "properties": { "P29_001": "33586", "P29_002": "C133210001375", "P29_003": "16002", "P29_004": "新庄村立新庄中学校", "P29_005": "岡山県真庭郡新庄村2134", "P29_006": "3", "P29_007": "1", "P29_008": "00", "P29_009": null }, "geometry": { "type": "Point", "coordinates": [ 133.568015156213477, 35.181746024237107 ] } },
{ "type": "Feature", "properties": { "P29_001": "33214", "P29_002": "C133210001384", "P29_003": "16002", "P29_004": "真庭市立蒜山中学校", "P29_005": "岡山県真庭市蒜山下福田468", "P29_006": "3", "P29_007": "1", "P29_008": "00", "P29_009": null }, "geometry": { "type": "Point", "coordinates": [ 133.679519146888481, 35.283615221736596 ] } },
{ "type": "Feature", "properties": { "P29_001": "33203", "P29_002": "C133210001393", "P29_003": "16002", "P29_004": "津山市立加茂中学校", "P29_005": "岡山県津山市加茂町桑原280", "P29_006": "3", "P29_007": "1", "P29_008": "00", "P29_009": null }, "geometry": { "type": "Point", "coordinates": [ 134.057166037830115, 35.17456468822224 ] } },
{ "type": "Feature", "properties": { "P29_001": "33606", "P29_002": "C133210001400", "P29_003": "16002", "P29_004": "鏡野町立鏡野中学校", "P29_005": "岡山県苫田郡鏡野町竹田610", "P29_006": "3", "P29_007": "1", "P29_008": "00", "P29_009": null }, "geometry": { "type": "Point", "coordinates": [ 133.932872506839942, 35.093823661442315 ] } },
{ "type": "Feature", "properties": { "P29_001": "33215", "P29_002": "C133210001419", "P29_003": "16002", "P29_004": "美作市立勝田中学校", "P29_005": "岡山県美作市真加部1575", "P29_006": "3", "P29_007": "1", "P29_008": "00", "P29_009": null }, "geometry": { "type": "Point", "coordinates": [ 134.18888988869864, 35.073703267936864 ] } },
{ "type": "Feature", "properties": { "P29_001": "33622", "P29_002": "C133210001428", "P29_003": "16002", "P29_004": "勝央町立勝央中学校", "P29_005": "岡山県勝田郡勝央町平1000", "P29_006": "3", "P29_007": "1", "P29_008": "00", "P29_009": null }, "geometry": { "type": "Point", "coordinates": [ 134.119936268107836, 35.053915340335706 ] } },
{ "type": "Feature", "properties": { "P29_001": "33623", "P29_002": "C133210001437", "P29_003": "16002", "P29_004": "奈義町立奈義中学校", "P29_005": "岡山県勝田郡奈義町久常193", "P29_006": "3", "P29_007": "1", "P29_008": "00", "P29_009": null }, "geometry": { "type": "Point", "coordinates": [ 134.179392665788214, 35.120765031923966 ] } },
{ "type": "Feature", "properties": { "P29_001": "33203", "P29_002": "C133210001446", "P29_003": "16002", "P29_004": "津山市立勝北中学校", "P29_005": "岡山県津山市原371", "P29_006": "3", "P29_007": "1", "P29_008": "00", "P29_009": null }, "geometry": { "type": "Point", "coordinates": [ 134.10562768996212, 35.099776820601164 ] } },
{ "type": "Feature", "properties": { "P29_001": "33215", "P29_002": "C133210001455", "P29_003": "16002", "P29_004": "美作市立大原中学校", "P29_005": "岡山県美作市下町350", "P29_006": "3", "P29_007": "1", "P29_008": "00", "P29_009": null }, "geometry": { "type": "Point", "coordinates": [ 134.321455917481984, 35.103456717982802 ] } },
{ "type": "Feature", "properties": { "P29_001": "33215", "P29_002": "C133210001464", "P29_003": "16002", "P29_004": "美作市立美作中学校", "P29_005": "岡山県美作市三倉田205", "P29_006": "3", "P29_007": "1", "P29_008": "00", "P29_009": null }, "geometry": { "type": "Point", "coordinates": [ 134.148964744182678, 34.997489174621919 ] } },
{ "type": "Feature", "properties": { "P29_001": "33215", "P29_002": "C133210001473", "P29_003": "16002", "P29_004": "美作市立作東中学校", "P29_005": "岡山県美作市江見226-2", "P29_006": "3", "P29_007": "1", "P29_008": "00", "P29_009": null }, "geometry": { "type": "Point", "coordinates": [ 134.224003606582471, 35.013134191120102 ] } },
{ "type": "Feature", "properties": { "P29_001": "33215", "P29_002": "C133210001482", "P29_003": "16002", "P29_004": "美作市立英田中学校", "P29_005": "岡山県美作市福本730", "P29_006": "3", "P29_007": "1", "P29_008": "00", "P29_009": null }, "geometry": { "type": "Point", "coordinates": [ 134.124580804444577, 34.936173551700641 ] } },
{ "type": "Feature", "properties": { "P29_001": "33643", "P29_002": "C133210001491", "P29_003": "16002", "P29_004": "西粟倉村立西粟倉中学校", "P29_005": "岡山県英田郡西粟倉村影石108", "P29_006": "3", "P29_007": "1", "P29_008": "00", "P29_009": null }, "geometry": { "type": "Point", "coordinates": [ 134.335411785118993, 35.173904076844011 ] } },
{ "type": "Feature", "properties": { "P29_001": "33666", "P29_002": "C133210001507", "P29_003": "16002", "P29_004": "美咲町立中央中学校", "P29_005": "岡山県久米郡美咲町原田2130", "P29_006": "3", "P29_007": "1", "P29_008": "00", "P29_009": null }, "geometry": { "type": "Point", "coordinates": [ 133.956056608453736, 34.997496153712241 ] } },
{ "type": "Feature", "properties": { "P29_001": "33663", "P29_002": "C133210001525", "P29_003": "16002", "P29_004": "久米南町立久米南中学校", "P29_005": "岡山県久米郡久米南町下弓削440-1", "P29_006": "3", "P29_007": "1", "P29_008": "00", "P29_009": null }, "geometry": { "type": "Point", "coordinates": [ 133.958713870738904, 34.92859735980042 ] } },
{ "type": "Feature", "properties": { "P29_001": "33203", "P29_002": "C133210001534", "P29_003": "16002", "P29_004": "津山市立久米中学校", "P29_005": "岡山県津山市南方中1487-1", "P29_006": "3", "P29_007": "1", "P29_008": "00", "P29_009": null }, "geometry": { "type": "Point", "coordinates": [ 133.896736732523436, 35.05499587741145 ] } },
{ "type": "Feature", "properties": { "P29_001": "33666", "P29_002": "C133210001543", "P29_003": "16002", "P29_004": "美咲町立柵原中学校", "P29_005": "岡山県久米郡美咲町下谷388-2", "P29_006": "3", "P29_007": "1", "P29_008": "00", "P29_009": null }, "geometry": { "type": "Point", "coordinates": [ 134.054535523980633, 34.966478137379781 ] } },
{ "type": "Feature", "properties": { "P29_001": "33102", "P29_002": "C133310000016", "P29_003": "16002", "P29_004": "山陽学園中学校", "P29_005": "岡山県岡山市中区門田屋敷2-2-16", "P29_006": "4", "P29_007": "1", "P29_008": "00", "P29_009": null }, "geometry": { "type": "Point", "coordinates": [ 133.941009474065822, 34.65527084211903 ] } },
{ "type": "Feature", "properties": { "P29_001": "33101", "P29_002": "C133310000025", "P29_003": "16002", "P29_004": "就実中学校", "P29_005": "岡山県岡山市北区弓之町14-23", "P29_006": "4", "P29_007": "1", "P29_008": "00", "P29_009": null }, "geometry": { "type": "Point", "coordinates": [ 133.928313106493562, 34.670660890638253 ] } },
{ "type": "Feature", "properties": { "P29_001": "33104", "P29_002": "C133310000034", "P29_003": "16002", "P29_004": "岡山中学校", "P29_005": "岡山県岡山市南区箕島1500", "P29_006": "4", "P29_007": "1", "P29_008": "00", "P29_009": null }, "geometry": { "type": "Point", "coordinates": [ 133.857219532859887, 34.614197846488253 ] } },
{ "type": "Feature", "properties": { "P29_001": "33101", "P29_002": "C133310000043", "P29_003": "16002", "P29_004": "岡山理科大学附属中学校", "P29_005": "岡山県岡山市北区理大町1-1", "P29_006": "4", "P29_007": "1", "P29_008": "00", "P29_009": null }, "geometry": { "type": "Point", "coordinates": [ 133.928133728325406, 34.695691039264837 ] } },
{ "type": "Feature", "properties": { "P29_001": "33103", "P29_002": "C133310000052", "P29_003": "16002", "P29_004": "岡山学芸館清秀中学校", "P29_005": "岡山県岡山市東区西大寺上1-19-19", "P29_006": "4", "P29_007": "1", "P29_008": "00", "P29_009": null }, "geometry": { "type": "Point", "coordinates": [ 134.031456308907991, 34.659234930096211 ] } },
{ "type": "Feature", "properties": { "P29_001": "33681", "P29_002": "C133310000061", "P29_003": "16002", "P29_004": "吉備高原希望中学校", "P29_005": "岡山県加賀郡吉備中央町高谷495", "P29_006": "4", "P29_007": "1", "P29_008": "00", "P29_009": null }, "geometry": { "type": "Point", "coordinates": [ 133.773412654686695, 34.857409375453912 ] } },
{ "type": "Feature", "properties": { "P29_001": "33213", "P29_002": "C133310000070", "P29_003": "16002", "P29_004": "岡山白陵中学校", "P29_005": "岡山県赤磐市勢力588", "P29_006": "4", "P29_007": "1", "P29_008": "00", "P29_009": null }, "geometry": { "type": "Point", "coordinates": [ 134.107977394187628, 34.778043608192931 ] } },
{ "type": "Feature", "properties": { "P29_001": "33202", "P29_002": "C133310000089", "P29_003": "16002", "P29_004": "清心中学校", "P29_005": "岡山県倉敷市二子1200", "P29_006": "4", "P29_007": "1", "P29_008": "00", "P29_009": null }, "geometry": { "type": "Point", "coordinates": [ 133.81653631228545, 34.640553651078505 ] } },
{ "type": "Feature", "properties": { "P29_001": "33216", "P29_002": "C133310000098", "P29_003": "16002", "P29_004": "金光学園中学校", "P29_005": "岡山県浅口市金光町占見新田1350", "P29_006": "4", "P29_007": "1", "P29_008": "00", "P29_009": null }, "geometry": { "type": "Point", "coordinates": [ 133.624254724686665, 34.545736140321651 ] } },
{ "type": "Feature", "properties": { "P29_001": "33205", "P29_002": "C133310000105", "P29_003": "16002", "P29_004": "蒼明学院中等部", "P29_005": "岡山県笠岡市笠岡874", "P29_006": "4", "P29_007": "1", "P29_008": "00", "P29_009": null }, "geometry": { "type": "Point", "coordinates": [ 133.510686082690967, 34.505984290986369 ] } }
]
}
