{
"type": "FeatureCollection",
"name": "geo_33_専修学校",
"crs": { "type": "name", "properties": { "name": "urn:ogc:def:crs:EPSG::6668" } },
"features": [
{ "type": "Feature", "properties": { "P29_001": "33212", "P29_002": "H133110000019", "P29_003": "16016", "P29_004": "国立療養所長島愛生園附属看護学校", "P29_005": "岡山県瀬戸内市邑久町虫明6539", "P29_006": "1", "P29_007": "0", "P29_008": "00", "P29_009": null }, "geometry": { "type": "Point", "coordinates": [ 134.246324922499497, 34.680457516316132 ] } },
{ "type": "Feature", "properties": { "P29_001": "33213", "P29_002": "H133210000017", "P29_003": "16016", "P29_004": "岡山県農林水産総合センター農業大学校", "P29_005": "岡山県赤磐市東窪田157", "P29_006": "2", "P29_007": "0", "P29_008": "00", "P29_009": null }, "geometry": { "type": "Point", "coordinates": [ 134.014205333168917, 34.783141190622011 ] } },
{ "type": "Feature", "properties": { "P29_001": "33101", "P29_002": "H133310000015", "P29_003": "16016", "P29_004": "専門学校岡山ファッションスクール", "P29_005": "岡山県岡山市北区厚生町2-10-3", "P29_006": "4", "P29_007": "0", "P29_008": "00", "P29_009": null }, "geometry": { "type": "Point", "coordinates": [ 133.913668334213298, 34.655688238957332 ] } },
{ "type": "Feature", "properties": { "P29_001": "33202", "P29_002": "H133310000024", "P29_003": "16016", "P29_004": "岡山服飾ビジネス専門学校", "P29_005": "岡山県倉敷市児島田の口7-5-16", "P29_006": "4", "P29_007": "0", "P29_008": "00", "P29_009": null }, "geometry": { "type": "Point", "coordinates": [ 133.839673805256723, 34.4746369182878 ] } },
{ "type": "Feature", "properties": { "P29_001": "33101", "P29_002": "H133310000033", "P29_003": "16016", "P29_004": "岡山理科大学専門学校", "P29_005": "岡山県岡山市北区半田町8-3", "P29_006": "4", "P29_007": "0", "P29_008": "00", "P29_009": null }, "geometry": { "type": "Point", "coordinates": [ 133.933674407170145, 34.695606548266348 ] } },
{ "type": "Feature", "properties": { "P29_001": "33101", "P29_002": "H133310000042", "P29_003": "16016", "P29_004": "岡山赤十字看護専門学校", "P29_005": "岡山県岡山市北区青江2-1-1", "P29_006": "4", "P29_007": "0", "P29_008": "00", "P29_009": null }, "geometry": { "type": "Point", "coordinates": [ 133.922958058966344, 34.634259165712514 ] } },
{ "type": "Feature", "properties": { "P29_001": "33101", "P29_002": "H133310000051", "P29_003": "16016", "P29_004": "岡山済生会看護専門学校", "P29_005": "岡山県岡山市北区国体町1-11", "P29_006": "4", "P29_007": "0", "P29_008": "00", "P29_009": null }, "geometry": { "type": "Point", "coordinates": [ 133.918725793740236, 34.671754600132246 ] } },
{ "type": "Feature", "properties": { "P29_001": "33203", "P29_002": "H133310000060", "P29_003": "16016", "P29_004": "文化服装専門学校", "P29_005": "岡山県津山市元魚町8", "P29_006": "4", "P29_007": "0", "P29_008": "00", "P29_009": null }, "geometry": { "type": "Point", "coordinates": [ 134.000806530284081, 35.06100344621499 ] } },
{ "type": "Feature", "properties": { "P29_001": "33101", "P29_002": "H133310000079", "P29_003": "16016", "P29_004": "旭川荘厚生専門学院", "P29_005": "岡山県岡山市北区祇園866", "P29_006": "4", "P29_007": "0", "P29_008": "00", "P29_009": null }, "geometry": { "type": "Point", "coordinates": [ 133.955231475554967, 34.706084347209789 ] } },
{ "type": "Feature", "properties": { "P29_001": "33101", "P29_002": "H133310000088", "P29_003": "16016", "P29_004": "中国デザイン専門学校", "P29_005": "岡山県岡山市北区船頭町12", "P29_006": "4", "P29_007": "0", "P29_008": "00", "P29_009": null }, "geometry": { "type": "Point", "coordinates": [ 133.928771499429729, 34.650687306499997 ] } },
{ "type": "Feature", "properties": { "P29_001": "33104", "P29_002": "H133310000097", "P29_003": "16016", "P29_004": "岡山労災看護専門学校", "P29_005": "岡山県岡山市南区築港緑町1-10-25", "P29_006": "4", "P29_007": "0", "P29_008": "00", "P29_009": null }, "geometry": { "type": "Point", "coordinates": [ 133.933013554160141, 34.605151644372206 ] } },
{ "type": "Feature", "properties": { "P29_001": "33102", "P29_002": "H133310000104", "P29_003": "16016", "P29_004": "岡山医療福祉専門学校", "P29_005": "岡山県岡山市中区門田屋敷3-5-18", "P29_006": "4", "P29_007": "0", "P29_008": "00", "P29_009": null }, "geometry": { "type": "Point", "coordinates": [ 133.940442557935228, 34.653777457625679 ] } },
{ "type": "Feature", "properties": { "P29_001": "33101", "P29_002": "H133310000113", "P29_003": "16016", "P29_004": "岡山県理容美容専門学校", "P29_005": "岡山県岡山市北区大元2-6-5", "P29_006": "4", "P29_007": "0", "P29_008": "00", "P29_009": null }, "geometry": { "type": "Point", "coordinates": [ 133.903478009532648, 34.641723930342849 ] } },
{ "type": "Feature", "properties": { "P29_001": "33101", "P29_002": "H133310000122", "P29_003": "16016", "P29_004": "岡山歯科技工専門学院", "P29_005": "岡山県岡山市北区楢津2182", "P29_006": "4", "P29_007": "0", "P29_008": "00", "P29_009": null }, "geometry": { "type": "Point", "coordinates": [ 133.882254532413555, 34.681407589556613 ] } },
{ "type": "Feature", "properties": { "P29_001": "33101", "P29_002": "H133310000131", "P29_003": "16016", "P29_004": "専門学校ビーマックス", "P29_005": "岡山県岡山市北区駅元町5-18", "P29_006": "4", "P29_007": "0", "P29_008": "00", "P29_009": null }, "geometry": { "type": "Point", "coordinates": [ 133.914499317256372, 34.663975112184048 ] } },
{ "type": "Feature", "properties": { "P29_001": "33101", "P29_002": "H133310000140", "P29_003": "16016", "P29_004": "西日本調理製菓専門学校", "P29_005": "岡山県岡山市北区大供3-2-18", "P29_006": "4", "P29_007": "0", "P29_008": "00", "P29_009": null }, "geometry": { "type": "Point", "coordinates": [ 133.916460332059671, 34.656779844398905 ] } },
{ "type": "Feature", "properties": { "P29_001": "33101", "P29_002": "H133310000159", "P29_003": "16016", "P29_004": "専門学校岡山ビジネスカレッジ", "P29_005": "岡山県岡山市北区岩田町3-22", "P29_006": "4", "P29_007": "0", "P29_008": "00", "P29_009": null }, "geometry": { "type": "Point", "coordinates": [ 133.921756631582241, 34.669850676996553 ] } },
{ "type": "Feature", "properties": { "P29_001": "33101", "P29_002": "H133310000168", "P29_003": "16016", "P29_004": "専門学校岡山情報ビジネス学院", "P29_005": "岡山県岡山市北区駅元町1-4ターミナルスクエア6Ｆ", "P29_006": "4", "P29_007": "0", "P29_008": "00", "P29_009": null }, "geometry": { "type": "Point", "coordinates": [ 133.918486769171352, 34.664079461936801 ] } },
{ "type": "Feature", "properties": { "P29_001": "33101", "P29_002": "H133310000177", "P29_003": "16016", "P29_004": "岡山科学技術専門学校", "P29_005": "岡山県岡山市北区昭和町8-10", "P29_006": "4", "P29_007": "0", "P29_008": "00", "P29_009": null }, "geometry": { "type": "Point", "coordinates": [ 133.911913773224285, 34.663240762989361 ] } },
{ "type": "Feature", "properties": { "P29_001": "33101", "P29_002": "H133310000186", "P29_003": "16016", "P29_004": "岡山高等歯科衛生専門学院", "P29_005": "岡山県岡山市北区石関町1-5", "P29_006": "4", "P29_007": "0", "P29_008": "00", "P29_009": null }, "geometry": { "type": "Point", "coordinates": [ 133.931160663550997, 34.666279746914768 ] } },
{ "type": "Feature", "properties": { "P29_001": "33102", "P29_002": "H133310000195", "P29_003": "16016", "P29_004": "専門学校ワールドオプティカルカレッジ", "P29_005": "岡山県岡山市中区平井6-6-11", "P29_006": "4", "P29_007": "0", "P29_008": "00", "P29_009": null }, "geometry": { "type": "Point", "coordinates": [ 133.937889069476398, 34.640153436985507 ] } },
{ "type": "Feature", "properties": { "P29_001": "33102", "P29_002": "H133310000211", "P29_003": "16016", "P29_004": "ソワニエ看護専門学校", "P29_005": "岡山県岡山市中区倉田394-3", "P29_006": "4", "P29_007": "0", "P29_008": "00", "P29_009": null }, "geometry": { "type": "Point", "coordinates": [ 133.96082165068276, 34.633643791592171 ] } },
{ "type": "Feature", "properties": { "P29_001": "33101", "P29_002": "H133310000220", "P29_003": "16016", "P29_004": "岡山商科大学専門学校", "P29_005": "岡山県岡山市北区伊島町3-738-1", "P29_006": "4", "P29_007": "0", "P29_008": "00", "P29_009": null }, "geometry": { "type": "Point", "coordinates": [ 133.905100627894257, 34.67941378270779 ] } },
{ "type": "Feature", "properties": { "P29_001": "33101", "P29_002": "H133310000239", "P29_003": "16016", "P29_004": "専修学校自由高等学院", "P29_005": "岡山県岡山市北区島田本町1-2-12", "P29_006": "4", "P29_007": "0", "P29_008": "00", "P29_009": null }, "geometry": { "type": "Point", "coordinates": [ 133.911177336619744, 34.661913744032425 ] } },
{ "type": "Feature", "properties": { "P29_001": "33101", "P29_002": "H133310000248", "P29_003": "16016", "P29_004": "朝日医療大学校", "P29_005": "岡山県岡山市北区奉還町2-7-1", "P29_006": "4", "P29_007": "0", "P29_008": "00", "P29_009": null }, "geometry": { "type": "Point", "coordinates": [ 133.915231730376746, 34.668662585965933 ] } },
{ "type": "Feature", "properties": { "P29_001": "33101", "P29_002": "H133310000257", "P29_003": "16016", "P29_004": "専門学校岡山ビューティモード", "P29_005": "岡山県岡山市北区昭和町3-12", "P29_006": "4", "P29_007": "0", "P29_008": "00", "P29_009": null }, "geometry": { "type": "Point", "coordinates": [ 133.913587189849039, 34.664817712056823 ] } },
{ "type": "Feature", "properties": { "P29_001": "33103", "P29_002": "H133310000266", "P29_003": "16016", "P29_004": "旭川荘厚生専門学院吉井川キャンパス", "P29_005": "岡山県岡山市東区西大寺浜610", "P29_006": "4", "P29_007": "0", "P29_008": "00", "P29_009": null }, "geometry": { "type": "Point", "coordinates": [ 134.045102285344427, 34.646513016083091 ] } },
{ "type": "Feature", "properties": { "P29_001": "33101", "P29_002": "H133310000275", "P29_003": "16016", "P29_004": "独立行政法人国立病院機構岡山医療センター附属岡山看護助産学校", "P29_005": "岡山県岡山市北区田益1711-1", "P29_006": "0", "P29_007": "0", "P29_008": "00", "P29_009": null }, "geometry": { "type": "Point", "coordinates": [ 133.899371566377738, 34.708033077809418 ] } },
{ "type": "Feature", "properties": { "P29_001": "33101", "P29_002": "H133310000284", "P29_003": "16016", "P29_004": "岡山プロフェッショナル・ビューティ専門学校", "P29_005": "岡山県岡山市北区下伊福2-6-4", "P29_006": "4", "P29_007": "0", "P29_008": "00", "P29_009": null }, "geometry": { "type": "Point", "coordinates": [ 133.906498338417123, 34.664656018185347 ] } },
{ "type": "Feature", "properties": { "P29_001": "33101", "P29_002": "H133310000293", "P29_003": "16016", "P29_004": "インターナショナル岡山歯科衛生専門学校", "P29_005": "岡山県岡山市北区大供3-2-18", "P29_006": "4", "P29_007": "0", "P29_008": "00", "P29_009": null }, "geometry": { "type": "Point", "coordinates": [ 133.916479260773713, 34.656606253221412 ] } },
{ "type": "Feature", "properties": { "P29_001": "33202", "P29_002": "H133310000300", "P29_003": "16016", "P29_004": "専門学校倉敷ファッションカレッジ", "P29_005": "岡山県倉敷市阿知1-14-13", "P29_006": "4", "P29_007": "0", "P29_008": "00", "P29_009": null }, "geometry": { "type": "Point", "coordinates": [ 133.764788780464954, 34.600445807103775 ] } },
{ "type": "Feature", "properties": { "P29_001": "33202", "P29_002": "H133310000319", "P29_003": "16016", "P29_004": "山内服装専門学校", "P29_005": "岡山県倉敷市美和1-8-5", "P29_006": "4", "P29_007": "0", "P29_008": "00", "P29_009": null }, "geometry": { "type": "Point", "coordinates": [ 133.776505880690422, 34.60081372944493 ] } },
{ "type": "Feature", "properties": { "P29_001": "33202", "P29_002": "H133310000328", "P29_003": "16016", "P29_004": "倉敷中央看護専門学校", "P29_005": "岡山県倉敷市鶴形1-8-5", "P29_006": "4", "P29_007": "0", "P29_008": "00", "P29_009": null }, "geometry": { "type": "Point", "coordinates": [ 133.771795313027241, 34.601289172824089 ] } },
{ "type": "Feature", "properties": { "P29_001": "33202", "P29_002": "H133310000355", "P29_003": "16016", "P29_004": "倉敷看護専門学校", "P29_005": "岡山県倉敷市粒浦80-1", "P29_006": "4", "P29_007": "0", "P29_008": "00", "P29_009": null }, "geometry": { "type": "Point", "coordinates": [ 133.773943701311822, 34.569683166594061 ] } },
{ "type": "Feature", "properties": { "P29_001": "33202", "P29_002": "H133310000364", "P29_003": "16016", "P29_004": "専門学校川崎リハビリテーション学院", "P29_005": "岡山県倉敷市松島672", "P29_006": "4", "P29_007": "0", "P29_008": "00", "P29_009": null }, "geometry": { "type": "Point", "coordinates": [ 133.809763088789538, 34.631527716425126 ] } },
{ "type": "Feature", "properties": { "P29_001": "33202", "P29_002": "H133310000373", "P29_003": "16016", "P29_004": "専門学校倉敷ビューティーカレッジ", "P29_005": "岡山県倉敷市寿町10-5", "P29_006": "4", "P29_007": "0", "P29_008": "00", "P29_009": null }, "geometry": { "type": "Point", "coordinates": [ 133.765780447176809, 34.605301795387341 ] } },
{ "type": "Feature", "properties": { "P29_001": "33202", "P29_002": "H133310000382", "P29_003": "16016", "P29_004": "くらしき総合福祉専門学校", "P29_005": "岡山県倉敷市連島1-3-27", "P29_006": "4", "P29_007": "0", "P29_008": "00", "P29_009": null }, "geometry": { "type": "Point", "coordinates": [ 133.738992965178483, 34.543974083258732 ] } },
{ "type": "Feature", "properties": { "P29_001": "33203", "P29_002": "H133310000391", "P29_003": "16016", "P29_004": "津山服装専門学校", "P29_005": "岡山県津山市元魚町62", "P29_006": "4", "P29_007": "0", "P29_008": "00", "P29_009": null }, "geometry": { "type": "Point", "coordinates": [ 134.000439995169643, 35.060369999068634 ] } },
{ "type": "Feature", "properties": { "P29_001": "33203", "P29_002": "H133310000408", "P29_003": "16016", "P29_004": "津山中央看護専門学校", "P29_005": "岡山県津山市川崎1760", "P29_006": "4", "P29_007": "0", "P29_008": "00", "P29_009": null }, "geometry": { "type": "Point", "coordinates": [ 134.038312224920418, 35.06346083810476 ] } },
{ "type": "Feature", "properties": { "P29_001": "33204", "P29_002": "H133310000417", "P29_003": "16016", "P29_004": "玉野総合医療専門学校", "P29_005": "岡山県玉野市築港1-1-20", "P29_006": "4", "P29_007": "0", "P29_008": "00", "P29_009": null }, "geometry": { "type": "Point", "coordinates": [ 133.95303450216926, 34.499230167790451 ] } },
{ "type": "Feature", "properties": { "P29_001": "33210", "P29_002": "H133310000426", "P29_003": "16016", "P29_004": "新見女子専門学校", "P29_005": "岡山県新見市新見2032-4", "P29_006": "4", "P29_007": "0", "P29_008": "00", "P29_009": null }, "geometry": { "type": "Point", "coordinates": [ 133.467665431044679, 34.987485933109966 ] } },
{ "type": "Feature", "properties": { "P29_001": "33216", "P29_002": "H133310000444", "P29_003": "16016", "P29_004": "専門学校岡山自動車大学校", "P29_005": "岡山県浅口市鴨方町六条院中2045", "P29_006": "4", "P29_007": "0", "P29_008": "00", "P29_009": null }, "geometry": { "type": "Point", "coordinates": [ 133.581271904394356, 34.523140151793157 ] } },
{ "type": "Feature", "properties": { "P29_001": "33202", "P29_002": "H133310000462", "P29_003": "16016", "P29_004": "専門学校倉敷リハビリテーション学院", "P29_005": "岡山県倉敷市幸町12-3", "P29_006": "4", "P29_007": "0", "P29_008": "00", "P29_009": null }, "geometry": { "type": "Point", "coordinates": [ 133.776310169663589, 34.604331040182309 ] } },
{ "type": "Feature", "properties": { "P29_001": "33423", "P29_002": "H133310000471", "P29_003": "16016", "P29_004": "関西書道専門学校", "P29_005": "岡山県都窪郡早島町4156", "P29_006": "4", "P29_007": "0", "P29_008": "00", "P29_009": null }, "geometry": { "type": "Point", "coordinates": [ 133.822880984444424, 34.61058667501738 ] } },
{ "type": "Feature", "properties": { "P29_001": "33214", "P29_002": "H133310000480", "P29_003": "16016", "P29_004": "中国四国酪農大学校", "P29_005": "岡山県真庭市蒜山西茅部632", "P29_006": "4", "P29_007": "0", "P29_008": "00", "P29_009": null }, "geometry": { "type": "Point", "coordinates": [ 133.630003853036385, 35.300226937176589 ] } },
{ "type": "Feature", "properties": { "P29_001": "33101", "P29_002": "H133310000499", "P29_003": "16016", "P29_004": "岡山・建部医療福祉専門学校", "P29_005": "岡山県岡山市北区建部町福渡408-20", "P29_006": "4", "P29_007": "0", "P29_008": "00", "P29_009": null }, "geometry": { "type": "Point", "coordinates": [ 133.905923530571471, 34.868892142902375 ] } },
{ "type": "Feature", "properties": { "P29_001": "33212", "P29_002": "H133310000505", "P29_003": "16016", "P29_004": "日本ＩＴビジネスカレッジ", "P29_005": "岡山県瀬戸内市邑久町尻海2968", "P29_006": "4", "P29_007": "0", "P29_008": "00", "P29_009": null }, "geometry": { "type": "Point", "coordinates": [ 134.159852861082555, 34.65101016802258 ] } },
{ "type": "Feature", "properties": { "P29_001": "33215", "P29_002": "H133310000514", "P29_003": "16016", "P29_004": "美作市スポーツ医療看護専門学校", "P29_005": "岡山県美作市古町1701", "P29_006": "4", "P29_007": "0", "P29_008": "00", "P29_009": null }, "geometry": { "type": "Point", "coordinates": [ 134.328013117730478, 35.121084788413292 ] } },
{ "type": "Feature", "properties": { "P29_001": "33101", "P29_002": "H133310000523", "P29_003": "16016", "P29_004": "大原ビジネス公務員専門学校岡山校", "P29_005": "岡山県岡山市北区柳町2-5-21", "P29_006": "4", "P29_007": "0", "P29_008": "00", "P29_009": null }, "geometry": { "type": "Point", "coordinates": [ 133.920689659611583, 34.657528168558862 ] } },
{ "type": "Feature", "properties": { "P29_001": "33101", "P29_002": "H133310000532", "P29_003": "16016", "P29_004": "岡山情報ＩＴクリエイター専門学校", "P29_005": "岡山県岡山市北区柳町2-5-21", "P29_006": "4", "P29_007": "0", "P29_008": "00", "P29_009": null }, "geometry": { "type": "Point", "coordinates": [ 133.920689659611583, 34.657480846615648 ] } }
]
}
