{
"type": "FeatureCollection",
"name": "geo_33_訪問リハビリテーション",
"crs": { "type": "name", "properties": { "name": "urn:ogc:def:crs:OGC:1.3:CRS84" } },
"features": [
{ "type": "Feature", "properties": { "内容": "済生会吉備病院【訪問リハビリテーション】岡山県岡山市北区高松原古才584-1", "url": "https://www.kaigokensaku.mhlw.go.jp/33/index.php?action_kouhyou_detail_004_kani=true&JigyosyoCd=3318800160-00&ServiceCd=140&Type=search", "url2": "http://www.saiseikaikibi.jp/" }, "geometry": { "type": "Point", "coordinates": [ 133.824300099999959, 34.6825095 ] } },
{ "type": "Feature", "properties": { "内容": "渡辺医院【訪問リハビリテーション】岡山県岡山市北区吉備津１０２２－６", "url": "https://www.kaigokensaku.mhlw.go.jp/33/index.php?action_kouhyou_detail_004_kani=true&JigyosyoCd=3310114222-00&ServiceCd=140&Type=search", "url2": "http://www.myclinic.ne.jp/wata_clinic/" }, "geometry": { "type": "Point", "coordinates": [ 133.845123400000034, 34.6733109 ] } },
{ "type": "Feature", "properties": { "内容": "難波医院訪問看護【訪問リハビリテーション】岡山県岡山市北区御津金川983", "url": "https://www.kaigokensaku.mhlw.go.jp/33/index.php?action_kouhyou_detail_004_kani=true&JigyosyoCd=3312110145-00&ServiceCd=140&Type=search", "url2": "http://www.namba-clinic.jp" }, "geometry": { "type": "Point", "coordinates": [ 133.9350723, 34.7979373 ] } },
{ "type": "Feature", "properties": { "内容": "社会医療法人　光生病院【訪問リハビリテーション】厚生町3丁目８－３５", "url": "https://www.kaigokensaku.mhlw.go.jp/33/index.php?action_kouhyou_detail_004_kani=true&JigyosyoCd=3310110246-00&ServiceCd=140&Type=search", "url2": "http://www.kousei-hp.or.jp" }, "geometry": { "type": "Point", "coordinates": [ 133.911005700000032, 34.6558341 ] } },
{ "type": "Feature", "properties": { "内容": "医療法人天成会　青江クリニック　訪問リハビリセンター【訪問リハビリテーション】岡山県岡山市北区青江5丁目1番3号", "url": "https://www.kaigokensaku.mhlw.go.jp/33/index.php?action_kouhyou_detail_004_kani=true&JigyosyoCd=3310111970-00&ServiceCd=140&Type=search", "url2": "http://www.tenseikai-aoe.or.jp" }, "geometry": { "type": "Point", "coordinates": [ 133.918166499999984, 34.6314678 ] } },
{ "type": "Feature", "properties": { "内容": "岡北整形外科医院【訪問リハビリテーション】岡山県岡山市北区津島東２－７－１", "url": "https://www.kaigokensaku.mhlw.go.jp/33/index.php?action_kouhyou_detail_004_kani=true&JigyosyoCd=3310112648-00&ServiceCd=140&Type=search", "url2": "http://sinnkyojin.com" }, "geometry": { "type": "Point", "coordinates": [ 133.928269600000021, 34.6880975 ] } },
{ "type": "Feature", "properties": { "内容": "同仁病院【訪問リハビリテーション】岡山市北区下伊福上町15-7", "url": "https://www.kaigokensaku.mhlw.go.jp/33/index.php?action_kouhyou_detail_004_kani=true&JigyosyoCd=3310112911-00&ServiceCd=140&Type=search", "url2": "http://oozorakai.com/" }, "geometry": { "type": "Point", "coordinates": [ 133.903122899999971, 34.6679185 ] } },
{ "type": "Feature", "properties": { "内容": "岡山水清会病院【訪問リハビリテーション】岡山県岡山市北区西花尻1231番地の1", "url": "https://www.kaigokensaku.mhlw.go.jp/33/index.php?action_kouhyou_detail_004_kani=true&JigyosyoCd=3310114776-00&ServiceCd=140&Type=search", "url2": "http://suiseikai-group.jp/okayama-suiseikai/" }, "geometry": { "type": "Point", "coordinates": [ 133.856453500000043, 34.651963 ] } },
{ "type": "Feature", "properties": { "内容": "つばさクリニック岡山【訪問リハビリテーション】岡山県岡山市北区奉還町1-7-7オルガビル1F", "url": "https://www.kaigokensaku.mhlw.go.jp/33/index.php?action_kouhyou_detail_004_kani=true&JigyosyoCd=3310115922-00&ServiceCd=140&Type=search", "url2": "https://www.tsubasa-clinic.net/" }, "geometry": { "type": "Point", "coordinates": [ 133.9181404, 34.6699353 ] } },
{ "type": "Feature", "properties": { "内容": "川崎医科大学総合医療センター【訪問リハビリテーション】岡山県岡山市北区中山下二丁目6番1号川崎医科大学総合医療センター", "url": "https://www.kaigokensaku.mhlw.go.jp/33/index.php?action_kouhyou_detail_004_kani=true&JigyosyoCd=3310116243-00&ServiceCd=140&Type=search", "url2": "g.kawasaki-m.ac.jp" }, "geometry": { "type": "Point", "coordinates": [ 133.927783221040357, 34.660057935969114 ] } },
{ "type": "Feature", "properties": { "内容": "介護老人保健施設　備中荘【訪問リハビリテーション】岡山県岡山市北区高松原古才600-5", "url": "https://www.kaigokensaku.mhlw.go.jp/33/index.php?action_kouhyou_detail_004_kani=true&JigyosyoCd=3350180208-00&ServiceCd=140&Type=search", "url2": "https://www.okasaisei-life.jp/facility-list/corp-bicchuso" }, "geometry": { "type": "Point", "coordinates": [ 133.825844100000012, 34.6832738 ] } },
{ "type": "Feature", "properties": { "内容": "訪問リハビリテーション　岡山福渡【訪問リハビリテーション】岡山県岡山市北区建部町福渡408-1", "url": "https://www.kaigokensaku.mhlw.go.jp/33/index.php?action_kouhyou_detail_004_kani=true&JigyosyoCd=3350180224-00&ServiceCd=140&Type=search", "url2": "http://www.aoikai.jp/fukuwatari/" }, "geometry": { "type": "Point", "coordinates": [ 133.905045638518374, 34.869437981980845 ] } },
{ "type": "Feature", "properties": { "内容": "マスカット訪問リハビリテーション【訪問リハビリテーション】岡山県岡山市北区菅野4281-1", "url": "https://www.kaigokensaku.mhlw.go.jp/33/index.php?action_kouhyou_detail_004_kani=true&JigyosyoCd=3350180158-00&ServiceCd=140&Type=search", "url2": "http://www.isto.or.jp/" }, "geometry": { "type": "Point", "coordinates": [ 133.8867557, 34.7423039 ] } },
{ "type": "Feature", "properties": { "内容": "医療法人　佐藤医院【訪問リハビリテーション】岡山市北区旭町15", "url": "https://www.kaigokensaku.mhlw.go.jp/33/index.php?action_kouhyou_detail_004_kani=true&JigyosyoCd=3310112697-00&ServiceCd=140&Type=search", "url2": "http://www.satoclinic.or.jp/" }, "geometry": { "type": "Point", "coordinates": [ 133.927092899999934, 34.6471329 ] } },
{ "type": "Feature", "properties": { "内容": "一般財団法人　淳風会　淳風会ロングライフホスピタル【訪問リハビリテーション】岡山県岡山市北区万成東町３番１号", "url": "https://www.kaigokensaku.mhlw.go.jp/33/index.php?action_kouhyou_detail_004_kani=true&JigyosyoCd=3310110261-00&ServiceCd=140&Type=search", "url2": "https://junpukai.or.jp/j-longlife/" }, "geometry": { "type": "Point", "coordinates": [ 133.8957507, 34.6733738 ] } },
{ "type": "Feature", "properties": { "内容": "川崎医科大学高齢者医療センター【訪問リハビリテーション】岡山県岡山市北区中山下2丁目1番80号川崎医科大学高齢者医療センター", "url": "https://www.kaigokensaku.mhlw.go.jp/33/index.php?action_kouhyou_detail_004_kani=true&JigyosyoCd=3310116805-00&ServiceCd=140&Type=search", "url2": "o.kawasaki-m.ac.jp" }, "geometry": { "type": "Point", "coordinates": [ 133.9271922, 34.661419100000018 ] } },
{ "type": "Feature", "properties": { "内容": "医療法人　おまち整形外科医院【訪問リハビリテーション】岡山県岡山市中区雄町２９５-３", "url": "https://www.kaigokensaku.mhlw.go.jp/33/index.php?action_kouhyou_detail_004_kani=true&JigyosyoCd=3310112838-00&ServiceCd=140&Type=search", "url2": "http://omchiseikei.com" }, "geometry": { "type": "Point", "coordinates": [ 133.9737182, 34.6860048 ] } },
{ "type": "Feature", "properties": { "内容": "介護老人保健施設恵風苑　訪問リハビリテーション【訪問リハビリテーション】岡山県岡山市中区今在家304-6", "url": "https://www.kaigokensaku.mhlw.go.jp/33/index.php?action_kouhyou_detail_004_kani=true&JigyosyoCd=3350180018-00&ServiceCd=140&Type=search", "url2": "http://www.keifuukai.or.jp/" }, "geometry": { "type": "Point", "coordinates": [ 133.949689799999987, 34.6898846 ] } },
{ "type": "Feature", "properties": { "内容": "岡山東中央病院【訪問リハビリテーション】岡山県岡山市中区倉田677-1", "url": "https://www.kaigokensaku.mhlw.go.jp/33/index.php?action_kouhyou_detail_004_kani=true&JigyosyoCd=3310113075-00&ServiceCd=140&Type=search", "url2": "https://www.okayama-health.coop/higashi/" }, "geometry": { "type": "Point", "coordinates": [ 133.9538508, 34.6346972 ] } },
{ "type": "Feature", "properties": { "内容": "岡山協立病院　リハビリテーション部【訪問リハビリテーション】岡山市中区赤坂本町8-10", "url": "https://www.kaigokensaku.mhlw.go.jp/33/index.php?action_kouhyou_detail_004_kani=true&JigyosyoCd=3310110626-00&ServiceCd=140&Type=search", "url2": "http://www.okayama-kyoritsu.jp/" }, "geometry": { "type": "Point", "coordinates": [ 133.9375973, 34.6512051 ] } },
{ "type": "Feature", "properties": { "内容": "岡山リハビリテーション病院【訪問リハビリテーション】岡山市中区倉田503－1", "url": "https://www.kaigokensaku.mhlw.go.jp/33/index.php?action_kouhyou_detail_004_kani=true&JigyosyoCd=3310115674-00&ServiceCd=140&Type=search", "url2": "http://www.okayama-reha-hp.or.jp" }, "geometry": { "type": "Point", "coordinates": [ 133.958342799999969, 34.6298525 ] } },
{ "type": "Feature", "properties": { "内容": "旭竜クリニック訪問リハビリテーション【訪問リハビリテーション】岡山県岡山市中区中島70-1", "url": "https://www.kaigokensaku.mhlw.go.jp/33/index.php?action_kouhyou_detail_004_kani=true&JigyosyoCd=3310115682-00&ServiceCd=140&Type=search", "url2": "https://www.takufukai-group.or.jp/" }, "geometry": { "type": "Point", "coordinates": [ 15.031034299999988, 46.5928679 ] } },
{ "type": "Feature", "properties": { "内容": "医療法人　洸和会　井上内科小児科医院【訪問リハビリテーション】岡山県岡山市東区東平島921番地1", "url": "https://www.kaigokensaku.mhlw.go.jp/33/index.php?action_kouhyou_detail_004_kani=true&JigyosyoCd=3310115039-00&ServiceCd=140&Type=search", "url2": "https://www.inouecl.com/" }, "geometry": { "type": "Point", "coordinates": [ 134.050672542327874, 34.719857390734497 ] } },
{ "type": "Feature", "properties": { "内容": "医療法人緑青会　宿毛診療所【訪問リハビリテーション】岡山県岡山市東区宿毛741-5", "url": "https://www.kaigokensaku.mhlw.go.jp/33/index.php?action_kouhyou_detail_004_kani=true&JigyosyoCd=3310114230-00&ServiceCd=140&Type=search", "url2": null }, "geometry": { "type": "Point", "coordinates": [ 134.084322, 34.623682 ] } },
{ "type": "Feature", "properties": { "内容": "社会医療法人　岡村一心堂病院【訪問リハビリテーション】岡山県岡山市東区西大寺南二丁目1番7号", "url": "https://www.kaigokensaku.mhlw.go.jp/33/index.php?action_kouhyou_detail_004_kani=true&JigyosyoCd=3310112630-00&ServiceCd=140&Type=search", "url2": "http://www.isshin.or.jp/" }, "geometry": { "type": "Point", "coordinates": [ 134.032351699999936, 34.6523072 ] } },
{ "type": "Feature", "properties": { "内容": "津田内科小児科医院【訪問リハビリテーション】岡山県岡山市東区古都南方2815-1", "url": "https://www.kaigokensaku.mhlw.go.jp/33/index.php?action_kouhyou_detail_004_kani=true&JigyosyoCd=3310113257-00&ServiceCd=140&Type=search", "url2": "http://www.mc-mirai.or.jp" }, "geometry": { "type": "Point", "coordinates": [ 134.018649800000048, 34.6871341 ] } },
{ "type": "Feature", "properties": { "内容": "医療法人　芥子会　城本クリニック【訪問リハビリテーション】岡山県岡山市東区松新町65-4", "url": "https://www.kaigokensaku.mhlw.go.jp/33/index.php?action_kouhyou_detail_004_kani=true&JigyosyoCd=3310114883-00&ServiceCd=140&Type=search", "url2": null }, "geometry": { "type": "Point", "coordinates": [ 134.009567699999934, 34.658409 ] } },
{ "type": "Feature", "properties": { "内容": "医療法人　知誠会　介護老人保健施設　アルテピアせと【訪問リハビリテーション】岡山県岡山市東区瀬戸町江尻711", "url": "https://www.kaigokensaku.mhlw.go.jp/33/index.php?action_kouhyou_detail_004_kani=true&JigyosyoCd=3352280014-00&ServiceCd=140&Type=search", "url2": "http://iwadou.or.jp/" }, "geometry": { "type": "Point", "coordinates": [ 134.05487770000002, 34.7261531 ] } },
{ "type": "Feature", "properties": { "内容": "にった整形クリニック【訪問リハビリテーション】岡山県岡山市南区泉田五丁目１０番４５号", "url": "https://www.kaigokensaku.mhlw.go.jp/33/index.php?action_kouhyou_detail_004_kani=true&JigyosyoCd=3310115773-00&ServiceCd=140&Type=search", "url2": "http://nittaseikei.jp/" }, "geometry": { "type": "Point", "coordinates": [ 133.910659099999947, 34.6238907 ] } },
{ "type": "Feature", "properties": { "内容": "医療法人　洋友会　中島病院【訪問リハビリテーション】岡山県岡山市南区妹尾1878", "url": "https://www.kaigokensaku.mhlw.go.jp/33/index.php?action_kouhyou_detail_004_kani=true&JigyosyoCd=3310111061-00&ServiceCd=140&Type=search", "url2": "http://www.nakashima-hp.or.jp/" }, "geometry": { "type": "Point", "coordinates": [ 133.872881600000028, 34.615598400000025 ] } },
{ "type": "Feature", "properties": { "内容": "老人保健施設　南岡山ナ－シングホ－ム【訪問リハビリテーション】岡山県岡山市南区東畦772-10", "url": "https://www.kaigokensaku.mhlw.go.jp/33/index.php?action_kouhyou_detail_004_kani=true&JigyosyoCd=3350180190-00&ServiceCd=140&Type=search", "url2": "https://www.keiyuu-kai.or.jp/" }, "geometry": { "type": "Point", "coordinates": [ 133.882032, 34.6047568 ] } },
{ "type": "Feature", "properties": { "内容": "松山胃腸科外科【訪問リハビリテーション】岡山県岡山市南区松浜町１６－１１", "url": "https://www.kaigokensaku.mhlw.go.jp/33/index.php?action_kouhyou_detail_004_kani=true&JigyosyoCd=3310112853-00&ServiceCd=140&Type=search", "url2": null }, "geometry": { "type": "Point", "coordinates": [ 133.9405812, 34.614115 ] } },
{ "type": "Feature", "properties": { "内容": "佐藤病院【訪問リハビリテーション】岡山県岡山市南区築港榮町２－１３", "url": "https://www.kaigokensaku.mhlw.go.jp/33/index.php?action_kouhyou_detail_004_kani=true&JigyosyoCd=3310111053-00&ServiceCd=140&Type=search", "url2": "http://www.sato-hp.com" }, "geometry": { "type": "Point", "coordinates": [ 133.944775599999957, 34.6075937 ] } },
{ "type": "Feature", "properties": { "内容": "岡山光南病院　訪問リハビリテーション【訪問リハビリテーション】岡山県岡山市南区東畦767-3", "url": "https://www.kaigokensaku.mhlw.go.jp/33/index.php?action_kouhyou_detail_004_kani=true&JigyosyoCd=3310111392-00&ServiceCd=140&Type=search", "url2": "https://www.kounan-hp.jp/reha/taiincare/" }, "geometry": { "type": "Point", "coordinates": [ 133.8812379, 34.6049021 ] } },
{ "type": "Feature", "properties": { "内容": "医療法人ふたば会　うちおグリーンクリニック【訪問リハビリテーション】内尾463", "url": "https://www.kaigokensaku.mhlw.go.jp/33/index.php?action_kouhyou_detail_004_kani=true&JigyosyoCd=3310112820-00&ServiceCd=140&Type=search", "url2": "https://futaba-ac.jp" }, "geometry": { "type": "Point", "coordinates": [ 133.857530399999973, 34.5992142 ] } },
{ "type": "Feature", "properties": { "内容": "ながい内科クリニック【訪問リハビリテーション】岡山市南区泉田5丁目10番32号", "url": "https://www.kaigokensaku.mhlw.go.jp/33/index.php?action_kouhyou_detail_004_kani=true&JigyosyoCd=3310115609-00&ServiceCd=140&Type=search", "url2": "http://www.yotuba.or.jp" }, "geometry": { "type": "Point", "coordinates": [ 133.910970200000065, 34.6235391 ] } },
{ "type": "Feature", "properties": { "内容": "池田医院【訪問リハビリテーション】岡山県岡山市南区彦崎2801-1", "url": "https://www.kaigokensaku.mhlw.go.jp/33/index.php?action_kouhyou_detail_004_kani=true&JigyosyoCd=3312510047-00&ServiceCd=140&Type=search", "url2": "https://ikedaiinn.or.jp" }, "geometry": { "type": "Point", "coordinates": [ 133.83642, 34.552018700000019 ] } },
{ "type": "Feature", "properties": { "内容": "倉敷広済クリニック【訪問リハビリテーション】岡山県倉敷市東塚５丁目４番１６号", "url": "https://www.kaigokensaku.mhlw.go.jp/33/index.php?action_kouhyou_detail_004_kani=true&JigyosyoCd=3310212935-00&ServiceCd=140&Type=search", "url2": "http://www.wakokai.com" }, "geometry": { "type": "Point", "coordinates": [ 133.7629723, 34.5310948 ] } },
{ "type": "Feature", "properties": { "内容": "医療法人　社団百子会　やまな内科整形外科【訪問リハビリテーション】岡山県倉敷市児島下の町10-2-12", "url": "https://www.kaigokensaku.mhlw.go.jp/33/index.php?action_kouhyou_detail_004_kani=true&JigyosyoCd=3310213099-00&ServiceCd=140&Type=search", "url2": "http://www.yamanahp.or.jp" }, "geometry": { "type": "Point", "coordinates": [ 133.8241408, 34.4738885 ] } },
{ "type": "Feature", "properties": { "内容": "医療法人福嶋医院倉敷駅前診療所【訪問リハビリテーション】岡山県倉敷市阿知2丁目14番8号", "url": "https://www.kaigokensaku.mhlw.go.jp/33/index.php?action_kouhyou_detail_004_kani=true&JigyosyoCd=3310213032-00&ServiceCd=140&Type=search", "url2": "http://kura2148.byoinnavi.jp/pc/guide.html" }, "geometry": { "type": "Point", "coordinates": [ 133.769558400000051, 34.5997783 ] } },
{ "type": "Feature", "properties": { "内容": "医療法人　えんさこ医院【訪問リハビリテーション】岡山県倉敷市下庄４５８－１", "url": "https://www.kaigokensaku.mhlw.go.jp/33/index.php?action_kouhyou_detail_004_kani=true&JigyosyoCd=3310211481-00&ServiceCd=140&Type=search", "url2": "http://www.ensako.or.jp/" }, "geometry": { "type": "Point", "coordinates": [ 133.822847200000069, 34.6401168 ] } },
{ "type": "Feature", "properties": { "内容": "医療法人　昭和会　倉敷北病院【訪問リハビリテーション】岡山県倉敷市宮前41-2", "url": "https://www.kaigokensaku.mhlw.go.jp/33/index.php?action_kouhyou_detail_004_kani=true&JigyosyoCd=3310212398-00&ServiceCd=140&Type=search", "url2": "http://www.kurakita.or.jp" }, "geometry": { "type": "Point", "coordinates": [ 133.7618675, 34.6106417 ] } },
{ "type": "Feature", "properties": { "内容": "医療法人社団新風会玉島中央病院【訪問リハビリテーション】岡山県倉敷市玉島阿賀崎２－１－１", "url": "https://www.kaigokensaku.mhlw.go.jp/33/index.php?action_kouhyou_detail_004_kani=true&JigyosyoCd=3310213065-00&ServiceCd=140&Type=search", "url2": "http://www.tamashima-ch.or.jp" }, "geometry": { "type": "Point", "coordinates": [ 133.672794637434436, 34.547792203842221 ] } },
{ "type": "Feature", "properties": { "内容": "つばめクリニック【訪問リハビリテーション】岡山県倉敷市西坂752－2", "url": "https://www.kaigokensaku.mhlw.go.jp/33/index.php?action_kouhyou_detail_004_kani=true&JigyosyoCd=3310207141-00&ServiceCd=140&Type=search", "url2": "https://tsubame-clinic.com" }, "geometry": { "type": "Point", "coordinates": [ 133.775883347885127, 34.624450871726168 ] } },
{ "type": "Feature", "properties": { "内容": "渡辺胃腸科外科病院【訪問リハビリテーション】岡山県倉敷市玉島上成５３９－５", "url": "https://www.kaigokensaku.mhlw.go.jp/33/index.php?action_kouhyou_detail_004_kani=true&JigyosyoCd=3310210863-00&ServiceCd=140&Type=search", "url2": "http://watanabe.or.jp/" }, "geometry": { "type": "Point", "coordinates": [ 133.686748299999977, 34.5626876 ] } },
{ "type": "Feature", "properties": { "内容": "いなだ医院【訪問リハビリテーション】岡山県倉敷市玉島柏島920-106", "url": "https://www.kaigokensaku.mhlw.go.jp/33/index.php?action_kouhyou_detail_004_kani=true&JigyosyoCd=3310212208-00&ServiceCd=140&Type=search", "url2": null }, "geometry": { "type": "Point", "coordinates": [ 133.662246699999969, 34.5326818 ] } },
{ "type": "Feature", "properties": { "内容": "つばさクリニック【訪問リハビリテーション】岡山県倉敷市大島534-1", "url": "https://www.kaigokensaku.mhlw.go.jp/33/index.php?action_kouhyou_detail_004_kani=true&JigyosyoCd=3310212943-00&ServiceCd=140&Type=search", "url2": "https://www.tsubasa-clinic.net/" }, "geometry": { "type": "Point", "coordinates": [ 133.7755454, 34.607896 ] } },
{ "type": "Feature", "properties": { "内容": "マツミクリニック【訪問リハビリテーション】岡山県倉敷市玉島中央町1-4-8", "url": "https://www.kaigokensaku.mhlw.go.jp/33/index.php?action_kouhyou_detail_004_kani=true&JigyosyoCd=3310213107-00&ServiceCd=140&Type=search", "url2": "http://www.tamashima-ch.or.jp/shumei/index.html" }, "geometry": { "type": "Point", "coordinates": [ 133.6729249, 34.5465835 ] } },
{ "type": "Feature", "properties": { "内容": "おうじクリニック【訪問リハビリテーション】倉敷市児島下の町５丁目２番１７号", "url": "https://www.kaigokensaku.mhlw.go.jp/33/index.php?action_kouhyou_detail_004_kani=true&JigyosyoCd=3370206736-00&ServiceCd=140&Type=search", "url2": "http://www.ohji-nouge.or.jp/" }, "geometry": { "type": "Point", "coordinates": [ 133.82167979999997, 34.4776046 ] } },
{ "type": "Feature", "properties": { "内容": "下津井病院【訪問リハビリテーション】倉敷市下津井吹上2丁目6番4号", "url": "https://www.kaigokensaku.mhlw.go.jp/33/index.php?action_kouhyou_detail_004_kani=true&JigyosyoCd=3310210640-00&ServiceCd=140&Type=search", "url2": "http://www.shimotsui-hp.jp" }, "geometry": { "type": "Point", "coordinates": [ 133.800110628836052, 34.441189094564422 ] } },
{ "type": "Feature", "properties": { "内容": "老人保健施設　老健あかね【訪問リハビリテーション】岡山県倉敷市水島東千鳥町１番６０号", "url": "https://www.kaigokensaku.mhlw.go.jp/33/index.php?action_kouhyou_detail_004_kani=true&JigyosyoCd=3350280073-00&ServiceCd=140&Type=search", "url2": "http://coopreha.jp/" }, "geometry": { "type": "Point", "coordinates": [ 133.740268389935295, 34.528702300974437 ] } },
{ "type": "Feature", "properties": { "内容": "介護老人保健施設　和光園【訪問リハビリテーション】岡山県倉敷市東塚５丁目４番５０号", "url": "https://www.kaigokensaku.mhlw.go.jp/33/index.php?action_kouhyou_detail_004_kani=true&JigyosyoCd=3350280107-00&ServiceCd=140&Type=search", "url2": "http://www.wakokai.com" }, "geometry": { "type": "Point", "coordinates": [ 133.763327900000036, 34.5311476 ] } },
{ "type": "Feature", "properties": { "内容": "まび記念病院【訪問リハビリテーション】真備町川辺2000番地1", "url": "https://www.kaigokensaku.mhlw.go.jp/33/index.php?action_kouhyou_detail_004_kani=true&JigyosyoCd=3310213040-00&ServiceCd=140&Type=search", "url2": "https://www.mkh.or.jp/" }, "geometry": { "type": "Point", "coordinates": [ 133.710142499999989, 34.6375183 ] } },
{ "type": "Feature", "properties": { "内容": "医療法人　弘和会　みやけ内科小児科耳鼻咽喉科医院　訪問リハビリテーション【訪問リハビリテーション】岡山県倉敷市福田町古新田８１４", "url": "https://www.kaigokensaku.mhlw.go.jp/33/index.php?action_kouhyou_detail_004_kani=true&JigyosyoCd=3310211499-00&ServiceCd=140&Type=search", "url2": "http://green0wind.web.fc2.com/" }, "geometry": { "type": "Point", "coordinates": [ 133.768763400000012, 34.5404631 ] } },
{ "type": "Feature", "properties": { "内容": "しげい病院訪問リハビリテーション【訪問リハビリテーション】岡山県倉敷市幸町２－３０", "url": "https://www.kaigokensaku.mhlw.go.jp/33/index.php?action_kouhyou_detail_004_kani=true&JigyosyoCd=3310210145-00&ServiceCd=140&Type=search", "url2": "https://shigei.jp/" }, "geometry": { "type": "Point", "coordinates": [ 133.773147399999971, 34.6036701 ] } },
{ "type": "Feature", "properties": { "内容": "社会医療法人　全仁会　倉敷平成病院【訪問リハビリテーション】岡山県倉敷市老松町4丁目3-38", "url": "https://www.kaigokensaku.mhlw.go.jp/33/index.php?action_kouhyou_detail_004_kani=true&JigyosyoCd=3310210822-00&ServiceCd=140&Type=search", "url2": "http://www.heisei.or.jp/" }, "geometry": { "type": "Point", "coordinates": [ 133.761676200000011, 34.5930155 ] } },
{ "type": "Feature", "properties": { "内容": "医療法人和香会倉敷スイートホスピタル【訪問リハビリテーション】岡山県倉敷市中庄３５４２番１倉敷スイートタウン", "url": "https://www.kaigokensaku.mhlw.go.jp/33/index.php?action_kouhyou_detail_004_kani=true&JigyosyoCd=3310212927-00&ServiceCd=140&Type=search", "url2": "http://sweet-town.jp/hospital/index.html" }, "geometry": { "type": "Point", "coordinates": [ 133.804156299999931, 34.6244656 ] } },
{ "type": "Feature", "properties": { "内容": "片山内科クリニック【訪問リハビリテーション】岡山県倉敷市寿町1-26マツダパーキングビル1Fマツダパーキングビル1F", "url": "https://www.kaigokensaku.mhlw.go.jp/33/index.php?action_kouhyou_detail_004_kani=true&JigyosyoCd=3310213412-00&ServiceCd=140&Type=search", "url2": null }, "geometry": { "type": "Point", "coordinates": [ 133.766212626983645, 34.603422904528031 ] } },
{ "type": "Feature", "properties": { "内容": "倉敷紀念病院訪問リハビリ【訪問リハビリテーション】岡山県倉敷市中島８３１番地", "url": "https://www.kaigokensaku.mhlw.go.jp/33/index.php?action_kouhyou_detail_004_kani=true&JigyosyoCd=3310210418-00&ServiceCd=140&Type=search", "url2": "http://www.seiwakai-net.or.jp/" }, "geometry": { "type": "Point", "coordinates": [ 133.7395823, 34.5788236 ] } },
{ "type": "Feature", "properties": { "内容": "介護老人保健施設　ニューエルダーセンター【訪問リハビリテーション】倉敷市玉島1334-1", "url": "https://www.kaigokensaku.mhlw.go.jp/33/index.php?action_kouhyou_detail_004_kani=true&JigyosyoCd=3350280016-00&ServiceCd=140&Type=search", "url2": "www.newelder.jp" }, "geometry": { "type": "Point", "coordinates": [ 133.682622890212997, 34.548298688657965 ] } },
{ "type": "Feature", "properties": { "内容": "介護老人保健施設　サンライフ倉敷【訪問リハビリテーション】岡山県倉敷市下庄700番地１", "url": "https://www.kaigokensaku.mhlw.go.jp/33/index.php?action_kouhyou_detail_004_kani=true&JigyosyoCd=3350280099-00&ServiceCd=140&Type=search", "url2": "https://suiseikai-group.jp" }, "geometry": { "type": "Point", "coordinates": [ 133.823822400000012, 34.6367775 ] } },
{ "type": "Feature", "properties": { "内容": "医療法人福寿会　藤戸クリニック【訪問リハビリテーション】岡山県倉敷市藤戸町藤戸1573-1", "url": "https://www.kaigokensaku.mhlw.go.jp/33/index.php?action_kouhyou_detail_004_kani=true&JigyosyoCd=3310212703-00&ServiceCd=140&Type=search", "url2": "http://fukujyu.or.jp" }, "geometry": { "type": "Point", "coordinates": [ 133.8223736, 34.5581814 ] } },
{ "type": "Feature", "properties": { "内容": "津山第一病院　訪問リハビリテーション【訪問リハビリテーション】岡山県津山市中島４３８", "url": "https://www.kaigokensaku.mhlw.go.jp/33/index.php?action_kouhyou_detail_004_kani=true&JigyosyoCd=3310310663-00&ServiceCd=140&Type=search", "url2": null }, "geometry": { "type": "Point", "coordinates": [ 133.966718899999933, 35.0535439 ] } },
{ "type": "Feature", "properties": { "内容": "介護老人保健施設　おとなの学校岡山校【訪問リハビリテーション】岡山県津山市日本原352", "url": "https://www.kaigokensaku.mhlw.go.jp/33/index.php?action_kouhyou_detail_004_kani=true&JigyosyoCd=3353680014-00&ServiceCd=140&Type=search", "url2": "http://www.seifuukai.com/school/" }, "geometry": { "type": "Point", "coordinates": [ 134.132151300000032, 35.11113 ] } },
{ "type": "Feature", "properties": { "内容": "内田整形外科医院【訪問リハビリテーション】岡山県津山市山北550-1", "url": "https://www.kaigokensaku.mhlw.go.jp/33/index.php?action_kouhyou_detail_004_kani=true&JigyosyoCd=3310301647-00&ServiceCd=140&Type=search", "url2": "uchidasekei,jp" }, "geometry": { "type": "Point", "coordinates": [ 134.0043805, 35.0727773 ] } },
{ "type": "Feature", "properties": { "内容": "老人保健施設のぞみ苑【訪問リハビリテーション】川崎554-5", "url": "https://www.kaigokensaku.mhlw.go.jp/33/index.php?action_kouhyou_detail_004_kani=true&JigyosyoCd=3350380014-00&ServiceCd=140&Type=search", "url2": "http://www.toukou.or.jp" }, "geometry": { "type": "Point", "coordinates": [ 134.025365264356992, 35.062414675487076 ] } },
{ "type": "Feature", "properties": { "内容": "中谷外科病院【訪問リハビリテーション】岡山県玉野市田井3丁目１-20", "url": "https://www.kaigokensaku.mhlw.go.jp/33/index.php?action_kouhyou_detail_004_kani=true&JigyosyoCd=3310410182-00&ServiceCd=140&Type=search", "url2": "http://www.nakatani-hosp.jp" }, "geometry": { "type": "Point", "coordinates": [ 133.94537, 34.5150274 ] } },
{ "type": "Feature", "properties": { "内容": "たまメディカルリハビリテーションクリニック【訪問リハビリテーション】岡山県玉野市玉2丁目25番19号", "url": "https://www.kaigokensaku.mhlw.go.jp/33/index.php?action_kouhyou_detail_004_kani=true&JigyosyoCd=3310410505-00&ServiceCd=140&Type=search", "url2": "http://www.tamamrc.jp/" }, "geometry": { "type": "Point", "coordinates": [ 133.932146200000034, 34.4819522 ] } },
{ "type": "Feature", "properties": { "内容": "ハーヴィスクリニック【訪問リハビリテーション】岡山県玉野市東高崎24-8", "url": "https://www.kaigokensaku.mhlw.go.jp/33/index.php?action_kouhyou_detail_004_kani=true&JigyosyoCd=3310410620-00&ServiceCd=140&Type=search", "url2": "http://www.hurvise-clinic.jp/" }, "geometry": { "type": "Point", "coordinates": [ 133.8924154, 34.5401793 ] } },
{ "type": "Feature", "properties": { "内容": "医療法人こまくさ会河口医院【訪問リハビリテーション】岡山県玉野市宇野５丁目１番１号", "url": "https://www.kaigokensaku.mhlw.go.jp/33/index.php?action_kouhyou_detail_004_kani=true&JigyosyoCd=3310410398-00&ServiceCd=140&Type=search", "url2": "http://www.komakusakai.com/" }, "geometry": { "type": "Point", "coordinates": [ 133.9398831, 34.4915247 ] } },
{ "type": "Feature", "properties": { "内容": "医療法人緑十字会笠岡中央病院【訪問リハビリテーション】岡山県笠岡市笠岡5102番地14", "url": "https://www.kaigokensaku.mhlw.go.jp/33/index.php?action_kouhyou_detail_004_kani=true&JigyosyoCd=3310510221-00&ServiceCd=140&Type=search", "url2": "http://www.midorijujikai.or.jp" }, "geometry": { "type": "Point", "coordinates": [ 133.5075367, 34.5121297 ] } },
{ "type": "Feature", "properties": { "内容": "笠岡第一病院訪問リハビリテーション【訪問リハビリテーション】岡山県笠岡市横島1945", "url": "https://www.kaigokensaku.mhlw.go.jp/33/index.php?action_kouhyou_detail_004_kani=true&JigyosyoCd=3310510098-00&ServiceCd=140&Type=search", "url2": "http://www.kasaoka-d-hp.or.jp" }, "geometry": { "type": "Point", "coordinates": [ 133.520599299999958, 34.4782248 ] } },
{ "type": "Feature", "properties": { "内容": "村上脳神経外科内科【訪問リハビリテーション】大井南２８－４", "url": "https://www.kaigokensaku.mhlw.go.jp/33/index.php?action_kouhyou_detail_004_kani=true&JigyosyoCd=3310510379-00&ServiceCd=140&Type=search", "url2": "myclinic.ne.jp/murakami/pc" }, "geometry": { "type": "Point", "coordinates": [ 133.510168099999987, 34.5303221 ] } },
{ "type": "Feature", "properties": { "内容": "笠岡市立市民病院【訪問リハビリテーション】岡山県笠岡市笠岡5628番地の1", "url": "https://www.kaigokensaku.mhlw.go.jp/33/index.php?action_kouhyou_detail_004_kani=true&JigyosyoCd=3318900325-00&ServiceCd=140&Type=search", "url2": "https://www.city.kasaoka.okayama.jp/site/hospital/" }, "geometry": { "type": "Point", "coordinates": [ 133.4975178, 34.5057707 ] } },
{ "type": "Feature", "properties": { "内容": "医療法人平允会森本整形外科医院　訪問リハビリテーション【訪問リハビリテーション】岡山県井原市上出部町473番地", "url": "https://www.kaigokensaku.mhlw.go.jp/33/index.php?action_kouhyou_detail_004_kani=true&JigyosyoCd=3310710136-00&ServiceCd=140&Type=search", "url2": null }, "geometry": { "type": "Point", "coordinates": [ 133.467452099999946, 34.594453 ] } },
{ "type": "Feature", "properties": { "内容": "医療法人社団　菅病院【訪問リハビリテーション】岡山県井原市井原町124番地", "url": "https://www.kaigokensaku.mhlw.go.jp/33/index.php?action_kouhyou_detail_004_kani=true&JigyosyoCd=3310710037-00&ServiceCd=140&Type=search", "url2": "https://sugahospital.jp/" }, "geometry": { "type": "Point", "coordinates": [ 133.464184199999977, 34.5960359 ] } },
{ "type": "Feature", "properties": { "内容": "井原第一クリニック【訪問リハビリテーション】岡山県井原市高屋町127番地の1井原第一クリニック", "url": "https://www.kaigokensaku.mhlw.go.jp/33/index.php?action_kouhyou_detail_004_kani=true&JigyosyoCd=3370700910-00&ServiceCd=140&Type=search", "url2": "http://www.ibara-1stclinic.jp" }, "geometry": { "type": "Point", "coordinates": [ 133.4262836, 34.5795226 ] } },
{ "type": "Feature", "properties": { "内容": "井原市立井原市民病院【訪問リハビリテーション】岡山県井原市井原町１１８６番地", "url": "https://www.kaigokensaku.mhlw.go.jp/33/index.php?action_kouhyou_detail_004_kani=true&JigyosyoCd=3318900416-00&ServiceCd=140&Type=search", "url2": "http://www.ibarahp.jp" }, "geometry": { "type": "Point", "coordinates": [ 133.458856700000069, 34.6032711 ] } },
{ "type": "Feature", "properties": { "内容": "泉クリニック【訪問リハビリテーション】岡山県総社市小寺995-1", "url": "https://www.kaigokensaku.mhlw.go.jp/33/index.php?action_kouhyou_detail_004_kani=true&JigyosyoCd=3310810191-00&ServiceCd=140&Type=search", "url2": "http://www.izumi-no-kokoro.or.jp/index.html" }, "geometry": { "type": "Point", "coordinates": [ 133.746485900000039, 34.6878698 ] } },
{ "type": "Feature", "properties": { "内容": "森下病院【訪問リハビリテーション】岡山県総社市駅前1丁目６－1", "url": "https://www.kaigokensaku.mhlw.go.jp/33/index.php?action_kouhyou_detail_004_kani=true&JigyosyoCd=3310810019-00&ServiceCd=140&Type=search", "url2": "http://morishitahp.or.jp/" }, "geometry": { "type": "Point", "coordinates": [ 133.7399871, 34.6745127 ] } },
{ "type": "Feature", "properties": { "内容": "医療法人原田整形外科【訪問リハビリテーション】岡山県総社市井手1208番地2", "url": "https://www.kaigokensaku.mhlw.go.jp/33/index.php?action_kouhyou_detail_004_kani=true&JigyosyoCd=3310810399-00&ServiceCd=140&Type=search", "url2": "https://harada-seikei.netlify.app/" }, "geometry": { "type": "Point", "coordinates": [ 133.7677816, 34.679915 ] } },
{ "type": "Feature", "properties": { "内容": "医療法人　清梁会　高梁中央病院【訪問リハビリテーション】岡山県高梁市南町53番地", "url": "https://www.kaigokensaku.mhlw.go.jp/33/index.php?action_kouhyou_detail_004_kani=true&JigyosyoCd=3310910074-00&ServiceCd=140&Type=search", "url2": "http://seiryoukai.jp" }, "geometry": { "type": "Point", "coordinates": [ 133.612275899999986, 34.7878245 ] } },
{ "type": "Feature", "properties": { "内容": "医療法人慶真会大杉病院【訪問リハビリテーション】岡山県高梁市柿木町24", "url": "https://www.kaigokensaku.mhlw.go.jp/33/index.php?action_kouhyou_detail_004_kani=true&JigyosyoCd=3310910199-00&ServiceCd=140&Type=search", "url2": "http://www.oosugi-hospital.or.jp/" }, "geometry": { "type": "Point", "coordinates": [ 133.617654300000027, 34.7957166 ] } },
{ "type": "Feature", "properties": { "内容": "高梁市国民健康保険成羽病院【訪問リハビリテーション】岡山県高梁市成羽町下原301番地", "url": "https://www.kaigokensaku.mhlw.go.jp/33/index.php?action_kouhyou_detail_004_kani=true&JigyosyoCd=3318902347-00&ServiceCd=140&Type=search", "url2": "https://www.city.takahashi.lg.jp/site/nariwahospital/" }, "geometry": { "type": "Point", "coordinates": [ 133.545328, 34.7825953 ] } },
{ "type": "Feature", "properties": { "内容": "哲西町診療所【訪問リハビリテーション】新見市哲西町矢田3604番地", "url": "https://www.kaigokensaku.mhlw.go.jp/33/index.php?action_kouhyou_detail_004_kani=true&JigyosyoCd=3313310199-00&ServiceCd=140&Type=search", "url2": "http://www.tesseishinryo.com" }, "geometry": { "type": "Point", "coordinates": [ 133.3314583, 34.9327443 ] } },
{ "type": "Feature", "properties": { "内容": "長谷川紀念病院訪問リハビリテーション【訪問リハビリテーション】岡山県新見市高尾793-6", "url": "https://www.kaigokensaku.mhlw.go.jp/33/index.php?action_kouhyou_detail_004_kani=true&JigyosyoCd=3371000542-00&ServiceCd=140&Type=search", "url2": "http://www.hasegawa-hp.gr.jp/" }, "geometry": { "type": "Point", "coordinates": [ 133.450101, 34.9940677 ] } },
{ "type": "Feature", "properties": { "内容": "介護老人保健施設くろかみ【訪問リハビリテーション】岡山県新見市高尾２３０６－５", "url": "https://www.kaigokensaku.mhlw.go.jp/33/index.php?action_kouhyou_detail_004_kani=true&JigyosyoCd=3351080001-00&ServiceCd=140&Type=search", "url2": "http://www.kurokami.jp/" }, "geometry": { "type": "Point", "coordinates": [ 133.44713790000003, 34.9936889 ] } },
{ "type": "Feature", "properties": { "内容": "医療法人　思誠会　渡辺病院【訪問リハビリテーション】岡山県新見市高尾2278-1", "url": "https://www.kaigokensaku.mhlw.go.jp/33/index.php?action_kouhyou_detail_004_kani=true&JigyosyoCd=3311010288-00&ServiceCd=140&Type=search", "url2": "http://www.watanabe-byouin.or.jp" }, "geometry": { "type": "Point", "coordinates": [ 133.445575111639386, 34.994479683712377 ] } },
{ "type": "Feature", "properties": { "内容": "草加病院【訪問リハビリテーション】岡山県備前市西片上1122", "url": "https://www.kaigokensaku.mhlw.go.jp/33/index.php?action_kouhyou_detail_004_kani=true&JigyosyoCd=3311110104-00&ServiceCd=140&Type=search", "url2": "http://kusaka-soujinkai.jp" }, "geometry": { "type": "Point", "coordinates": [ 134.182610899999986, 34.7466143 ] } },
{ "type": "Feature", "properties": { "内容": "備前市国民健康保険市立日生病院【訪問リハビリテーション】岡山県備前市日生町寒河2570-41", "url": "https://www.kaigokensaku.mhlw.go.jp/33/index.php?action_kouhyou_detail_004_kani=true&JigyosyoCd=3318902941-00&ServiceCd=140&Type=search", "url2": "http://www.city.bizen.okayama.jp/shimin/shisetsu/hinasehospital/index.html" }, "geometry": { "type": "Point", "coordinates": [ 134.279653, 34.7338881 ] } },
{ "type": "Feature", "properties": { "内容": "備前市国民健康保険市立吉永病院【訪問リハビリテーション】岡山県備前市吉永町吉永中563－4", "url": "https://www.kaigokensaku.mhlw.go.jp/33/index.php?action_kouhyou_detail_004_kani=true&JigyosyoCd=3318902958-00&ServiceCd=140&Type=search", "url2": "http://www.city.bizen.okayama.jp/" }, "geometry": { "type": "Point", "coordinates": [ 134.20332350000001, 34.8118455 ] } },
{ "type": "Feature", "properties": { "内容": "介護老人保健施設　備前閑谷苑【訪問リハビリテーション】岡山県備前市木谷217－1", "url": "https://www.kaigokensaku.mhlw.go.jp/33/index.php?action_kouhyou_detail_004_kani=true&JigyosyoCd=3351180017-00&ServiceCd=140&Type=search", "url2": "http://www.shizutanikai.com" }, "geometry": { "type": "Point", "coordinates": [ 134.222166499999958, 34.7627546 ] } },
{ "type": "Feature", "properties": { "内容": "備前市国民健康保険市立備前病院訪問リハビリテーション事業所【訪問リハビリテーション】岡山県備前市伊部2245番地", "url": "https://www.kaigokensaku.mhlw.go.jp/33/index.php?action_kouhyou_detail_004_kani=true&JigyosyoCd=3371100870-00&ServiceCd=140&Type=search", "url2": "https://www.city.bizen.okayama.jp/soshiki/55/" }, "geometry": { "type": "Point", "coordinates": [ 134.1558775, 34.7392777 ] } },
{ "type": "Feature", "properties": { "内容": "ひさとみ歯科クリニック【訪問リハビリテーション】岡山県瀬戸内市長船町土師313-1", "url": "https://www.kaigokensaku.mhlw.go.jp/33/index.php?action_kouhyou_detail_004_kani=true&JigyosyoCd=3331200034-00&ServiceCd=140&Type=search", "url2": "https://www.hisatomishika.com" }, "geometry": { "type": "Point", "coordinates": [ 134.0928408, 34.664903 ] } },
{ "type": "Feature", "properties": { "内容": "邑久ナーシングホーム　訪問リハビリテーション【訪問リハビリテーション】邑久町箕輪266-1", "url": "https://www.kaigokensaku.mhlw.go.jp/33/index.php?action_kouhyou_detail_004_kani=true&JigyosyoCd=3352480002-00&ServiceCd=140&Type=search", "url2": null }, "geometry": { "type": "Point", "coordinates": [ 134.09103191045071, 34.684325421476451 ] } },
{ "type": "Feature", "properties": { "内容": "医療法人　平井医院【訪問リハビリテーション】岡山県瀬戸内市長船町福岡１０２－１", "url": "https://www.kaigokensaku.mhlw.go.jp/33/index.php?action_kouhyou_detail_004_kani=true&JigyosyoCd=3312410065-00&ServiceCd=140&Type=search", "url2": "http://www.hirai-iin.jp" }, "geometry": { "type": "Point", "coordinates": [ 134.0921727, 34.7051559 ] } },
{ "type": "Feature", "properties": { "内容": "さくら整形クリニック【訪問リハビリテーション】岡山県赤磐市桜が丘東４丁目－４７１", "url": "https://www.kaigokensaku.mhlw.go.jp/33/index.php?action_kouhyou_detail_004_kani=true&JigyosyoCd=3311310043-00&ServiceCd=140&Type=search", "url2": "www.sakura-ortho.jp" }, "geometry": { "type": "Point", "coordinates": [ 134.044904, 34.7833236 ] } },
{ "type": "Feature", "properties": { "内容": "落合病院【訪問リハビリテーション】上市瀬341", "url": "https://www.kaigokensaku.mhlw.go.jp/33/index.php?action_kouhyou_detail_004_kani=true&JigyosyoCd=3311410066-00&ServiceCd=140&Type=search", "url2": "https://ochiaihp.jp/" }, "geometry": { "type": "Point", "coordinates": [ 133.745380399999988, 35.0335533 ] } },
{ "type": "Feature", "properties": { "内容": "真庭市国民健康保険　湯原温泉病院【訪問リハビリテーション】岡山県真庭市下湯原５６", "url": "https://www.kaigokensaku.mhlw.go.jp/33/index.php?action_kouhyou_detail_004_kani=true&JigyosyoCd=3318902784-00&ServiceCd=140&Type=search", "url2": "http://www.yubara.com/hospital/" }, "geometry": { "type": "Point", "coordinates": [ 133.733784199999945, 35.1874902 ] } },
{ "type": "Feature", "properties": { "内容": "訪問リハビリテーションわたぼうし【訪問リハビリテーション】岡山県真庭市本郷1819番地", "url": "https://www.kaigokensaku.mhlw.go.jp/33/index.php?action_kouhyou_detail_004_kani=true&JigyosyoCd=3373401284-00&ServiceCd=140&Type=search", "url2": null }, "geometry": { "type": "Point", "coordinates": [ 133.6891263, 35.0848424 ] } },
{ "type": "Feature", "properties": { "内容": "医療法人三水会　田尻病院【訪問リハビリテーション】岡山県美作市明見550番地の1", "url": "https://www.kaigokensaku.mhlw.go.jp/33/index.php?action_kouhyou_detail_004_kani=true&JigyosyoCd=3313710117-00&ServiceCd=140&Type=search", "url2": "http://www.tajirihp.or.jp" }, "geometry": { "type": "Point", "coordinates": [ 134.145816599999989, 35.015843 ] } },
{ "type": "Feature", "properties": { "内容": "美作市立大原病院【訪問リハビリテーション】岡山県美作市古町1771-9", "url": "https://www.kaigokensaku.mhlw.go.jp/33/index.php?action_kouhyou_detail_004_kani=true&JigyosyoCd=3318902768-00&ServiceCd=140&Type=search", "url2": "http://ohara-hp.city.mimasaka.lg.jp/" }, "geometry": { "type": "Point", "coordinates": [ 134.3272533, 35.1193319 ] } },
{ "type": "Feature", "properties": { "内容": "医療法人　みわ記念病院　訪問リハビリテーション事業所【訪問リハビリテーション】岡山県浅口市金光町佐方80番地1", "url": "https://www.kaigokensaku.mhlw.go.jp/33/index.php?action_kouhyou_detail_004_kani=true&JigyosyoCd=3312710134-00&ServiceCd=140&Type=search", "url2": null }, "geometry": { "type": "Point", "coordinates": [ 133.610774200000037, 34.5360182 ] } },
{ "type": "Feature", "properties": { "内容": "介護老人保健施設サンパレス桃花【訪問リハビリテーション】岡山県浅口市鴨方町六条院中１３２９", "url": "https://www.kaigokensaku.mhlw.go.jp/33/index.php?action_kouhyou_detail_004_kani=true&JigyosyoCd=3352780021-00&ServiceCd=140&Type=search", "url2": "httpｓ://www.sunpalacetouka2.com/." }, "geometry": { "type": "Point", "coordinates": [ 133.578430499999968, 34.5214482 ] } },
{ "type": "Feature", "properties": { "内容": "医療法人社団同仁会金光病院訪問リハビリテーション【訪問リハビリテーション】岡山県浅口市金光町占見新田740番地", "url": "https://www.kaigokensaku.mhlw.go.jp/33/index.php?action_kouhyou_detail_004_kani=true&JigyosyoCd=3312710019-00&ServiceCd=140&Type=search", "url2": "http://konkohp.jp/" }, "geometry": { "type": "Point", "coordinates": [ 133.626247299999932, 34.5419174 ] } },
{ "type": "Feature", "properties": { "内容": "医療法人福嶋医院介護老人保健施設いるかの家リハビリテーションセンター【訪問リハビリテーション】浅口市寄島町１６０８９－１６", "url": "https://www.kaigokensaku.mhlw.go.jp/33/index.php?action_kouhyou_detail_004_kani=true&JigyosyoCd=3352780039-00&ServiceCd=140&Type=search", "url2": "http://www.iruka.or.jp/" }, "geometry": { "type": "Point", "coordinates": [ 133.5865854, 34.4762926 ] } },
{ "type": "Feature", "properties": { "内容": "北川病院【訪問リハビリテーション】岡山県和気郡和気町和気２77", "url": "https://www.kaigokensaku.mhlw.go.jp/33/index.php?action_kouhyou_detail_004_kani=true&JigyosyoCd=3312310125-00&ServiceCd=140&Type=search", "url2": "http://www.kitagawa-hp.jp/" }, "geometry": { "type": "Point", "coordinates": [ 134.144267799999966, 34.8022544 ] } },
{ "type": "Feature", "properties": { "内容": "医療法人平病院【訪問リハビリテーション】岡山県和気郡和気町尺所438", "url": "https://www.kaigokensaku.mhlw.go.jp/33/index.php?action_kouhyou_detail_004_kani=true&JigyosyoCd=3312310208-00&ServiceCd=140&Type=search", "url2": "http://www.tairahos.or.jp" }, "geometry": { "type": "Point", "coordinates": [ 134.161474699999985, 34.8049236 ] } },
{ "type": "Feature", "properties": { "内容": "医療法人　渋藤医院【訪問リハビリテーション】岡山県和気郡和気町父井原434-1", "url": "https://www.kaigokensaku.mhlw.go.jp/33/index.php?action_kouhyou_detail_004_kani=true&JigyosyoCd=3312310224-00&ServiceCd=140&Type=search", "url2": null }, "geometry": { "type": "Point", "coordinates": [ 134.093459899999971, 34.844841 ] } },
{ "type": "Feature", "properties": { "内容": "里庄町介護老人保健施設里見川荘訪問リハビリテーション【訪問リハビリテーション】岡山県浅口郡里庄町大字里見7350", "url": "https://www.kaigokensaku.mhlw.go.jp/33/index.php?action_kouhyou_detail_004_kani=true&JigyosyoCd=3372701163-00&ServiceCd=140&Type=search", "url2": "https://hoseikai.jp/?page_id=1362" }, "geometry": { "type": "Point", "coordinates": [ 133.5659134, 34.5242031 ] } },
{ "type": "Feature", "properties": { "内容": "医療法人萌生会国定病院【訪問リハビリテーション】岡山県浅口郡里庄町浜中９３－１４１", "url": "https://www.kaigokensaku.mhlw.go.jp/33/index.php?action_kouhyou_detail_004_kani=true&JigyosyoCd=3312710035-00&ServiceCd=140&Type=search", "url2": "http://hoseikai.jp/" }, "geometry": { "type": "Point", "coordinates": [ 133.532172796295214, 34.496832521125526 ] } },
{ "type": "Feature", "properties": { "内容": "矢掛町国民健康保険病院【訪問リハビリテーション】岡山県小田郡矢掛町矢掛２６９５", "url": "https://www.kaigokensaku.mhlw.go.jp/33/index.php?action_kouhyou_detail_004_kani=true&JigyosyoCd=3318901315-00&ServiceCd=140&Type=search", "url2": "http://www.town.yakage.lg.jp/hospital/index.html" }, "geometry": { "type": "Point", "coordinates": [ 133.587626900000032, 34.6285375 ] } },
{ "type": "Feature", "properties": { "内容": "ポルソ矢掛訪問リハビリテーション【訪問リハビリテーション】岡山県小田郡矢掛町横谷1497番地", "url": "https://www.kaigokensaku.mhlw.go.jp/33/index.php?action_kouhyou_detail_004_kani=true&JigyosyoCd=3352880011-00&ServiceCd=140&Type=search", "url2": "https://polso-yakage.jimdofree.com/" }, "geometry": { "type": "Point", "coordinates": [ 133.625235323031546, 34.606866748720599 ] } },
{ "type": "Feature", "properties": { "内容": "一般財団法人共愛会　老人保健施設　虹　訪問リハビリテーション【訪問リハビリテーション】岡山県苫田郡鏡野町古川1406", "url": "https://www.kaigokensaku.mhlw.go.jp/33/index.php?action_kouhyou_detail_004_kani=true&JigyosyoCd=3353580024-00&ServiceCd=140&Type=search", "url2": "http://www.kyouaikai.or.jp/" }, "geometry": { "type": "Point", "coordinates": [ 133.9360739, 35.0723187 ] } }
]
}
